G21
G90
G0 X21.80 Y50.80 F3000
G04 P0.5
M05
G04 P0.5
G1 X33.13 Y29.03 F1000
G1 X18.77 Y17.63 F1000
G1 X18.77 Y0.00 F1000
G1 X11.07 Y0.00 F1000
G1 X11.07 Y50.80 F1000
G1 X21.80 Y50.80 F1000
G04 P0.5
M03
G04 P0.5
G0 X25.51 Y39.40 F3000
G04 P0.5
M05
G04 P0.5
G1 X18.77 Y43.11 F1000
G1 X18.77 Y25.33 F1000
G1 X21.74 Y25.33 F1000
G1 X25.43 Y29.54 F1000
G1 X25.51 Y39.40 F1000
G04 P0.5
M03
G04 P0.5
G0 X63.47 Y50.80 F3000
G04 P0.5
M05
G04 P0.5
G1 X63.47 Y0.00 F1000
G1 X55.77 Y0.00 F1000
G1 X55.77 Y21.56 F1000
G1 X46.20 Y21.56 F1000
G1 X46.20 Y0.00 F1000
G1 X38.50 Y0.00 F1000
G1 X38.50 Y50.80 F1000
G1 X46.20 Y50.80 F1000
G1 X46.20 Y29.24 F1000
G1 X55.77 Y29.24 F1000
G1 X55.77 Y50.80 F1000
G1 X63.47 Y50.80 F1000
G04 P0.5
M03
G04 P0.5
G0 X70.50 Y0.00 F3000
G04 P0.5
M05
G04 P0.5
G1 X70.50 Y50.80 F1000
G1 X78.20 Y50.80 F1000
G1 X78.20 Y0.00 F1000
G1 X70.50 Y0.00 F1000
G04 P0.5
M03
G04 P0.5
G0 X103.74 Y7.69 F3000
G04 P0.5
M05
G04 P0.5
G1 X103.74 Y0.00 F1000
G1 X85.23 Y0.00 F1000
G1 X85.23 Y50.80 F1000
G1 X92.93 Y50.80 F1000
G1 X92.93 Y7.69 F1000
G1 X103.74 Y7.69 F1000
G04 P0.5
M03
G04 P0.5
G0 X107.95 Y0.00 F3000
G04 P0.5
M05
G04 P0.5
G1 X107.95 Y50.80 F1000
G1 X115.65 Y50.80 F1000
G1 X115.65 Y0.00 F1000
G1 X107.95 Y0.00 F1000
G04 P0.5
M03
G04 P0.5
G0 X133.42 Y50.80 F3000
G04 P0.5
M05
G04 P0.5
G1 X144.75 Y29.03 F1000
G1 X130.38 Y17.63 F1000
G1 X130.38 Y0.00 F1000
G1 X122.68 Y0.00 F1000
G1 X122.68 Y50.80 F1000
G1 X133.42 Y50.80 F1000
G04 P0.5
M03
G04 P0.5
G0 X137.13 Y39.40 F3000
G04 P0.5
M05
G04 P0.5
G1 X130.38 Y43.11 F1000
G1 X130.38 Y25.33 F1000
G1 X133.35 Y25.33 F1000
G1 X137.05 Y29.54 F1000
G1 X137.13 Y39.40 F1000
G04 P0.5
M03
G04 P0.5
G0 X0.00 Y0.00 F3000
G04 P0.5
M05
G04 P0.5
G1 X152.40 Y0.00 F1000
G1 X152.40 Y50.80 F1000
G1 X0.00 Y50.80 F1000
G1 X0.00 Y0.00 F1000
G04 P0.5
M03
G04 P0.5
G0 X43.07 Y60.80 F3000
G04 P0.5
M05
G04 P0.5
G1 X43.07 Y111.60 F1000
G1 X50.77 Y111.60 F1000
G1 X50.77 Y60.80 F1000
G1 X43.07 Y60.80 F1000
G04 P0.5
M03
G04 P0.5
G0 X82.69 Y60.80 F3000
G04 P0.5
M05
G04 P0.5
G1 X74.93 Y60.80 F1000
G1 X73.12 Y73.14 F1000
G1 X65.42 Y73.14 F1000
G1 X63.60 Y60.80 F1000
G1 X55.84 Y60.80 F1000
G1 X63.17 Y111.60 F1000
G1 X75.07 Y111.60 F1000
G1 X82.69 Y60.80 F1000
G04 P0.5
M03
G04 P0.5
G0 X71.95 Y80.83 F3000
G04 P0.5
M05
G04 P0.5
G1 X69.13 Y99.19 F1000
G1 X66.51 Y80.83 F1000
G1 X71.95 Y80.83 F1000
G04 P0.5
M03
G04 P0.5
G0 X112.81 Y111.60 F3000
G04 P0.5
M05
G04 P0.5
G1 X112.81 Y60.80 F1000
G1 X104.24 Y60.80 F1000
G1 X95.40 Y88.96 F1000
G1 X95.40 Y60.80 F1000
G1 X87.70 Y60.80 F1000
G1 X87.70 Y111.60 F1000
G1 X96.34 Y111.60 F1000
G1 X105.12 Y83.73 F1000
G1 X105.12 Y111.60 F1000
G1 X112.81 Y111.60 F1000
G04 P0.5
M03
G04 P0.5
G0 X0.00 Y60.80 F3000
G04 P0.5
M05
G04 P0.5
G1 X152.40 Y60.80 F1000
G1 X152.40 Y111.60 F1000
G1 X0.00 Y111.60 F1000
G1 X0.00 Y60.80 F1000
G04 P0.5
M03
G04 P0.5
G0 X45.65 Y168.14 F3000
G04 P0.5
M05
G04 P0.5
G1 X45.65 Y132.04 F1000
G1 X34.74 Y121.60 F1000
G1 X24.30 Y136.42 F1000
G1 X31.36 Y136.42 F1000
G1 X31.36 Y132.04 F1000
G1 X35.21 Y128.64 F1000
G1 X38.60 Y168.14 F1000
G1 X45.65 Y168.14 F1000
G04 P0.5
M03
G04 P0.5
G0 X74.70 Y121.60 F3000
G04 P0.5
M05
G04 P0.5
G1 X67.59 Y121.60 F1000
G1 X65.93 Y132.90 F1000
G1 X58.88 Y132.90 F1000
G1 X57.21 Y121.60 F1000
G1 X50.10 Y121.60 F1000
G1 X56.82 Y168.14 F1000
G1 X67.72 Y168.14 F1000
G1 X74.70 Y121.60 F1000
G04 P0.5
M03
G04 P0.5
G0 X64.86 Y139.95 F3000
G04 P0.5
M05
G04 P0.5
G1 X62.27 Y156.78 F1000
G1 X59.87 Y139.95 F1000
G1 X64.86 Y139.95 F1000
G04 P0.5
M03
G04 P0.5
G0 X93.12 Y153.32 F3000
G04 P0.5
M05
G04 P0.5
G1 X93.12 Y157.70 F1000
G1 X89.26 Y161.10 F1000
G1 X85.87 Y132.04 F1000
G1 X89.73 Y128.64 F1000
G1 X93.12 Y136.42 F1000
G1 X100.17 Y136.42 F1000
G1 X100.17 Y132.04 F1000
G1 X89.26 Y121.60 F1000
G1 X78.82 Y157.70 F1000
G1 X89.73 Y168.14 F1000
G1 X100.17 Y153.32 F1000
G1 X93.12 Y153.32 F1000
G04 P0.5
M03
G04 P0.5
G0 X128.63 Y121.60 F3000
G04 P0.5
M05
G04 P0.5
G1 X121.04 Y121.60 F1000
G1 X113.40 Y141.41 F1000
G1 X112.47 Y141.41 F1000
G1 X112.47 Y121.60 F1000
G1 X105.42 Y121.60 F1000
G1 X105.42 Y168.14 F1000
G1 X112.47 Y168.14 F1000
G1 X112.47 Y148.46 F1000
G1 X113.26 Y148.46 F1000
G1 X120.04 Y168.14 F1000
G1 X127.49 Y168.14 F1000
G1 X119.52 Y145.07 F1000
G1 X128.63 Y121.60 F1000
G04 P0.5
M03
G04 P0.5
G0 X128.96 Y172.33 F3000
G04 P0.5
M05
G04 P0.5
G1 X128.69 Y171.60 F1000
G1 X128.69 Y172.40 F1000
G1 X128.96 Y172.33 F1000
G04 P0.5
M03
G04 P0.5
G0 X0.00 Y121.60 F3000
G04 P0.5
M05
G04 P0.5
G1 X152.40 Y121.60 F1000
G1 X152.40 Y172.40 F1000
G1 X0.00 Y172.40 F1000
G1 X0.00 Y121.60 F1000
G04 P0.5
M03
G04 P0.5
G0 X6.78 Y182.40 F3000
G04 P0.5
M05
G04 P0.5
G1 X6.78 Y233.20 F1000
G1 X14.48 Y233.20 F1000
G1 X14.48 Y182.40 F1000
G1 X6.78 Y182.40 F1000
G04 P0.5
M03
G04 P0.5
G0 X43.73 Y217.02 F3000
G04 P0.5
M05
G04 P0.5
G1 X36.03 Y217.02 F1000
G1 X36.03 Y221.80 F1000
G1 X31.82 Y225.51 F1000
G1 X28.12 Y220.86 F1000
G1 X43.73 Y193.80 F1000
G1 X31.82 Y182.40 F1000
G1 X20.43 Y198.58 F1000
G1 X28.12 Y198.58 F1000
G1 X28.12 Y193.80 F1000
G1 X32.33 Y190.09 F1000
G1 X36.03 Y194.74 F1000
G1 X20.43 Y221.80 F1000
G1 X32.33 Y233.20 F1000
G1 X43.73 Y217.02 F1000
G04 P0.5
M03
G04 P0.5
G0 X74.49 Y182.40 F3000
G04 P0.5
M05
G04 P0.5
G1 X66.73 Y182.40 F1000
G1 X64.92 Y194.74 F1000
G1 X57.22 Y194.74 F1000
G1 X55.40 Y182.40 F1000
G1 X47.64 Y182.40 F1000
G1 X54.97 Y233.20 F1000
G1 X66.87 Y233.20 F1000
G1 X74.49 Y182.40 F1000
G04 P0.5
M03
G04 P0.5
G0 X63.75 Y202.43 F3000
G04 P0.5
M05
G04 P0.5
G1 X60.93 Y220.79 F1000
G1 X58.31 Y202.43 F1000
G1 X63.75 Y202.43 F1000
G04 P0.5
M03
G04 P0.5
G0 X79.50 Y182.40 F3000
G04 P0.5
M05
G04 P0.5
G1 X79.50 Y233.20 F1000
G1 X87.20 Y233.20 F1000
G1 X87.20 Y182.40 F1000
G1 X79.50 Y182.40 F1000
G04 P0.5
M03
G04 P0.5
G0 X119.12 Y182.40 F3000
G04 P0.5
M05
G04 P0.5
G1 X111.36 Y182.40 F1000
G1 X109.55 Y194.74 F1000
G1 X101.85 Y194.74 F1000
G1 X100.04 Y182.40 F1000
G1 X92.27 Y182.40 F1000
G1 X99.61 Y233.20 F1000
G1 X111.50 Y233.20 F1000
G1 X119.12 Y182.40 F1000
G04 P0.5
M03
G04 P0.5
G0 X108.38 Y202.43 F3000
G04 P0.5
M05
G04 P0.5
G1 X105.56 Y220.79 F1000
G1 X102.94 Y202.43 F1000
G1 X108.38 Y202.43 F1000
G04 P0.5
M03
G04 P0.5
G0 X149.10 Y233.20 F3000
G04 P0.5
M05
G04 P0.5
G1 X149.10 Y182.40 F1000
G1 X141.40 Y182.40 F1000
G1 X141.40 Y203.96 F1000
G1 X131.83 Y203.96 F1000
G1 X131.83 Y182.40 F1000
G1 X124.13 Y182.40 F1000
G1 X124.13 Y233.20 F1000
G1 X131.83 Y233.20 F1000
G1 X131.83 Y211.64 F1000
G1 X141.40 Y211.64 F1000
G1 X141.40 Y233.20 F1000
G1 X149.10 Y233.20 F1000
G04 P0.5
M03
G04 P0.5
G0 X0.00 Y182.40 F3000
G04 P0.5
M05
G04 P0.5
G1 X152.40 Y182.40 F1000
G1 X152.40 Y233.20 F1000
G1 X0.00 Y233.20 F1000
G1 X0.00 Y182.40 F1000
G04 P0.5
M03
G04 P0.5
G0 X15.63 Y276.24 F3000
G04 P0.5
M05
G04 P0.5
G1 X15.63 Y280.26 F1000
G1 X12.09 Y283.38 F1000
G1 X8.98 Y256.69 F1000
G1 X12.52 Y253.57 F1000
G1 X15.63 Y260.72 F1000
G1 X22.11 Y260.72 F1000
G1 X22.11 Y256.69 F1000
G1 X12.09 Y247.10 F1000
G1 X2.50 Y280.26 F1000
G1 X12.52 Y289.85 F1000
G1 X22.11 Y276.24 F1000
G1 X15.63 Y276.24 F1000
G04 P0.5
M03
G04 P0.5
G0 X47.95 Y289.85 F3000
G04 P0.5
M05
G04 P0.5
G1 X47.95 Y247.10 F1000
G1 X41.47 Y247.10 F1000
G1 X41.47 Y265.24 F1000
G1 X33.42 Y265.24 F1000
G1 X33.42 Y247.10 F1000
G1 X26.93 Y247.10 F1000
G1 X26.93 Y289.85 F1000
G1 X33.42 Y289.85 F1000
G1 X33.42 Y271.71 F1000
G1 X41.47 Y271.71 F1000
G1 X41.47 Y289.85 F1000
G1 X47.95 Y289.85 F1000
G04 P0.5
M03
G04 P0.5
G0 X74.82 Y247.10 F3000
G04 P0.5
M05
G04 P0.5
G1 X68.29 Y247.10 F1000
G1 X66.77 Y257.48 F1000
G1 X60.29 Y257.48 F1000
G1 X58.76 Y247.10 F1000
G1 X52.22 Y247.10 F1000
G1 X58.40 Y289.85 F1000
G1 X68.41 Y289.85 F1000
G1 X74.82 Y247.10 F1000
G04 P0.5
M03
G04 P0.5
G0 X65.78 Y263.95 F3000
G04 P0.5
M05
G04 P0.5
G1 X63.41 Y279.41 F1000
G1 X61.20 Y263.95 F1000
G1 X65.78 Y263.95 F1000
G04 P0.5
M03
G04 P0.5
G0 X95.22 Y268.72 F3000
G04 P0.5
M05
G04 P0.5
G1 X97.61 Y250.33 F1000
G1 X97.61 Y247.10 F1000
G1 X91.13 Y247.10 F1000
G1 X91.13 Y250.82 F1000
G1 X91.20 Y262.37 F1000
G1 X85.52 Y265.48 F1000
G1 X85.52 Y247.35 F1000
G1 X79.04 Y247.35 F1000
G1 X79.04 Y290.10 F1000
G1 X88.08 Y290.10 F1000
G1 X97.61 Y275.07 F1000
G04 P0.5
M03
G04 P0.5
G0 X91.13 Y275.50 F3000
G04 P0.5
M05
G04 P0.5
G1 X91.20 Y280.51 F1000
G1 X85.52 Y283.62 F1000
G1 X85.52 Y271.96 F1000
G1 X88.02 Y271.96 F1000
G1 X91.13 Y275.50 F1000
G04 P0.5
M03
G04 P0.5
G0 X118.80 Y253.57 F3000
G04 P0.5
M05
G04 P0.5
G1 X118.80 Y247.10 F1000
G1 X103.23 Y247.10 F1000
G1 X103.23 Y289.85 F1000
G1 X109.71 Y289.85 F1000
G1 X109.71 Y253.57 F1000
G1 X118.80 Y253.57 F1000
G04 P0.5
M03
G04 P0.5
G0 X122.34 Y247.10 F3000
G04 P0.5
M05
G04 P0.5
G1 X122.34 Y289.85 F1000
G1 X128.82 Y289.85 F1000
G1 X128.82 Y247.10 F1000
G1 X122.34 Y247.10 F1000
G04 P0.5
M03
G04 P0.5
G0 X141.22 Y283.38 F3000
G04 P0.5
M05
G04 P0.5
G1 X141.22 Y271.71 F1000
G1 X150.81 Y271.71 F1000
G1 X150.81 Y265.24 F1000
G1 X141.22 Y265.24 F1000
G1 X141.22 Y253.57 F1000
G1 X152.40 Y253.57 F1000
G1 X152.40 Y247.10 F1000
G1 X134.74 Y247.10 F1000
G1 X134.74 Y289.85 F1000
G1 X152.40 Y289.85 F1000
G1 X152.40 Y283.38 F1000
G1 X141.22 Y283.38 F1000
G04 P0.5
M03
G04 P0.5
G0 X0.00 Y243.20 F3000
G04 P0.5
M05
G04 P0.5
G1 X152.40 Y243.20 F1000
G1 X152.40 Y294.00 F1000
G1 X0.00 Y294.00 F1000
G1 X0.00 Y243.20 F1000
G04 P0.5
M03
G04 P0.5
G04 P0.5
M03
G04 P0.5
G0 X0 Y0