G21
G90
G0 X43.03 Y0.00 F3000
G04 P0.5
M05
G04 P0.5
G1 X35.35 Y0.00 F1000
G1 X35.35 Y31.27 F1000
G1 X29.31 Y0.79 F1000
G1 X29.46 Y0.00 F1000
G1 X21.26 Y0.00 F1000
G1 X21.48 Y0.79 F1000
G1 X15.39 Y31.27 F1000
G1 X15.39 Y0.00 F1000
G1 X7.69 Y0.00 F1000
G1 X7.69 Y50.80 F1000
G1 X19.38 Y50.80 F1000
G1 X25.40 Y20.54 F1000
G1 X31.35 Y50.80 F1000
G1 X43.03 Y50.80 F1000
G1 X43.03 Y0.00 F1000
G04 P0.5
M03
G04 P0.5
G0 X50.07 Y0.00 F3000
G04 P0.5
M05
G04 P0.5
G1 X50.07 Y50.80 F1000
G1 X57.77 Y50.80 F1000
G1 X57.77 Y0.00 F1000
G1 X50.07 Y0.00 F1000
G04 P0.5
M03
G04 P0.5
G0 X79.90 Y34.62 F3000
G04 P0.5
M05
G04 P0.5
G1 X79.90 Y39.40 F1000
G1 X75.69 Y43.11 F1000
G1 X71.99 Y11.40 F1000
G1 X76.20 Y7.69 F1000
G1 X79.90 Y16.18 F1000
G1 X87.59 Y16.18 F1000
G1 X87.59 Y11.40 F1000
G1 X75.69 Y0.00 F1000
G1 X64.29 Y39.40 F1000
G1 X76.20 Y50.80 F1000
G1 X87.59 Y34.62 F1000
G1 X79.90 Y34.62 F1000
G04 P0.5
M03
G04 P0.5
G0 X118.21 Y0.00 F3000
G04 P0.5
M05
G04 P0.5
G1 X110.46 Y0.00 F1000
G1 X108.64 Y12.34 F1000
G1 X100.94 Y12.34 F1000
G1 X99.13 Y0.00 F1000
G1 X91.36 Y0.00 F1000
G1 X98.70 Y50.80 F1000
G1 X110.59 Y50.80 F1000
G1 X118.21 Y0.00 F1000
G04 P0.5
M03
G04 P0.5
G0 X107.47 Y20.03 F3000
G04 P0.5
M05
G04 P0.5
G1 X104.65 Y38.39 F1000
G1 X102.03 Y20.03 F1000
G1 X107.47 Y20.03 F1000
G04 P0.5
M03
G04 P0.5
G0 X148.19 Y50.80 F3000
G04 P0.5
M05
G04 P0.5
G1 X148.19 Y0.00 F1000
G1 X140.49 Y0.00 F1000
G1 X140.49 Y21.56 F1000
G1 X130.92 Y21.56 F1000
G1 X130.92 Y0.00 F1000
G1 X123.22 Y0.00 F1000
G1 X123.22 Y50.80 F1000
G1 X130.92 Y50.80 F1000
G1 X130.92 Y29.24 F1000
G1 X140.49 Y29.24 F1000
G1 X140.49 Y50.80 F1000
G1 X148.19 Y50.80 F1000
G04 P0.5
M03
G04 P0.5
G0 X0.00 Y0.00 F3000
G04 P0.5
M05
G04 P0.5
G1 X152.40 Y0.00 F1000
G1 X152.40 Y50.80 F1000
G1 X0.00 Y50.80 F1000
G1 X0.00 Y0.00 F1000
G04 P0.5
M03
G04 P0.5
G0 X17.21 Y92.28 F3000
G04 P0.5
M05
G04 P0.5
G1 X12.05 Y92.28 F1000
G1 X12.05 Y95.48 F1000
G1 X9.24 Y97.97 F1000
G1 X6.76 Y94.85 F1000
G1 X17.21 Y76.72 F1000
G1 X9.24 Y69.09 F1000
G1 X1.60 Y79.93 F1000
G1 X6.76 Y79.93 F1000
G1 X6.76 Y76.72 F1000
G1 X9.58 Y74.24 F1000
G1 X12.05 Y77.35 F1000
G1 X1.60 Y95.48 F1000
G1 X9.58 Y103.12 F1000
G1 X17.21 Y92.28 F1000
G04 P0.5
M03
G04 P0.5
G0 X37.87 Y103.12 F3000
G04 P0.5
M05
G04 P0.5
G1 X37.87 Y69.09 F1000
G1 X32.71 Y69.09 F1000
G1 X32.71 Y83.53 F1000
G1 X26.30 Y83.53 F1000
G1 X26.30 Y69.09 F1000
G1 X21.15 Y69.09 F1000
G1 X21.15 Y103.12 F1000
G1 X26.30 Y103.12 F1000
G1 X26.30 Y88.68 F1000
G1 X32.71 Y88.68 F1000
G1 X32.71 Y103.12 F1000
G1 X37.87 Y103.12 F1000
G04 P0.5
M03
G04 P0.5
G0 X47.74 Y97.97 F3000
G04 P0.5
M05
G04 P0.5
G1 X47.74 Y88.68 F1000
G1 X55.37 Y88.68 F1000
G1 X55.37 Y83.53 F1000
G1 X47.74 Y83.53 F1000
G1 X47.74 Y74.24 F1000
G1 X56.64 Y74.24 F1000
G1 X56.64 Y69.09 F1000
G1 X42.58 Y69.09 F1000
G1 X42.58 Y103.12 F1000
G1 X56.64 Y103.12 F1000
G1 X56.64 Y97.97 F1000
G1 X47.74 Y97.97 F1000
G04 P0.5
M03
G04 P0.5
G0 X67.62 Y103.12 F3000
G04 P0.5
M05
G04 P0.5
G1 X75.21 Y88.53 F1000
G1 X65.58 Y80.90 F1000
G1 X65.58 Y69.09 F1000
G1 X60.42 Y69.09 F1000
G1 X60.42 Y103.12 F1000
G1 X67.62 Y103.12 F1000
G04 P0.5
M03
G04 P0.5
G0 X70.10 Y95.48 F3000
G04 P0.5
M05
G04 P0.5
G1 X65.58 Y97.97 F1000
G1 X65.58 Y86.06 F1000
G1 X67.57 Y86.06 F1000
G1 X70.05 Y88.87 F1000
G1 X70.10 Y95.48 F1000
G04 P0.5
M03
G04 P0.5
G0 X95.53 Y103.12 F3000
G04 P0.5
M05
G04 P0.5
G1 X95.53 Y69.09 F1000
G1 X90.37 Y69.09 F1000
G1 X90.37 Y83.53 F1000
G1 X83.96 Y83.53 F1000
G1 X83.96 Y69.09 F1000
G1 X78.80 Y69.09 F1000
G1 X78.80 Y103.12 F1000
G1 X83.96 Y103.12 F1000
G1 X83.96 Y88.68 F1000
G1 X90.37 Y88.68 F1000
G1 X90.37 Y103.12 F1000
G1 X95.53 Y103.12 F1000
G04 P0.5
M03
G04 P0.5
G0 X105.40 Y97.97 F3000
G04 P0.5
M05
G04 P0.5
G1 X105.40 Y88.68 F1000
G1 X113.02 Y88.68 F1000
G1 X113.02 Y83.53 F1000
G1 X105.40 Y83.53 F1000
G1 X105.40 Y74.24 F1000
G1 X114.29 Y74.24 F1000
G1 X114.29 Y69.09 F1000
G1 X100.24 Y69.09 F1000
G1 X100.24 Y103.12 F1000
G1 X114.29 Y103.12 F1000
G1 X114.29 Y97.97 F1000
G1 X105.40 Y97.97 F1000
G04 P0.5
M03
G04 P0.5
G0 X130.96 Y86.30 F3000
G04 P0.5
M05
G04 P0.5
G1 X132.86 Y71.66 F1000
G1 X132.86 Y69.09 F1000
G1 X127.70 Y69.09 F1000
G1 X127.70 Y72.05 F1000
G1 X127.76 Y81.24 F1000
G1 X123.24 Y83.72 F1000
G1 X123.24 Y69.28 F1000
G1 X118.08 Y69.28 F1000
G1 X118.08 Y103.31 F1000
G1 X125.27 Y103.31 F1000
G1 X132.86 Y91.35 F1000
G04 P0.5
M03
G04 P0.5
G0 X127.70 Y91.69 F3000
G04 P0.5
M05
G04 P0.5
G1 X127.76 Y95.68 F1000
G1 X123.24 Y98.16 F1000
G1 X123.24 Y88.87 F1000
G1 X125.23 Y88.87 F1000
G1 X127.70 Y91.69 F1000
G04 P0.5
M03
G04 P0.5
G0 X144.77 Y103.12 F3000
G04 P0.5
M05
G04 P0.5
G1 X152.40 Y76.72 F1000
G1 X137.33 Y69.09 F1000
G1 X137.33 Y103.12 F1000
G1 X144.77 Y103.12 F1000
G04 P0.5
M03
G04 P0.5
G0 X144.77 Y97.97 F3000
G04 P0.5
M05
G04 P0.5
G1 X142.49 Y97.97 F1000
G1 X142.49 Y74.24 F1000
G1 X144.77 Y74.24 F1000
G1 X147.25 Y95.48 F1000
G04 P0.5
M03
G04 P0.5
G0 X0.00 Y60.80 F3000
G04 P0.5
M05
G04 P0.5
G1 X152.40 Y60.80 F1000
G1 X152.40 Y111.60 F1000
G1 X0.00 Y111.60 F1000
G1 X0.00 Y60.80 F1000
G04 P0.5
M03
G04 P0.5
G0 X49.21 Y172.40 F3000
G04 P0.5
M05
G04 P0.5
G1 X49.21 Y121.60 F1000
G1 X40.63 Y121.60 F1000
G1 X31.79 Y149.76 F1000
G1 X31.79 Y121.60 F1000
G1 X24.09 Y121.60 F1000
G1 X24.09 Y172.40 F1000
G1 X32.73 Y172.40 F1000
G1 X41.51 Y144.53 F1000
G1 X41.51 Y172.40 F1000
G1 X49.21 Y172.40 F1000
G04 P0.5
M03
G04 P0.5
G0 X81.13 Y121.60 F3000
G04 P0.5
M05
G04 P0.5
G1 X73.37 Y121.60 F1000
G1 X71.56 Y133.94 F1000
G1 X63.86 Y133.94 F1000
G1 X62.05 Y121.60 F1000
G1 X54.28 Y121.60 F1000
G1 X61.61 Y172.40 F1000
G1 X73.51 Y172.40 F1000
G1 X81.13 Y121.60 F1000
G04 P0.5
M03
G04 P0.5
G0 X70.39 Y141.63 F3000
G04 P0.5
M05
G04 P0.5
G1 X67.57 Y159.99 F1000
G1 X64.95 Y141.63 F1000
G1 X70.39 Y141.63 F1000
G04 P0.5
M03
G04 P0.5
G0 X106.39 Y172.40 F3000
G04 P0.5
M05
G04 P0.5
G1 X106.39 Y164.71 F1000
G1 X98.77 Y164.71 F1000
G1 X98.77 Y121.60 F1000
G1 X91.07 Y121.60 F1000
G1 X91.07 Y164.71 F1000
G1 X83.53 Y164.71 F1000
G1 X83.53 Y172.40 F1000
G1 X106.39 Y172.40 F1000
G04 P0.5
M03
G04 P0.5
G0 X118.51 Y164.71 F3000
G04 P0.5
M05
G04 P0.5
G1 X118.51 Y150.84 F1000
G1 X129.90 Y150.84 F1000
G1 X129.90 Y143.16 F1000
G1 X118.51 Y143.16 F1000
G1 X118.51 Y129.29 F1000
G1 X131.79 Y129.29 F1000
G1 X131.79 Y121.60 F1000
G1 X110.81 Y121.60 F1000
G1 X110.81 Y172.40 F1000
G1 X131.79 Y172.40 F1000
G1 X131.79 Y164.71 F1000
G1 X118.51 Y164.71 F1000
G04 P0.5
M03
G04 P0.5
G0 X0.00 Y121.60 F3000
G04 P0.5
M05
G04 P0.5
G1 X152.40 Y121.60 F1000
G1 X152.40 Y172.40 F1000
G1 X0.00 Y172.40 F1000
G1 X0.00 Y121.60 F1000
G04 P0.5
M03
G04 P0.5
G0 X15.24 Y182.40 F3000
G04 P0.5
M05
G04 P0.5
G1 X15.24 Y233.20 F1000
G1 X22.94 Y233.20 F1000
G1 X22.94 Y182.40 F1000
G1 X15.24 Y182.40 F1000
G04 P0.5
M03
G04 P0.5
G0 X52.18 Y217.02 F3000
G04 P0.5
M05
G04 P0.5
G1 X44.48 Y217.02 F1000
G1 X44.48 Y221.80 F1000
G1 X40.28 Y225.51 F1000
G1 X36.58 Y220.86 F1000
G1 X52.18 Y193.80 F1000
G1 X40.28 Y182.40 F1000
G1 X28.88 Y198.58 F1000
G1 X36.58 Y198.58 F1000
G1 X36.58 Y193.80 F1000
G1 X40.79 Y190.09 F1000
G1 X44.48 Y194.74 F1000
G1 X28.88 Y221.80 F1000
G1 X40.79 Y233.20 F1000
G1 X52.18 Y217.02 F1000
G04 P0.5
M03
G04 P0.5
G0 X82.94 Y182.40 F3000
G04 P0.5
M05
G04 P0.5
G1 X75.19 Y182.40 F1000
G1 X73.37 Y194.74 F1000
G1 X65.67 Y194.74 F1000
G1 X63.86 Y182.40 F1000
G1 X56.09 Y182.40 F1000
G1 X63.43 Y233.20 F1000
G1 X75.32 Y233.20 F1000
G1 X82.94 Y182.40 F1000
G04 P0.5
M03
G04 P0.5
G0 X72.21 Y202.43 F3000
G04 P0.5
M05
G04 P0.5
G1 X69.38 Y220.79 F1000
G1 X66.76 Y202.43 F1000
G1 X72.21 Y202.43 F1000
G04 P0.5
M03
G04 P0.5
G0 X112.84 Y182.40 F3000
G04 P0.5
M05
G04 P0.5
G1 X105.09 Y182.40 F1000
G1 X103.27 Y194.74 F1000
G1 X95.57 Y194.74 F1000
G1 X93.76 Y182.40 F1000
G1 X85.99 Y182.40 F1000
G1 X93.33 Y233.20 F1000
G1 X105.22 Y233.20 F1000
G1 X112.84 Y182.40 F1000
G04 P0.5
M03
G04 P0.5
G0 X102.10 Y202.43 F3000
G04 P0.5
M05
G04 P0.5
G1 X99.28 Y220.79 F1000
G1 X96.66 Y202.43 F1000
G1 X102.10 Y202.43 F1000
G04 P0.5
M03
G04 P0.5
G0 X132.95 Y217.02 F3000
G04 P0.5
M05
G04 P0.5
G1 X132.95 Y221.80 F1000
G1 X128.74 Y225.51 F1000
G1 X125.04 Y193.80 F1000
G1 X129.25 Y190.09 F1000
G1 X132.95 Y198.58 F1000
G1 X140.64 Y198.58 F1000
G1 X140.64 Y193.80 F1000
G1 X128.74 Y182.40 F1000
G1 X117.34 Y221.80 F1000
G1 X129.25 Y233.20 F1000
G1 X140.64 Y217.02 F1000
G1 X132.95 Y217.02 F1000
G04 P0.5
M03
G04 P0.5
G0 X0.00 Y182.40 F3000
G04 P0.5
M05
G04 P0.5
G1 X152.40 Y182.40 F1000
G1 X152.40 Y233.20 F1000
G1 X0.00 Y233.20 F1000
G1 X0.00 Y182.40 F1000
G04 P0.5
M03
G04 P0.5
G0 X22.16 Y291.82 F3000
G04 P0.5
M05
G04 P0.5
G1 X22.16 Y255.80 F1000
G1 X11.28 Y245.38 F1000
G1 X0.86 Y260.17 F1000
G1 X7.90 Y260.17 F1000
G1 X7.90 Y255.80 F1000
G1 X11.75 Y252.41 F1000
G1 X15.13 Y291.82 F1000
G1 X22.16 Y291.82 F1000
G04 P0.5
M03
G04 P0.5
G0 X51.15 Y245.38 F3000
G04 P0.5
M05
G04 P0.5
G1 X44.06 Y245.38 F1000
G1 X42.40 Y256.66 F1000
G1 X35.36 Y256.66 F1000
G1 X33.70 Y245.38 F1000
G1 X26.60 Y245.38 F1000
G1 X33.31 Y291.82 F1000
G1 X44.18 Y291.82 F1000
G1 X51.15 Y245.38 F1000
G04 P0.5
M03
G04 P0.5
G0 X41.33 Y263.69 F3000
G04 P0.5
M05
G04 P0.5
G1 X38.75 Y280.48 F1000
G1 X36.36 Y263.69 F1000
G1 X41.33 Y263.69 F1000
G04 P0.5
M03
G04 P0.5
G0 X69.53 Y277.03 F3000
G04 P0.5
M05
G04 P0.5
G1 X69.53 Y281.40 F1000
G1 X65.68 Y284.79 F1000
G1 X62.30 Y255.80 F1000
G1 X66.15 Y252.41 F1000
G1 X69.53 Y260.17 F1000
G1 X76.57 Y260.17 F1000
G1 X76.57 Y255.80 F1000
G1 X65.68 Y245.38 F1000
G1 X55.26 Y281.40 F1000
G1 X66.15 Y291.82 F1000
G1 X76.57 Y277.03 F1000
G1 X69.53 Y277.03 F1000
G04 P0.5
M03
G04 P0.5
G0 X91.73 Y288.70 F3000
G0 X103.37 Y252.41 F3000
G0 X152.40 Y261.70 F3000
G04 P0.5
M05
G04 P0.5
G1 X152.34 Y256.26 F1000
G1 X152.34 Y255.80 F1000
G1 X131.30 Y245.38 F1000
G1 X131.30 Y291.82 F1000
G1 X141.12 Y291.82 F1000
G1 X151.48 Y275.96 F1000
G1 X151.48 Y275.50 F1000
G04 P0.5
M03
G04 P0.5
G0 X138.34 Y272.11 F3000
G04 P0.5
M05
G04 P0.5
G1 X141.33 Y272.11 F1000
G1 X144.44 Y275.96 F1000
G1 X144.51 Y281.40 F1000
G1 X138.34 Y284.79 F1000
G1 X138.34 Y272.11 F1000
G04 P0.5
M03
G04 P0.5
G0 X145.31 Y256.26 F3000
G04 P0.5
M05
G04 P0.5
G1 X145.37 Y261.70 F1000
G1 X138.34 Y265.09 F1000
G1 X138.34 Y252.41 F1000
G1 X141.99 Y252.41 F1000
G1 X145.31 Y256.26 F1000
G04 P0.5
M03
G04 P0.5
G0 X0.00 Y243.20 F3000
G04 P0.5
M05
G04 P0.5
G1 X152.40 Y243.20 F1000
G1 X152.40 Y294.00 F1000
G1 X0.00 Y294.00 F1000
G1 X0.00 Y243.20 F1000
G04 P0.5
M03
G04 P0.5
G04 P0.5
M03
G04 P0.5
G0 X0 Y0