G21
G90
G0 X17.77 Y20.21 F3000
G04 P0.5
M05
G04 P0.5
G1 X4.73 Y19.65 F1000
G1 X13.75 Y40.80 F1000
G1 X17.77 Y40.80 F1000
G1 X17.77 Y20.21 F1000
G04 P0.5
M03
G04 P0.5
G0 X42.98 Y10.52 F3000
G04 P0.5
M05
G04 P0.5
G1 X39.08 Y10.52 F1000
G1 X34.87 Y23.68 F1000
G1 X23.41 Y26.18 F1000
G1 X41.79 Y19.69 F1000
G04 P0.5
M03
G04 P0.5
G0 X38.07 Y20.16 F3000
G04 P0.5
M05
G04 P0.5
G1 X38.07 Y21.51 F1000
G04 P0.5
M03
G04 P0.5
G0 X65.46 Y18.10 F3000
G04 P0.5
M05
G04 P0.5
G1 X61.47 Y25.45 F1000
G1 X65.46 Y18.10 F1000
G04 P0.5
M03
G04 P0.5
G0 X86.82 Y10.52 F3000
G04 P0.5
M05
G04 P0.5
G1 X82.25 Y10.52 F1000
G1 X74.96 Y21.73 F1000
G1 X72.33 Y19.24 F1000
G1 X72.33 Y10.52 F1000
G1 X68.62 Y10.52 F1000
G1 X68.62 Y40.80 F1000
G1 X72.33 Y40.80 F1000
G1 X72.33 Y23.55 F1000
G1 X81.14 Y32.44 F1000
G1 X85.97 Y32.44 F1000
G1 X77.58 Y24.32 F1000
G1 X86.82 Y10.52 F1000
G04 P0.5
M03
G04 P0.5
G0 X102.04 Y26.30 F3000
G04 P0.5
M05
G04 P0.5
G1 X91.98 Y17.62 F1000
G1 X102.04 Y26.30 F1000
G04 P0.5
M03
G04 P0.5
G0 X119.88 Y32.93 F3000
G0 X119.88 Y13.06 F3000
G0 X152.40 Y10.52 F3000
G04 P0.5
M05
G04 P0.5
G1 X148.66 Y10.52 F1000
G1 X148.66 Y23.84 F1000
G1 X138.25 Y10.52 F1000
G1 X134.53 Y10.52 F1000
G1 X134.53 Y32.44 F1000
G1 X137.88 Y32.44 F1000
G1 X137.88 Y29.34 F1000
G1 X137.96 Y29.34 F1000
G1 X152.40 Y10.52 F1000
G04 P0.5
M03
G04 P0.5
G0 X0.00 Y0.00 F3000
G04 P0.5
M05
G04 P0.5
G1 X152.40 Y0.00 F1000
G1 X152.40 Y50.80 F1000
G1 X0.00 Y50.80 F1000
G1 X0.00 Y0.00 F1000
G04 P0.5
M03
G04 P0.5
G0 X11.97 Y63.69 F3000
G04 P0.5
M05
G04 P0.5
G1 X5.88 Y63.69 F1000
G1 X5.88 Y109.49 F1000
G1 X11.97 Y109.49 F1000
G1 X11.97 Y63.69 F1000
G04 P0.5
M03
G04 P0.5
G0 X40.56 Y87.56 F3000
G04 P0.5
M05
G04 P0.5
G1 X25.34 Y74.44 F1000
G1 X40.56 Y87.56 F1000
G04 P0.5
M03
G04 P0.5
G0 X82.81 Y63.69 F3000
G04 P0.5
M05
G04 P0.5
G1 X76.91 Y63.69 F1000
G1 X70.53 Y83.60 F1000
G1 X53.19 Y87.37 F1000
G1 X81.00 Y77.57 F1000
G04 P0.5
M03
G04 P0.5
G0 X75.37 Y78.28 F3000
G04 P0.5
M05
G04 P0.5
G1 X75.37 Y80.32 F1000
G04 P0.5
M03
G04 P0.5
G0 X118.40 Y63.69 F3000
G04 P0.5
M05
G04 P0.5
G1 X112.50 Y63.69 F1000
G1 X106.12 Y83.60 F1000
G1 X88.78 Y87.37 F1000
G1 X116.59 Y77.57 F1000
G04 P0.5
M03
G04 P0.5
G0 X110.96 Y78.28 F3000
G04 P0.5
M05
G04 P0.5
G1 X110.96 Y80.32 F1000
G04 P0.5
M03
G04 P0.5
G0 X152.40 Y75.16 F3000
G04 P0.5
M05
G04 P0.5
G1 X146.37 Y86.27 F1000
G1 X152.40 Y75.16 F1000
G04 P0.5
M03
G04 P0.5
G0 X0.00 Y60.80 F3000
G04 P0.5
M05
G04 P0.5
G1 X152.40 Y60.80 F1000
G1 X152.40 Y111.60 F1000
G1 X0.00 Y111.60 F1000
G1 X0.00 Y60.80 F1000
G04 P0.5
M03
G04 P0.5
G0 X44.55 Y133.08 F3000
G04 P0.5
M05
G04 P0.5
G1 X15.18 Y133.08 F1000
G1 X15.18 Y172.40 F1000
G1 X43.64 Y172.40 F1000
G1 X43.64 Y167.74 F1000
G1 X20.39 Y167.74 F1000
G1 X20.39 Y155.72 F1000
G1 X42.14 Y155.72 F1000
G1 X42.14 Y151.06 F1000
G1 X20.39 Y151.06 F1000
G1 X20.39 Y137.75 F1000
G1 X44.55 Y137.75 F1000
G1 X44.55 Y133.08 F1000
G04 P0.5
M03
G04 P0.5
G0 X55.98 Y133.08 F3000
G04 P0.5
M05
G04 P0.5
G1 X51.15 Y133.08 F1000
G1 X51.15 Y172.40 F1000
G1 X55.98 Y172.40 F1000
G1 X55.98 Y133.08 F1000
G04 P0.5
M03
G04 P0.5
G0 X68.18 Y133.08 F3000
G04 P0.5
M05
G04 P0.5
G1 X63.35 Y133.08 F1000
G1 X63.35 Y161.54 F1000
G1 X68.18 Y161.54 F1000
G1 X68.18 Y133.08 F1000
G04 P0.5
M03
G04 P0.5
G0 X68.18 Y166.93 F3000
G04 P0.5
M05
G04 P0.5
G1 X63.35 Y166.93 F1000
G1 X63.35 Y172.40 F1000
G1 X68.18 Y172.40 F1000
G1 X68.18 Y166.93 F1000
G04 P0.5
M03
G04 P0.5
G0 X80.39 Y131.56 F3000
G04 P0.5
M05
G04 P0.5
G1 X70.35 Y126.17 F1000
G1 X75.55 Y161.54 F1000
G1 X80.39 Y161.54 F1000
G1 X80.39 Y131.56 F1000
G04 P0.5
M03
G04 P0.5
G0 X80.39 Y166.93 F3000
G04 P0.5
M05
G04 P0.5
G1 X75.55 Y166.93 F1000
G1 X75.55 Y172.40 F1000
G1 X80.39 Y172.40 F1000
G1 X80.39 Y166.93 F1000
G04 P0.5
M03
G04 P0.5
G0 X112.43 Y133.08 F3000
G04 P0.5
M05
G04 P0.5
G1 X107.37 Y133.08 F1000
G1 X101.89 Y150.17 F1000
G1 X87.01 Y153.42 F1000
G1 X110.88 Y145.00 F1000
G04 P0.5
M03
G04 P0.5
G0 X106.05 Y145.61 F3000
G04 P0.5
M05
G04 P0.5
G1 X106.05 Y147.36 F1000
G04 P0.5
M03
G04 P0.5
G0 X141.56 Y133.08 F3000
G04 P0.5
M05
G04 P0.5
G1 X136.71 Y133.08 F1000
G1 X136.71 Y151.06 F1000
G1 X123.14 Y133.08 F1000
G1 X118.30 Y133.08 F1000
G1 X118.30 Y172.40 F1000
G1 X123.14 Y172.40 F1000
G1 X123.14 Y158.30 F1000
G1 X141.56 Y133.08 F1000
G04 P0.5
M03
G04 P0.5
G0 X0.00 Y121.60 F3000
G04 P0.5
M05
G04 P0.5
G1 X152.40 Y121.60 F1000
G1 X152.40 Y172.40 F1000
G1 X0.00 Y172.40 F1000
G1 X0.00 Y121.60 F1000
G04 P0.5
M03
G04 P0.5
G0 X30.41 Y193.92 F3000
G04 P0.5
M05
G04 P0.5
G1 X5.84 Y193.92 F1000
G1 X5.84 Y233.20 F1000
G1 X11.04 Y233.20 F1000
G1 X11.04 Y198.59 F1000
G1 X30.41 Y198.59 F1000
G1 X30.41 Y193.92 F1000
G04 P0.5
M03
G04 P0.5
G0 X47.47 Y223.00 F3000
G0 X47.47 Y197.22 F3000
G0 X89.70 Y197.76 F3000
G04 P0.5
M05
G04 P0.5
G1 X70.28 Y190.85 F1000
G1 X85.25 Y218.95 F1000
G1 X85.25 Y222.35 F1000
G1 X89.70 Y222.35 F1000
G1 X89.70 Y197.76 F1000
G04 P0.5
M03
G04 P0.5
G0 X77.35 Y197.86 F3000
G0 X121.58 Y193.92 F3000
G04 P0.5
M05
G04 P0.5
G1 X116.53 Y193.92 F1000
G1 X111.06 Y210.99 F1000
G1 X96.19 Y214.23 F1000
G1 X120.03 Y205.82 F1000
G04 P0.5
M03
G04 P0.5
G0 X115.21 Y206.43 F3000
G04 P0.5
M05
G04 P0.5
G1 X115.21 Y208.18 F1000
G04 P0.5
M03
G04 P0.5
G0 X150.69 Y193.92 F3000
G04 P0.5
M05
G04 P0.5
G1 X145.83 Y193.92 F1000
G1 X145.83 Y211.21 F1000
G1 X132.33 Y193.92 F1000
G1 X127.50 Y193.92 F1000
G1 X127.50 Y222.35 F1000
G1 X131.85 Y222.35 F1000
G1 X131.85 Y218.33 F1000
G1 X131.95 Y218.33 F1000
G1 X150.69 Y193.92 F1000
G04 P0.5
M03
G04 P0.5
G0 X0.00 Y182.40 F3000
G04 P0.5
M05
G04 P0.5
G1 X152.40 Y182.40 F1000
G1 X152.40 Y233.20 F1000
G1 X0.00 Y233.20 F1000
G1 X0.00 Y182.40 F1000
G04 P0.5
M03
G04 P0.5
G0 X45.20 Y252.28 F3000
G04 P0.5
M05
G04 P0.5
G1 X39.13 Y277.10 F1000
G1 X39.38 Y263.66 F1000
G1 X26.03 Y263.66 F1000
G1 X26.03 Y269.07 F1000
G1 X45.20 Y269.07 F1000
G1 X45.20 Y252.28 F1000
G04 P0.5
M03
G04 P0.5
G0 X81.92 Y245.94 F3000
G04 P0.5
M05
G04 P0.5
G1 X76.08 Y245.94 F1000
G1 X69.77 Y265.64 F1000
G1 X52.62 Y269.38 F1000
G1 X80.13 Y259.67 F1000
G04 P0.5
M03
G04 P0.5
G0 X74.56 Y260.37 F3000
G04 P0.5
M05
G04 P0.5
G1 X74.56 Y262.39 F1000
G04 P0.5
M03
G04 P0.5
G0 X94.41 Y275.06 F3000
G04 P0.5
M05
G04 P0.5
G1 X93.88 Y250.06 F1000
G1 X93.88 Y245.94 F1000
G1 X88.69 Y245.94 F1000
G1 X88.69 Y291.26 F1000
G1 X94.26 Y291.26 F1000
G1 X94.26 Y275.06 F1000
G1 X94.41 Y275.06 F1000
G04 P0.5
M03
G04 P0.5
G0 X102.57 Y249.74 F3000
G0 X152.40 Y260.94 F3000
G04 P0.5
M05
G04 P0.5
G1 X127.83 Y260.94 F1000
G1 X152.22 Y255.80 F1000
G04 P0.5
M03
G04 P0.5
G0 X146.68 Y265.51 F3000
G04 P0.5
M05
G04 P0.5
G1 X146.68 Y265.51 F1000
G04 P0.5
M03
G04 P0.5
G0 X0.00 Y243.20 F3000
G04 P0.5
M05
G04 P0.5
G1 X152.40 Y243.20 F1000
G1 X152.40 Y294.00 F1000
G1 X0.00 Y294.00 F1000
G1 X0.00 Y243.20 F1000
G04 P0.5
M03
G04 P0.5
G04 P0.5
M03
G04 P0.5
G0 X0 Y0