G21
G90
G0 X12.58 Y44.57 F3000
G0 X23.76 Y9.72 F3000
G0 X66.83 Y9.72 F3000
G04 P0.5
M05
G04 P0.5
G1 X66.83 Y2.97 F1000
G1 X50.59 Y2.97 F1000
G1 X50.59 Y47.57 F1000
G1 X57.35 Y47.57 F1000
G1 X57.35 Y9.72 F1000
G1 X66.83 Y9.72 F1000
G04 P0.5
M03
G04 P0.5
G0 X70.53 Y2.97 F3000
G04 P0.5
M05
G04 P0.5
G1 X70.53 Y47.57 F1000
G1 X77.29 Y47.57 F1000
G1 X77.29 Y2.97 F1000
G1 X70.53 Y2.97 F1000
G04 P0.5
M03
G04 P0.5
G0 X98.82 Y2.97 F3000
G04 P0.5
M05
G04 P0.5
G1 X88.43 Y2.97 F1000
G1 X81.68 Y47.57 F1000
G1 X88.50 Y47.57 F1000
G1 X93.60 Y13.86 F1000
G1 X98.43 Y47.57 F1000
G1 X105.25 Y47.57 F1000
G1 X98.82 Y2.97 F1000
G04 P0.5
M03
G04 P0.5
G0 X116.34 Y40.82 F3000
G04 P0.5
M05
G04 P0.5
G1 X116.34 Y28.65 F1000
G1 X126.34 Y28.65 F1000
G1 X126.34 Y21.90 F1000
G1 X116.34 Y21.90 F1000
G1 X116.34 Y9.72 F1000
G1 X128.00 Y9.72 F1000
G1 X128.00 Y2.97 F1000
G1 X109.58 Y2.97 F1000
G1 X109.58 Y47.57 F1000
G1 X128.00 Y47.57 F1000
G1 X128.00 Y40.82 F1000
G1 X116.34 Y40.82 F1000
G04 P0.5
M03
G04 P0.5
G0 X149.85 Y25.53 F3000
G04 P0.5
M05
G04 P0.5
G1 X152.34 Y6.35 F1000
G1 X152.34 Y2.97 F1000
G1 X145.58 Y2.97 F1000
G1 X145.58 Y6.85 F1000
G1 X145.65 Y18.90 F1000
G1 X139.73 Y22.14 F1000
G1 X139.73 Y3.23 F1000
G1 X132.97 Y3.23 F1000
G1 X132.97 Y47.83 F1000
G1 X142.40 Y47.83 F1000
G1 X152.34 Y32.15 F1000
G04 P0.5
M03
G04 P0.5
G0 X145.58 Y32.60 F3000
G04 P0.5
M05
G04 P0.5
G1 X145.65 Y37.82 F1000
G1 X139.73 Y41.07 F1000
G1 X139.73 Y28.90 F1000
G1 X142.34 Y28.90 F1000
G1 X145.58 Y32.60 F1000
G04 P0.5
M03
G04 P0.5
G0 X0.00 Y0.00 F3000
G04 P0.5
M05
G04 P0.5
G1 X152.40 Y0.00 F1000
G1 X152.40 Y50.80 F1000
G1 X0.00 Y50.80 F1000
G1 X0.00 Y0.00 F1000
G04 P0.5
M03
G04 P0.5
G0 X29.28 Y111.60 F3000
G04 P0.5
M05
G04 P0.5
G1 X29.28 Y72.20 F1000
G1 X17.38 Y60.80 F1000
G1 X5.98 Y76.98 F1000
G1 X13.68 Y76.98 F1000
G1 X13.68 Y72.20 F1000
G1 X17.89 Y68.49 F1000
G1 X21.59 Y111.60 F1000
G1 X29.28 Y111.60 F1000
G04 P0.5
M03
G04 P0.5
G0 X46.95 Y108.19 F3000
G0 X59.69 Y68.49 F3000
G0 X115.21 Y111.60 F3000
G04 P0.5
M05
G04 P0.5
G1 X115.21 Y60.80 F1000
G1 X107.51 Y60.80 F1000
G1 X107.51 Y82.36 F1000
G1 X97.94 Y82.36 F1000
G1 X97.94 Y60.80 F1000
G1 X90.24 Y60.80 F1000
G1 X90.24 Y111.60 F1000
G1 X97.94 Y111.60 F1000
G1 X97.94 Y90.04 F1000
G1 X107.51 Y90.04 F1000
G1 X107.51 Y111.60 F1000
G1 X115.21 Y111.60 F1000
G04 P0.5
M03
G04 P0.5
G0 X147.36 Y111.60 F3000
G04 P0.5
M05
G04 P0.5
G1 X147.36 Y60.80 F1000
G1 X138.79 Y60.80 F1000
G1 X129.94 Y88.96 F1000
G1 X129.94 Y60.80 F1000
G1 X122.24 Y60.80 F1000
G1 X122.24 Y111.60 F1000
G1 X130.88 Y111.60 F1000
G1 X139.66 Y83.73 F1000
G1 X139.66 Y111.60 F1000
G1 X147.36 Y111.60 F1000
G04 P0.5
M03
G04 P0.5
G0 X0.00 Y60.80 F3000
G04 P0.5
M05
G04 P0.5
G1 X152.40 Y60.80 F1000
G1 X152.40 Y111.60 F1000
G1 X0.00 Y111.60 F1000
G1 X0.00 Y60.80 F1000
G04 P0.5
M03
G04 P0.5
G0 X16.29 Y162.51 F3000
G04 P0.5
M05
G04 P0.5
G1 X16.29 Y136.03 F1000
G1 X8.29 Y128.37 F1000
G1 X0.63 Y139.24 F1000
G1 X5.81 Y139.24 F1000
G1 X5.81 Y136.03 F1000
G1 X8.63 Y133.54 F1000
G1 X11.12 Y162.51 F1000
G1 X16.29 Y162.51 F1000
G04 P0.5
M03
G04 P0.5
G0 X37.60 Y128.37 F3000
G04 P0.5
M05
G04 P0.5
G1 X32.38 Y128.37 F1000
G1 X31.17 Y136.66 F1000
G1 X25.99 Y136.66 F1000
G1 X24.77 Y128.37 F1000
G1 X19.55 Y128.37 F1000
G1 X24.48 Y162.51 F1000
G1 X32.48 Y162.51 F1000
G1 X37.60 Y128.37 F1000
G04 P0.5
M03
G04 P0.5
G0 X30.38 Y141.83 F3000
G04 P0.5
M05
G04 P0.5
G1 X28.48 Y154.17 F1000
G1 X26.72 Y141.83 F1000
G1 X30.38 Y141.83 F1000
G04 P0.5
M03
G04 P0.5
G0 X51.10 Y151.63 F3000
G04 P0.5
M05
G04 P0.5
G1 X51.10 Y154.85 F1000
G1 X48.28 Y157.34 F1000
G1 X45.79 Y136.03 F1000
G1 X48.62 Y133.54 F1000
G1 X51.10 Y139.24 F1000
G1 X56.28 Y139.24 F1000
G1 X56.28 Y136.03 F1000
G1 X48.28 Y128.37 F1000
G1 X40.62 Y154.85 F1000
G1 X48.62 Y162.51 F1000
G1 X56.28 Y151.63 F1000
G1 X51.10 Y151.63 F1000
G04 P0.5
M03
G04 P0.5
G0 X77.15 Y128.37 F3000
G04 P0.5
M05
G04 P0.5
G1 X71.59 Y128.37 F1000
G1 X65.98 Y142.90 F1000
G1 X65.30 Y142.90 F1000
G1 X65.30 Y128.37 F1000
G1 X60.13 Y128.37 F1000
G1 X60.13 Y162.51 F1000
G1 X65.30 Y162.51 F1000
G1 X65.30 Y148.07 F1000
G1 X65.88 Y148.07 F1000
G1 X70.86 Y162.51 F1000
G1 X76.32 Y162.51 F1000
G1 X70.47 Y145.58 F1000
G1 X77.15 Y128.37 F1000
G04 P0.5
M03
G04 P0.5
G0 X77.39 Y165.58 F3000
G04 P0.5
M05
G04 P0.5
G1 X77.20 Y165.04 F1000
G1 X77.20 Y165.63 F1000
G1 X77.39 Y165.58 F1000
G04 P0.5
M03
G04 P0.5
G0 X95.20 Y151.63 F3000
G04 P0.5
M05
G04 P0.5
G1 X90.02 Y151.63 F1000
G1 X90.02 Y154.85 F1000
G1 X87.20 Y157.34 F1000
G1 X84.71 Y154.22 F1000
G1 X95.20 Y136.03 F1000
G1 X87.20 Y128.37 F1000
G1 X79.54 Y139.24 F1000
G1 X84.71 Y139.24 F1000
G1 X84.71 Y136.03 F1000
G1 X87.54 Y133.54 F1000
G1 X90.02 Y136.66 F1000
G1 X79.54 Y154.85 F1000
G1 X87.54 Y162.51 F1000
G1 X95.20 Y151.63 F1000
G04 P0.5
M03
G04 P0.5
G0 X106.43 Y160.21 F3000
G0 X114.99 Y133.54 F3000
G0 X152.40 Y162.51 F3000
G04 P0.5
M05
G04 P0.5
G1 X152.40 Y128.37 F1000
G1 X146.64 Y128.37 F1000
G1 X140.70 Y147.29 F1000
G1 X140.70 Y128.37 F1000
G1 X135.52 Y128.37 F1000
G1 X135.52 Y162.51 F1000
G1 X141.33 Y162.51 F1000
G1 X147.23 Y143.78 F1000
G1 X147.23 Y162.51 F1000
G1 X152.40 Y162.51 F1000
G04 P0.5
M03
G04 P0.5
G0 X0.00 Y121.60 F3000
G04 P0.5
M05
G04 P0.5
G1 X152.40 Y121.60 F1000
G1 X152.40 Y172.40 F1000
G1 X0.00 Y172.40 F1000
G1 X0.00 Y121.60 F1000
G04 P0.5
M03
G04 P0.5
G0 X12.48 Y213.89 F3000
G04 P0.5
M05
G04 P0.5
G1 X12.48 Y217.11 F1000
G1 X9.65 Y219.60 F1000
G1 X7.17 Y198.29 F1000
G1 X9.99 Y195.80 F1000
G1 X12.48 Y205.12 F1000
G1 X9.12 Y205.12 F1000
G1 X9.12 Y210.28 F1000
G1 X17.65 Y210.28 F1000
G1 X17.65 Y198.29 F1000
G1 X9.65 Y190.64 F1000
G1 X2.00 Y217.11 F1000
G1 X9.99 Y224.76 F1000
G1 X17.65 Y213.89 F1000
G1 X12.48 Y213.89 F1000
G04 P0.5
M03
G04 P0.5
G0 X34.90 Y207.90 F3000
G04 P0.5
M05
G04 P0.5
G1 X36.81 Y193.22 F1000
G1 X36.81 Y190.64 F1000
G1 X31.64 Y190.64 F1000
G1 X31.64 Y193.61 F1000
G1 X31.69 Y202.83 F1000
G1 X27.16 Y205.31 F1000
G1 X27.16 Y190.84 F1000
G1 X21.99 Y190.84 F1000
G1 X21.99 Y224.96 F1000
G1 X29.20 Y224.96 F1000
G1 X36.81 Y212.96 F1000
G04 P0.5
M03
G04 P0.5
G0 X31.64 Y213.31 F3000
G04 P0.5
M05
G04 P0.5
G1 X31.69 Y217.31 F1000
G1 X27.16 Y219.79 F1000
G1 X27.16 Y210.48 F1000
G1 X29.15 Y210.48 F1000
G1 X31.64 Y213.31 F1000
G04 P0.5
M03
G04 P0.5
G0 X58.01 Y190.64 F3000
G04 P0.5
M05
G04 P0.5
G1 X52.80 Y190.64 F1000
G1 X51.58 Y198.93 F1000
G1 X46.41 Y198.93 F1000
G1 X45.19 Y190.64 F1000
G1 X39.97 Y190.64 F1000
G1 X44.90 Y224.76 F1000
G1 X52.89 Y224.76 F1000
G1 X58.01 Y190.64 F1000
G04 P0.5
M03
G04 P0.5
G0 X50.80 Y204.09 F3000
G04 P0.5
M05
G04 P0.5
G1 X48.90 Y216.43 F1000
G1 X47.14 Y204.09 F1000
G1 X50.80 Y204.09 F1000
G04 P0.5
M03
G04 P0.5
G0 X71.23 Y201.17 F3000
G04 P0.5
M05
G04 P0.5
G1 X71.23 Y190.64 F1000
G1 X66.06 Y190.64 F1000
G1 X66.06 Y201.17 F1000
G1 X59.48 Y224.76 F1000
G1 X64.84 Y224.76 F1000
G1 X68.59 Y211.40 F1000
G1 X72.06 Y224.76 F1000
G1 X77.42 Y224.76 F1000
G1 X71.23 Y201.17 F1000
G04 P0.5
M03
G04 P0.5
G0 X95.21 Y213.89 F3000
G04 P0.5
M05
G04 P0.5
G1 X90.04 Y213.89 F1000
G1 X90.04 Y217.11 F1000
G1 X87.22 Y219.60 F1000
G1 X84.73 Y216.48 F1000
G1 X95.21 Y198.29 F1000
G1 X87.22 Y190.64 F1000
G1 X79.56 Y201.51 F1000
G1 X84.73 Y201.51 F1000
G1 X84.73 Y198.29 F1000
G1 X87.56 Y195.80 F1000
G1 X90.04 Y198.93 F1000
G1 X79.56 Y217.11 F1000
G1 X87.56 Y224.76 F1000
G1 X95.21 Y213.89 F1000
G04 P0.5
M03
G04 P0.5
G0 X106.45 Y222.47 F3000
G0 X115.00 Y195.80 F3000
G0 X152.40 Y224.76 F3000
G04 P0.5
M05
G04 P0.5
G1 X152.40 Y190.64 F1000
G1 X146.64 Y190.64 F1000
G1 X140.70 Y209.55 F1000
G1 X140.70 Y190.64 F1000
G1 X135.53 Y190.64 F1000
G1 X135.53 Y224.76 F1000
G1 X141.33 Y224.76 F1000
G1 X147.23 Y206.04 F1000
G1 X147.23 Y224.76 F1000
G1 X152.40 Y224.76 F1000
G04 P0.5
M03
G04 P0.5
G0 X0.00 Y182.40 F3000
G04 P0.5
M05
G04 P0.5
G1 X152.40 Y182.40 F1000
G1 X152.40 Y233.20 F1000
G1 X0.00 Y233.20 F1000
G1 X0.00 Y182.40 F1000
G04 P0.5
M03
G04 P0.5
G0 X19.83 Y252.62 F3000
G04 P0.5
M05
G04 P0.5
G1 X19.83 Y245.69 F1000
G1 X3.14 Y245.69 F1000
G1 X3.14 Y291.51 F1000
G1 X10.09 Y291.51 F1000
G1 X10.09 Y252.62 F1000
G1 X19.83 Y252.62 F1000
G04 P0.5
M03
G04 P0.5
G0 X46.08 Y245.69 F3000
G04 P0.5
M05
G04 P0.5
G1 X39.08 Y245.69 F1000
G1 X37.45 Y256.82 F1000
G1 X30.50 Y256.82 F1000
G1 X28.87 Y245.69 F1000
G1 X21.86 Y245.69 F1000
G1 X28.48 Y291.51 F1000
G1 X39.21 Y291.51 F1000
G1 X46.08 Y245.69 F1000
G04 P0.5
M03
G04 P0.5
G0 X36.39 Y263.75 F3000
G04 P0.5
M05
G04 P0.5
G1 X33.85 Y280.32 F1000
G1 X31.49 Y263.75 F1000
G1 X36.39 Y263.75 F1000
G04 P0.5
M03
G04 P0.5
G0 X73.26 Y291.51 F3000
G04 P0.5
M05
G04 P0.5
G1 X73.26 Y245.69 F1000
G1 X65.52 Y245.69 F1000
G1 X57.55 Y271.09 F1000
G1 X57.55 Y245.69 F1000
G1 X50.60 Y245.69 F1000
G1 X50.60 Y291.51 F1000
G1 X58.39 Y291.51 F1000
G1 X66.31 Y266.37 F1000
G1 X66.31 Y291.51 F1000
G1 X73.26 Y291.51 F1000
G04 P0.5
M03
G04 P0.5
G0 X89.61 Y291.51 F3000
G04 P0.5
M05
G04 P0.5
G1 X99.89 Y255.97 F1000
G1 X79.60 Y245.69 F1000
G1 X79.60 Y291.51 F1000
G1 X89.61 Y291.51 F1000
G04 P0.5
M03
G04 P0.5
G0 X89.61 Y284.58 F3000
G04 P0.5
M05
G04 P0.5
G1 X86.55 Y284.58 F1000
G1 X86.55 Y252.62 F1000
G1 X89.61 Y252.62 F1000
G1 X92.96 Y281.23 F1000
G04 P0.5
M03
G04 P0.5
G0 X112.66 Y284.58 F3000
G04 P0.5
M05
G04 P0.5
G1 X112.66 Y272.07 F1000
G1 X122.93 Y272.07 F1000
G1 X122.93 Y265.13 F1000
G1 X112.66 Y265.13 F1000
G1 X112.66 Y252.62 F1000
G1 X124.64 Y252.62 F1000
G1 X124.64 Y245.69 F1000
G1 X105.72 Y245.69 F1000
G1 X105.72 Y291.51 F1000
G1 X124.64 Y291.51 F1000
G1 X124.64 Y284.58 F1000
G1 X112.66 Y284.58 F1000
G04 P0.5
M03
G04 P0.5
G0 X152.40 Y291.51 F3000
G04 P0.5
M05
G04 P0.5
G1 X152.40 Y245.69 F1000
G1 X144.67 Y245.69 F1000
G1 X136.69 Y271.09 F1000
G1 X136.69 Y245.69 F1000
G1 X129.74 Y245.69 F1000
G1 X129.74 Y291.51 F1000
G1 X137.54 Y291.51 F1000
G1 X145.45 Y266.37 F1000
G1 X145.45 Y291.51 F1000
G1 X152.40 Y291.51 F1000
G04 P0.5
M03
G04 P0.5
G0 X0.00 Y243.20 F3000
G04 P0.5
M05
G04 P0.5
G1 X152.40 Y243.20 F1000
G1 X152.40 Y294.00 F1000
G1 X0.00 Y294.00 F1000
G1 X0.00 Y243.20 F1000
G04 P0.5
M03
G04 P0.5
G04 P0.5
M03
G04 P0.5
G0 X0 Y0