G21
G90
G04 P0.5
M03
G04 P0.5
G0 X0.00 Y0.00
G04 P0.5
M05
G04 P0.5
G1 X152.40 Y0.00 F2000
G1 X152.40 Y50.80 F2000
G1 X0.00 Y50.80 F2000
G1 X0.00 Y0.00 F2000
G04 P0.5
M03
G04 P0.5
G0 X5.00 Y25.40
G04 P0.5
M05
G04 P0.5
( John )
G04 P0.5
M03
G04 P0.5
G0 X0.00 Y50.80
G04 P0.5
M05
G04 P0.5
G1 X152.40 Y50.80 F2000
G1 X152.40 Y101.60 F2000
G1 X0.00 Y101.60 F2000
G1 X0.00 Y50.80 F2000
G04 P0.5
M03
G04 P0.5
G0 X5.00 Y76.20
G04 P0.5
M05
G04 P0.5
( Jackson )
G04 P0.5
M03
G04 P0.5
G0 X0.00 Y101.60
G04 P0.5
M05
G04 P0.5
G1 X152.40 Y101.60 F2000
G1 X152.40 Y152.40 F2000
G1 X0.00 Y152.40 F2000
G1 X0.00 Y101.60 F2000
G04 P0.5
M03
G04 P0.5
G0 X5.00 Y127.00
G04 P0.5
M05
G04 P0.5
( Grayson )
G04 P0.5
M03
G04 P0.5
G0 X0.00 Y152.40
G04 P0.5
M05
G04 P0.5
G1 X152.40 Y152.40 F2000
G1 X152.40 Y203.20 F2000
G1 X0.00 Y203.20 F2000
G1 X0.00 Y152.40 F2000
G04 P0.5
M03
G04 P0.5
G0 X5.00 Y177.80
G04 P0.5
M05
G04 P0.5
( Landen )
G04 P0.5
M03
G04 P0.5
M2