;### Header ###

G21
G90
F2000
M03
G0 X0 Y0
G04 P1

;### First line of the gcode ###
G0 X120.000 Y0.000

;### Stuff to be inserted after the first G0 ###
M05
G04 P1

;### Rest of the gcode ###
G1 X120.000 Y1.905
G1 X118.095 Y1.905
G1 X118.095 Y0.000
G1 X116.190 Y0.000
G1 X114.286 Y0.000
G1 X114.286 Y1.905
G1 X116.190 Y1.905
G1 X116.190 Y3.810
G1 X114.286 Y3.810
G1 X114.286 Y5.714
G1 X116.190 Y5.714
G1 X118.095 Y5.714
G1 X118.095 Y3.810
G1 X120.000 Y3.810
G1 X120.000 Y5.714
G1 X120.000 Y7.619
G1 X118.095 Y7.619
G1 X118.095 Y9.524
G1 X120.000 Y9.524
G1 X120.000 Y11.429
G1 X120.000 Y13.333
G1 X118.095 Y13.333
G1 X118.095 Y11.429
G1 X116.190 Y11.429
G1 X116.190 Y13.333
G1 X114.286 Y13.333
G1 X114.286 Y11.429
G1 X114.286 Y9.524
G1 X116.190 Y9.524
G1 X116.190 Y7.619
G1 X114.286 Y7.619
G1 X112.381 Y7.619
G1 X110.476 Y7.619
G1 X110.476 Y9.524
G1 X112.381 Y9.524
G1 X112.381 Y11.429
G1 X112.381 Y13.333
G1 X110.476 Y13.333
G1 X110.476 Y11.429
G1 X108.571 Y11.429
G1 X108.571 Y13.333
G1 X106.667 Y13.333
G1 X106.667 Y11.429
G1 X106.667 Y9.524
G1 X108.571 Y9.524
G1 X108.571 Y7.619
G1 X106.667 Y7.619
G1 X106.667 Y5.714
G1 X106.667 Y3.810
G1 X108.571 Y3.810
G1 X108.571 Y5.714
G1 X110.476 Y5.714
G1 X112.381 Y5.714
G1 X112.381 Y3.810
G1 X110.476 Y3.810
G1 X110.476 Y1.905
G1 X112.381 Y1.905
G1 X112.381 Y0.000
G1 X110.476 Y0.000
G1 X108.571 Y0.000
G1 X108.571 Y1.905
G1 X106.667 Y1.905
G1 X106.667 Y0.000
G1 X104.762 Y0.000
G1 X102.857 Y0.000
G1 X102.857 Y1.905
G1 X104.762 Y1.905
G1 X104.762 Y3.810
G1 X104.762 Y5.714
G1 X102.857 Y5.714
G1 X102.857 Y3.810
G1 X100.952 Y3.810
G1 X100.952 Y5.714
G1 X99.048 Y5.714
G1 X99.048 Y3.810
G1 X99.048 Y1.905
G1 X100.952 Y1.905
G1 X100.952 Y0.000
G1 X99.048 Y0.000
G1 X97.143 Y0.000
G1 X97.143 Y1.905
G1 X95.238 Y1.905
G1 X95.238 Y0.000
G1 X93.333 Y0.000
G1 X91.429 Y0.000
G1 X91.429 Y1.905
G1 X93.333 Y1.905
G1 X93.333 Y3.810
G1 X91.429 Y3.810
G1 X91.429 Y5.714
G1 X93.333 Y5.714
G1 X95.238 Y5.714
G1 X95.238 Y3.810
G1 X97.143 Y3.810
G1 X97.143 Y5.714
G1 X97.143 Y7.619
G1 X97.143 Y9.524
G1 X95.238 Y9.524
G1 X95.238 Y7.619
G1 X93.333 Y7.619
G1 X91.429 Y7.619
G1 X91.429 Y9.524
G1 X93.333 Y9.524
G1 X93.333 Y11.429
G1 X91.429 Y11.429
G1 X91.429 Y13.333
G1 X93.333 Y13.333
G1 X95.238 Y13.333
G1 X95.238 Y11.429
G1 X97.143 Y11.429
G1 X97.143 Y13.333
G1 X99.048 Y13.333
G1 X100.952 Y13.333
G1 X100.952 Y11.429
G1 X99.048 Y11.429
G1 X99.048 Y9.524
G1 X99.048 Y7.619
G1 X100.952 Y7.619
G1 X100.952 Y9.524
G1 X102.857 Y9.524
G1 X102.857 Y7.619
G1 X104.762 Y7.619
G1 X104.762 Y9.524
G1 X104.762 Y11.429
G1 X102.857 Y11.429
G1 X102.857 Y13.333
G1 X104.762 Y13.333
G1 X104.762 Y15.238
G1 X102.857 Y15.238
G1 X102.857 Y17.143
G1 X104.762 Y17.143
G1 X104.762 Y19.048
G1 X104.762 Y20.952
G1 X102.857 Y20.952
G1 X102.857 Y19.048
G1 X100.952 Y19.048
G1 X100.952 Y20.952
G1 X99.048 Y20.952
G1 X99.048 Y19.048
G1 X99.048 Y17.143
G1 X100.952 Y17.143
G1 X100.952 Y15.238
G1 X99.048 Y15.238
G1 X97.143 Y15.238
G1 X97.143 Y17.143
G1 X95.238 Y17.143
G1 X95.238 Y15.238
G1 X93.333 Y15.238
G1 X91.429 Y15.238
G1 X91.429 Y17.143
G1 X93.333 Y17.143
G1 X93.333 Y19.048
G1 X91.429 Y19.048
G1 X91.429 Y20.952
G1 X93.333 Y20.952
G1 X95.238 Y20.952
G1 X95.238 Y19.048
G1 X97.143 Y19.048
G1 X97.143 Y20.952
G1 X97.143 Y22.857
G1 X97.143 Y24.762
G1 X95.238 Y24.762
G1 X95.238 Y22.857
G1 X93.333 Y22.857
G1 X91.429 Y22.857
G1 X91.429 Y24.762
G1 X93.333 Y24.762
G1 X93.333 Y26.667
G1 X91.429 Y26.667
G1 X91.429 Y28.571
G1 X93.333 Y28.571
G1 X95.238 Y28.571
G1 X95.238 Y26.667
G1 X97.143 Y26.667
G1 X97.143 Y28.571
G1 X99.048 Y28.571
G1 X100.952 Y28.571
G1 X100.952 Y26.667
G1 X99.048 Y26.667
G1 X99.048 Y24.762
G1 X99.048 Y22.857
G1 X100.952 Y22.857
G1 X100.952 Y24.762
G1 X102.857 Y24.762
G1 X102.857 Y22.857
G1 X104.762 Y22.857
G1 X104.762 Y24.762
G1 X104.762 Y26.667
G1 X102.857 Y26.667
G1 X102.857 Y28.571
G1 X104.762 Y28.571
G1 X106.667 Y28.571
G1 X106.667 Y26.667
G1 X108.571 Y26.667
G1 X108.571 Y28.571
G1 X110.476 Y28.571
G1 X112.381 Y28.571
G1 X112.381 Y26.667
G1 X110.476 Y26.667
G1 X110.476 Y24.762
G1 X112.381 Y24.762
G1 X112.381 Y22.857
G1 X110.476 Y22.857
G1 X108.571 Y22.857
G1 X108.571 Y24.762
G1 X106.667 Y24.762
G1 X106.667 Y22.857
G1 X106.667 Y20.952
G1 X108.571 Y20.952
G1 X108.571 Y19.048
G1 X106.667 Y19.048
G1 X106.667 Y17.143
G1 X106.667 Y15.238
G1 X108.571 Y15.238
G1 X108.571 Y17.143
G1 X110.476 Y17.143
G1 X110.476 Y15.238
G1 X112.381 Y15.238
G1 X112.381 Y17.143
G1 X112.381 Y19.048
G1 X110.476 Y19.048
G1 X110.476 Y20.952
G1 X112.381 Y20.952
G1 X114.286 Y20.952
G1 X116.190 Y20.952
G1 X116.190 Y19.048
G1 X114.286 Y19.048
G1 X114.286 Y17.143
G1 X114.286 Y15.238
G1 X116.190 Y15.238
G1 X116.190 Y17.143
G1 X118.095 Y17.143
G1 X118.095 Y15.238
G1 X120.000 Y15.238
G1 X120.000 Y17.143
G1 X120.000 Y19.048
G1 X118.095 Y19.048
G1 X118.095 Y20.952
G1 X120.000 Y20.952
G1 X120.000 Y22.857
G1 X120.000 Y24.762
G1 X118.095 Y24.762
G1 X118.095 Y22.857
G1 X116.190 Y22.857
G1 X114.286 Y22.857
G1 X114.286 Y24.762
G1 X116.190 Y24.762
G1 X116.190 Y26.667
G1 X114.286 Y26.667
G1 X114.286 Y28.571
G1 X116.190 Y28.571
G1 X118.095 Y28.571
G1 X118.095 Y26.667
G1 X120.000 Y26.667
G1 X120.000 Y28.571
G1 X120.000 Y30.476
G1 X118.095 Y30.476
G1 X118.095 Y32.381
G1 X120.000 Y32.381
G1 X120.000 Y34.286
G1 X120.000 Y36.190
G1 X118.095 Y36.190
G1 X118.095 Y34.286
G1 X116.190 Y34.286
G1 X116.190 Y36.190
G1 X114.286 Y36.190
G1 X114.286 Y34.286
G1 X114.286 Y32.381
G1 X116.190 Y32.381
G1 X116.190 Y30.476
G1 X114.286 Y30.476
G1 X112.381 Y30.476
G1 X112.381 Y32.381
G1 X110.476 Y32.381
G1 X110.476 Y30.476
G1 X108.571 Y30.476
G1 X106.667 Y30.476
G1 X106.667 Y32.381
G1 X108.571 Y32.381
G1 X108.571 Y34.286
G1 X106.667 Y34.286
G1 X106.667 Y36.190
G1 X108.571 Y36.190
G1 X110.476 Y36.190
G1 X110.476 Y34.286
G1 X112.381 Y34.286
G1 X112.381 Y36.190
G1 X112.381 Y38.095
G1 X112.381 Y40.000
G1 X110.476 Y40.000
G1 X110.476 Y38.095
G1 X108.571 Y38.095
G1 X106.667 Y38.095
G1 X106.667 Y40.000
G1 X108.571 Y40.000
G1 X108.571 Y41.905
G1 X106.667 Y41.905
G1 X106.667 Y43.810
G1 X108.571 Y43.810
G1 X110.476 Y43.810
G1 X110.476 Y41.905
G1 X112.381 Y41.905
G1 X112.381 Y43.810
G1 X114.286 Y43.810
G1 X116.190 Y43.810
G1 X116.190 Y41.905
G1 X114.286 Y41.905
G1 X114.286 Y40.000
G1 X114.286 Y38.095
G1 X116.190 Y38.095
G1 X116.190 Y40.000
G1 X118.095 Y40.000
G1 X118.095 Y38.095
G1 X120.000 Y38.095
G1 X120.000 Y40.000
G1 X120.000 Y41.905
G1 X118.095 Y41.905
G1 X118.095 Y43.810
G1 X120.000 Y43.810
G1 X120.000 Y45.714
G1 X120.000 Y47.619
G1 X118.095 Y47.619
G1 X118.095 Y45.714
G1 X116.190 Y45.714
G1 X114.286 Y45.714
G1 X114.286 Y47.619
G1 X116.190 Y47.619
G1 X116.190 Y49.524
G1 X114.286 Y49.524
G1 X114.286 Y51.429
G1 X116.190 Y51.429
G1 X118.095 Y51.429
G1 X118.095 Y49.524
G1 X120.000 Y49.524
G1 X120.000 Y51.429
G1 X120.000 Y53.333
G1 X118.095 Y53.333
G1 X118.095 Y55.238
G1 X120.000 Y55.238
G1 X120.000 Y57.143
G1 X120.000 Y59.048
G1 X118.095 Y59.048
G1 X118.095 Y57.143
G1 X116.190 Y57.143
G1 X116.190 Y59.048
G1 X114.286 Y59.048
G1 X114.286 Y57.143
G1 X114.286 Y55.238
G1 X116.190 Y55.238
G1 X116.190 Y53.333
G1 X114.286 Y53.333
G1 X112.381 Y53.333
G1 X110.476 Y53.333
G1 X110.476 Y55.238
G1 X112.381 Y55.238
G1 X112.381 Y57.143
G1 X112.381 Y59.048
G1 X110.476 Y59.048
G1 X110.476 Y57.143
G1 X108.571 Y57.143
G1 X108.571 Y59.048
G1 X106.667 Y59.048
G1 X106.667 Y57.143
G1 X106.667 Y55.238
G1 X108.571 Y55.238
G1 X108.571 Y53.333
G1 X106.667 Y53.333
G1 X106.667 Y51.429
G1 X106.667 Y49.524
G1 X108.571 Y49.524
G1 X108.571 Y51.429
G1 X110.476 Y51.429
G1 X112.381 Y51.429
G1 X112.381 Y49.524
G1 X110.476 Y49.524
G1 X110.476 Y47.619
G1 X112.381 Y47.619
G1 X112.381 Y45.714
G1 X110.476 Y45.714
G1 X108.571 Y45.714
G1 X108.571 Y47.619
G1 X106.667 Y47.619
G1 X106.667 Y45.714
G1 X104.762 Y45.714
G1 X104.762 Y47.619
G1 X102.857 Y47.619
G1 X102.857 Y45.714
G1 X100.952 Y45.714
G1 X99.048 Y45.714
G1 X99.048 Y47.619
G1 X100.952 Y47.619
G1 X100.952 Y49.524
G1 X99.048 Y49.524
G1 X99.048 Y51.429
G1 X100.952 Y51.429
G1 X102.857 Y51.429
G1 X102.857 Y49.524
G1 X104.762 Y49.524
G1 X104.762 Y51.429
G1 X104.762 Y53.333
G1 X102.857 Y53.333
G1 X102.857 Y55.238
G1 X104.762 Y55.238
G1 X104.762 Y57.143
G1 X104.762 Y59.048
G1 X102.857 Y59.048
G1 X102.857 Y57.143
G1 X100.952 Y57.143
G1 X100.952 Y59.048
G1 X99.048 Y59.048
G1 X99.048 Y57.143
G1 X99.048 Y55.238
G1 X100.952 Y55.238
G1 X100.952 Y53.333
G1 X99.048 Y53.333
G1 X97.143 Y53.333
G1 X95.238 Y53.333
G1 X95.238 Y55.238
G1 X97.143 Y55.238
G1 X97.143 Y57.143
G1 X97.143 Y59.048
G1 X95.238 Y59.048
G1 X95.238 Y57.143
G1 X93.333 Y57.143
G1 X93.333 Y59.048
G1 X91.429 Y59.048
G1 X91.429 Y57.143
G1 X91.429 Y55.238
G1 X93.333 Y55.238
G1 X93.333 Y53.333
G1 X91.429 Y53.333
G1 X91.429 Y51.429
G1 X91.429 Y49.524
G1 X93.333 Y49.524
G1 X93.333 Y51.429
G1 X95.238 Y51.429
G1 X97.143 Y51.429
G1 X97.143 Y49.524
G1 X95.238 Y49.524
G1 X95.238 Y47.619
G1 X97.143 Y47.619
G1 X97.143 Y45.714
G1 X95.238 Y45.714
G1 X93.333 Y45.714
G1 X93.333 Y47.619
G1 X91.429 Y47.619
G1 X91.429 Y45.714
G1 X91.429 Y43.810
G1 X93.333 Y43.810
G1 X93.333 Y41.905
G1 X91.429 Y41.905
G1 X91.429 Y40.000
G1 X91.429 Y38.095
G1 X93.333 Y38.095
G1 X93.333 Y40.000
G1 X95.238 Y40.000
G1 X95.238 Y38.095
G1 X97.143 Y38.095
G1 X97.143 Y40.000
G1 X97.143 Y41.905
G1 X95.238 Y41.905
G1 X95.238 Y43.810
G1 X97.143 Y43.810
G1 X99.048 Y43.810
G1 X99.048 Y41.905
G1 X100.952 Y41.905
G1 X100.952 Y43.810
G1 X102.857 Y43.810
G1 X104.762 Y43.810
G1 X104.762 Y41.905
G1 X102.857 Y41.905
G1 X102.857 Y40.000
G1 X104.762 Y40.000
G1 X104.762 Y38.095
G1 X102.857 Y38.095
G1 X100.952 Y38.095
G1 X100.952 Y40.000
G1 X99.048 Y40.000
G1 X99.048 Y38.095
G1 X99.048 Y36.190
G1 X99.048 Y34.286
G1 X100.952 Y34.286
G1 X100.952 Y36.190
G1 X102.857 Y36.190
G1 X104.762 Y36.190
G1 X104.762 Y34.286
G1 X102.857 Y34.286
G1 X102.857 Y32.381
G1 X104.762 Y32.381
G1 X104.762 Y30.476
G1 X102.857 Y30.476
G1 X100.952 Y30.476
G1 X100.952 Y32.381
G1 X99.048 Y32.381
G1 X99.048 Y30.476
G1 X97.143 Y30.476
G1 X95.238 Y30.476
G1 X95.238 Y32.381
G1 X97.143 Y32.381
G1 X97.143 Y34.286
G1 X97.143 Y36.190
G1 X95.238 Y36.190
G1 X95.238 Y34.286
G1 X93.333 Y34.286
G1 X93.333 Y36.190
G1 X91.429 Y36.190
G1 X91.429 Y34.286
G1 X91.429 Y32.381
G1 X93.333 Y32.381
G1 X93.333 Y30.476
G1 X91.429 Y30.476
G1 X89.524 Y30.476
G1 X87.619 Y30.476
G1 X87.619 Y32.381
G1 X89.524 Y32.381
G1 X89.524 Y34.286
G1 X89.524 Y36.190
G1 X87.619 Y36.190
G1 X87.619 Y34.286
G1 X85.714 Y34.286
G1 X85.714 Y36.190
G1 X83.810 Y36.190
G1 X83.810 Y34.286
G1 X83.810 Y32.381
G1 X85.714 Y32.381
G1 X85.714 Y30.476
G1 X83.810 Y30.476
G1 X81.905 Y30.476
G1 X81.905 Y32.381
G1 X80.000 Y32.381
G1 X80.000 Y30.476
G1 X78.095 Y30.476
G1 X76.190 Y30.476
G1 X76.190 Y32.381
G1 X78.095 Y32.381
G1 X78.095 Y34.286
G1 X76.190 Y34.286
G1 X76.190 Y36.190
G1 X78.095 Y36.190
G1 X80.000 Y36.190
G1 X80.000 Y34.286
G1 X81.905 Y34.286
G1 X81.905 Y36.190
G1 X81.905 Y38.095
G1 X81.905 Y40.000
G1 X80.000 Y40.000
G1 X80.000 Y38.095
G1 X78.095 Y38.095
G1 X76.190 Y38.095
G1 X76.190 Y40.000
G1 X78.095 Y40.000
G1 X78.095 Y41.905
G1 X76.190 Y41.905
G1 X76.190 Y43.810
G1 X78.095 Y43.810
G1 X80.000 Y43.810
G1 X80.000 Y41.905
G1 X81.905 Y41.905
G1 X81.905 Y43.810
G1 X83.810 Y43.810
G1 X85.714 Y43.810
G1 X85.714 Y41.905
G1 X83.810 Y41.905
G1 X83.810 Y40.000
G1 X83.810 Y38.095
G1 X85.714 Y38.095
G1 X85.714 Y40.000
G1 X87.619 Y40.000
G1 X87.619 Y38.095
G1 X89.524 Y38.095
G1 X89.524 Y40.000
G1 X89.524 Y41.905
G1 X87.619 Y41.905
G1 X87.619 Y43.810
G1 X89.524 Y43.810
G1 X89.524 Y45.714
G1 X89.524 Y47.619
G1 X87.619 Y47.619
G1 X87.619 Y45.714
G1 X85.714 Y45.714
G1 X83.810 Y45.714
G1 X83.810 Y47.619
G1 X85.714 Y47.619
G1 X85.714 Y49.524
G1 X83.810 Y49.524
G1 X83.810 Y51.429
G1 X85.714 Y51.429
G1 X87.619 Y51.429
G1 X87.619 Y49.524
G1 X89.524 Y49.524
G1 X89.524 Y51.429
G1 X89.524 Y53.333
G1 X87.619 Y53.333
G1 X87.619 Y55.238
G1 X89.524 Y55.238
G1 X89.524 Y57.143
G1 X89.524 Y59.048
G1 X87.619 Y59.048
G1 X87.619 Y57.143
G1 X85.714 Y57.143
G1 X85.714 Y59.048
G1 X83.810 Y59.048
G1 X83.810 Y57.143
G1 X83.810 Y55.238
G1 X85.714 Y55.238
G1 X85.714 Y53.333
G1 X83.810 Y53.333
G1 X81.905 Y53.333
G1 X80.000 Y53.333
G1 X80.000 Y55.238
G1 X81.905 Y55.238
G1 X81.905 Y57.143
G1 X81.905 Y59.048
G1 X80.000 Y59.048
G1 X80.000 Y57.143
G1 X78.095 Y57.143
G1 X78.095 Y59.048
G1 X76.190 Y59.048
G1 X76.190 Y57.143
G1 X76.190 Y55.238
G1 X78.095 Y55.238
G1 X78.095 Y53.333
G1 X76.190 Y53.333
G1 X76.190 Y51.429
G1 X76.190 Y49.524
G1 X78.095 Y49.524
G1 X78.095 Y51.429
G1 X80.000 Y51.429
G1 X81.905 Y51.429
G1 X81.905 Y49.524
G1 X80.000 Y49.524
G1 X80.000 Y47.619
G1 X81.905 Y47.619
G1 X81.905 Y45.714
G1 X80.000 Y45.714
G1 X78.095 Y45.714
G1 X78.095 Y47.619
G1 X76.190 Y47.619
G1 X76.190 Y45.714
G1 X74.286 Y45.714
G1 X74.286 Y47.619
G1 X72.381 Y47.619
G1 X72.381 Y45.714
G1 X70.476 Y45.714
G1 X68.571 Y45.714
G1 X68.571 Y47.619
G1 X70.476 Y47.619
G1 X70.476 Y49.524
G1 X68.571 Y49.524
G1 X68.571 Y51.429
G1 X70.476 Y51.429
G1 X72.381 Y51.429
G1 X72.381 Y49.524
G1 X74.286 Y49.524
G1 X74.286 Y51.429
G1 X74.286 Y53.333
G1 X72.381 Y53.333
G1 X72.381 Y55.238
G1 X74.286 Y55.238
G1 X74.286 Y57.143
G1 X74.286 Y59.048
G1 X72.381 Y59.048
G1 X72.381 Y57.143
G1 X70.476 Y57.143
G1 X70.476 Y59.048
G1 X68.571 Y59.048
G1 X68.571 Y57.143
G1 X68.571 Y55.238
G1 X70.476 Y55.238
G1 X70.476 Y53.333
G1 X68.571 Y53.333
G1 X66.667 Y53.333
G1 X64.762 Y53.333
G1 X64.762 Y55.238
G1 X66.667 Y55.238
G1 X66.667 Y57.143
G1 X66.667 Y59.048
G1 X64.762 Y59.048
G1 X64.762 Y57.143
G1 X62.857 Y57.143
G1 X62.857 Y59.048
G1 X60.952 Y59.048
G1 X60.952 Y57.143
G1 X60.952 Y55.238
G1 X62.857 Y55.238
G1 X62.857 Y53.333
G1 X60.952 Y53.333
G1 X60.952 Y51.429
G1 X60.952 Y49.524
G1 X62.857 Y49.524
G1 X62.857 Y51.429
G1 X64.762 Y51.429
G1 X66.667 Y51.429
G1 X66.667 Y49.524
G1 X64.762 Y49.524
G1 X64.762 Y47.619
G1 X66.667 Y47.619
G1 X66.667 Y45.714
G1 X64.762 Y45.714
G1 X62.857 Y45.714
G1 X62.857 Y47.619
G1 X60.952 Y47.619
G1 X60.952 Y45.714
G1 X60.952 Y43.810
G1 X62.857 Y43.810
G1 X62.857 Y41.905
G1 X60.952 Y41.905
G1 X60.952 Y40.000
G1 X60.952 Y38.095
G1 X62.857 Y38.095
G1 X62.857 Y40.000
G1 X64.762 Y40.000
G1 X64.762 Y38.095
G1 X66.667 Y38.095
G1 X66.667 Y40.000
G1 X66.667 Y41.905
G1 X64.762 Y41.905
G1 X64.762 Y43.810
G1 X66.667 Y43.810
G1 X68.571 Y43.810
G1 X68.571 Y41.905
G1 X70.476 Y41.905
G1 X70.476 Y43.810
G1 X72.381 Y43.810
G1 X74.286 Y43.810
G1 X74.286 Y41.905
G1 X72.381 Y41.905
G1 X72.381 Y40.000
G1 X74.286 Y40.000
G1 X74.286 Y38.095
G1 X72.381 Y38.095
G1 X70.476 Y38.095
G1 X70.476 Y40.000
G1 X68.571 Y40.000
G1 X68.571 Y38.095
G1 X68.571 Y36.190
G1 X68.571 Y34.286
G1 X70.476 Y34.286
G1 X70.476 Y36.190
G1 X72.381 Y36.190
G1 X74.286 Y36.190
G1 X74.286 Y34.286
G1 X72.381 Y34.286
G1 X72.381 Y32.381
G1 X74.286 Y32.381
G1 X74.286 Y30.476
G1 X72.381 Y30.476
G1 X70.476 Y30.476
G1 X70.476 Y32.381
G1 X68.571 Y32.381
G1 X68.571 Y30.476
G1 X66.667 Y30.476
G1 X64.762 Y30.476
G1 X64.762 Y32.381
G1 X66.667 Y32.381
G1 X66.667 Y34.286
G1 X66.667 Y36.190
G1 X64.762 Y36.190
G1 X64.762 Y34.286
G1 X62.857 Y34.286
G1 X62.857 Y36.190
G1 X60.952 Y36.190
G1 X60.952 Y34.286
G1 X60.952 Y32.381
G1 X62.857 Y32.381
G1 X62.857 Y30.476
G1 X60.952 Y30.476
G1 X60.952 Y28.571
G1 X60.952 Y26.667
G1 X62.857 Y26.667
G1 X62.857 Y28.571
G1 X64.762 Y28.571
G1 X66.667 Y28.571
G1 X66.667 Y26.667
G1 X64.762 Y26.667
G1 X64.762 Y24.762
G1 X66.667 Y24.762
G1 X66.667 Y22.857
G1 X64.762 Y22.857
G1 X62.857 Y22.857
G1 X62.857 Y24.762
G1 X60.952 Y24.762
G1 X60.952 Y22.857
G1 X60.952 Y20.952
G1 X62.857 Y20.952
G1 X62.857 Y19.048
G1 X60.952 Y19.048
G1 X60.952 Y17.143
G1 X60.952 Y15.238
G1 X62.857 Y15.238
G1 X62.857 Y17.143
G1 X64.762 Y17.143
G1 X64.762 Y15.238
G1 X66.667 Y15.238
G1 X66.667 Y17.143
G1 X66.667 Y19.048
G1 X64.762 Y19.048
G1 X64.762 Y20.952
G1 X66.667 Y20.952
G1 X68.571 Y20.952
G1 X70.476 Y20.952
G1 X70.476 Y19.048
G1 X68.571 Y19.048
G1 X68.571 Y17.143
G1 X68.571 Y15.238
G1 X70.476 Y15.238
G1 X70.476 Y17.143
G1 X72.381 Y17.143
G1 X72.381 Y15.238
G1 X74.286 Y15.238
G1 X74.286 Y17.143
G1 X74.286 Y19.048
G1 X72.381 Y19.048
G1 X72.381 Y20.952
G1 X74.286 Y20.952
G1 X74.286 Y22.857
G1 X74.286 Y24.762
G1 X72.381 Y24.762
G1 X72.381 Y22.857
G1 X70.476 Y22.857
G1 X68.571 Y22.857
G1 X68.571 Y24.762
G1 X70.476 Y24.762
G1 X70.476 Y26.667
G1 X68.571 Y26.667
G1 X68.571 Y28.571
G1 X70.476 Y28.571
G1 X72.381 Y28.571
G1 X72.381 Y26.667
G1 X74.286 Y26.667
G1 X74.286 Y28.571
G1 X76.190 Y28.571
G1 X78.095 Y28.571
G1 X78.095 Y26.667
G1 X76.190 Y26.667
G1 X76.190 Y24.762
G1 X76.190 Y22.857
G1 X78.095 Y22.857
G1 X78.095 Y24.762
G1 X80.000 Y24.762
G1 X80.000 Y22.857
G1 X81.905 Y22.857
G1 X81.905 Y24.762
G1 X81.905 Y26.667
G1 X80.000 Y26.667
G1 X80.000 Y28.571
G1 X81.905 Y28.571
G1 X83.810 Y28.571
G1 X83.810 Y26.667
G1 X85.714 Y26.667
G1 X85.714 Y28.571
G1 X87.619 Y28.571
G1 X89.524 Y28.571
G1 X89.524 Y26.667
G1 X87.619 Y26.667
G1 X87.619 Y24.762
G1 X89.524 Y24.762
G1 X89.524 Y22.857
G1 X87.619 Y22.857
G1 X85.714 Y22.857
G1 X85.714 Y24.762
G1 X83.810 Y24.762
G1 X83.810 Y22.857
G1 X83.810 Y20.952
G1 X83.810 Y19.048
G1 X85.714 Y19.048
G1 X85.714 Y20.952
G1 X87.619 Y20.952
G1 X89.524 Y20.952
G1 X89.524 Y19.048
G1 X87.619 Y19.048
G1 X87.619 Y17.143
G1 X89.524 Y17.143
G1 X89.524 Y15.238
G1 X87.619 Y15.238
G1 X85.714 Y15.238
G1 X85.714 Y17.143
G1 X83.810 Y17.143
G1 X83.810 Y15.238
G1 X81.905 Y15.238
G1 X80.000 Y15.238
G1 X80.000 Y17.143
G1 X81.905 Y17.143
G1 X81.905 Y19.048
G1 X81.905 Y20.952
G1 X80.000 Y20.952
G1 X80.000 Y19.048
G1 X78.095 Y19.048
G1 X78.095 Y20.952
G1 X76.190 Y20.952
G1 X76.190 Y19.048
G1 X76.190 Y17.143
G1 X78.095 Y17.143
G1 X78.095 Y15.238
G1 X76.190 Y15.238
G1 X76.190 Y13.333
G1 X78.095 Y13.333
G1 X78.095 Y11.429
G1 X76.190 Y11.429
G1 X76.190 Y9.524
G1 X76.190 Y7.619
G1 X78.095 Y7.619
G1 X78.095 Y9.524
G1 X80.000 Y9.524
G1 X80.000 Y7.619
G1 X81.905 Y7.619
G1 X81.905 Y9.524
G1 X81.905 Y11.429
G1 X80.000 Y11.429
G1 X80.000 Y13.333
G1 X81.905 Y13.333
G1 X83.810 Y13.333
G1 X83.810 Y11.429
G1 X85.714 Y11.429
G1 X85.714 Y13.333
G1 X87.619 Y13.333
G1 X89.524 Y13.333
G1 X89.524 Y11.429
G1 X87.619 Y11.429
G1 X87.619 Y9.524
G1 X89.524 Y9.524
G1 X89.524 Y7.619
G1 X87.619 Y7.619
G1 X85.714 Y7.619
G1 X85.714 Y9.524
G1 X83.810 Y9.524
G1 X83.810 Y7.619
G1 X83.810 Y5.714
G1 X83.810 Y3.810
G1 X85.714 Y3.810
G1 X85.714 Y5.714
G1 X87.619 Y5.714
G1 X89.524 Y5.714
G1 X89.524 Y3.810
G1 X87.619 Y3.810
G1 X87.619 Y1.905
G1 X89.524 Y1.905
G1 X89.524 Y0.000
G1 X87.619 Y0.000
G1 X85.714 Y0.000
G1 X85.714 Y1.905
G1 X83.810 Y1.905
G1 X83.810 Y0.000
G1 X81.905 Y0.000
G1 X80.000 Y0.000
G1 X80.000 Y1.905
G1 X81.905 Y1.905
G1 X81.905 Y3.810
G1 X81.905 Y5.714
G1 X80.000 Y5.714
G1 X80.000 Y3.810
G1 X78.095 Y3.810
G1 X78.095 Y5.714
G1 X76.190 Y5.714
G1 X76.190 Y3.810
G1 X76.190 Y1.905
G1 X78.095 Y1.905
G1 X78.095 Y0.000
G1 X76.190 Y0.000
G1 X74.286 Y0.000
G1 X74.286 Y1.905
G1 X72.381 Y1.905
G1 X72.381 Y0.000
G1 X70.476 Y0.000
G1 X68.571 Y0.000
G1 X68.571 Y1.905
G1 X70.476 Y1.905
G1 X70.476 Y3.810
G1 X68.571 Y3.810
G1 X68.571 Y5.714
G1 X70.476 Y5.714
G1 X72.381 Y5.714
G1 X72.381 Y3.810
G1 X74.286 Y3.810
G1 X74.286 Y5.714
G1 X74.286 Y7.619
G1 X72.381 Y7.619
G1 X72.381 Y9.524
G1 X74.286 Y9.524
G1 X74.286 Y11.429
G1 X74.286 Y13.333
G1 X72.381 Y13.333
G1 X72.381 Y11.429
G1 X70.476 Y11.429
G1 X70.476 Y13.333
G1 X68.571 Y13.333
G1 X68.571 Y11.429
G1 X68.571 Y9.524
G1 X70.476 Y9.524
G1 X70.476 Y7.619
G1 X68.571 Y7.619
G1 X66.667 Y7.619
G1 X64.762 Y7.619
G1 X64.762 Y9.524
G1 X66.667 Y9.524
G1 X66.667 Y11.429
G1 X66.667 Y13.333
G1 X64.762 Y13.333
G1 X64.762 Y11.429
G1 X62.857 Y11.429
G1 X62.857 Y13.333
G1 X60.952 Y13.333
G1 X60.952 Y11.429
G1 X60.952 Y9.524
G1 X62.857 Y9.524
G1 X62.857 Y7.619
G1 X60.952 Y7.619
G1 X60.952 Y5.714
G1 X60.952 Y3.810
G1 X62.857 Y3.810
G1 X62.857 Y5.714
G1 X64.762 Y5.714
G1 X66.667 Y5.714
G1 X66.667 Y3.810
G1 X64.762 Y3.810
G1 X64.762 Y1.905
G1 X66.667 Y1.905
G1 X66.667 Y0.000
G1 X64.762 Y0.000
G1 X62.857 Y0.000
G1 X62.857 Y1.905
G1 X60.952 Y1.905
G1 X60.952 Y0.000
G1 X59.048 Y0.000
G1 X57.143 Y0.000
G1 X57.143 Y1.905
G1 X59.048 Y1.905
G1 X59.048 Y3.810
G1 X59.048 Y5.714
G1 X57.143 Y5.714
G1 X57.143 Y3.810
G1 X55.238 Y3.810
G1 X55.238 Y5.714
G1 X53.333 Y5.714
G1 X53.333 Y3.810
G1 X53.333 Y1.905
G1 X55.238 Y1.905
G1 X55.238 Y0.000
G1 X53.333 Y0.000
G1 X51.429 Y0.000
G1 X51.429 Y1.905
G1 X49.524 Y1.905
G1 X49.524 Y0.000
G1 X47.619 Y0.000
G1 X45.714 Y0.000
G1 X45.714 Y1.905
G1 X47.619 Y1.905
G1 X47.619 Y3.810
G1 X45.714 Y3.810
G1 X45.714 Y5.714
G1 X47.619 Y5.714
G1 X49.524 Y5.714
G1 X49.524 Y3.810
G1 X51.429 Y3.810
G1 X51.429 Y5.714
G1 X51.429 Y7.619
G1 X51.429 Y9.524
G1 X49.524 Y9.524
G1 X49.524 Y7.619
G1 X47.619 Y7.619
G1 X45.714 Y7.619
G1 X45.714 Y9.524
G1 X47.619 Y9.524
G1 X47.619 Y11.429
G1 X45.714 Y11.429
G1 X45.714 Y13.333
G1 X47.619 Y13.333
G1 X49.524 Y13.333
G1 X49.524 Y11.429
G1 X51.429 Y11.429
G1 X51.429 Y13.333
G1 X53.333 Y13.333
G1 X55.238 Y13.333
G1 X55.238 Y11.429
G1 X53.333 Y11.429
G1 X53.333 Y9.524
G1 X53.333 Y7.619
G1 X55.238 Y7.619
G1 X55.238 Y9.524
G1 X57.143 Y9.524
G1 X57.143 Y7.619
G1 X59.048 Y7.619
G1 X59.048 Y9.524
G1 X59.048 Y11.429
G1 X57.143 Y11.429
G1 X57.143 Y13.333
G1 X59.048 Y13.333
G1 X59.048 Y15.238
G1 X59.048 Y17.143
G1 X57.143 Y17.143
G1 X57.143 Y15.238
G1 X55.238 Y15.238
G1 X53.333 Y15.238
G1 X53.333 Y17.143
G1 X55.238 Y17.143
G1 X55.238 Y19.048
G1 X53.333 Y19.048
G1 X53.333 Y20.952
G1 X55.238 Y20.952
G1 X57.143 Y20.952
G1 X57.143 Y19.048
G1 X59.048 Y19.048
G1 X59.048 Y20.952
G1 X59.048 Y22.857
G1 X57.143 Y22.857
G1 X57.143 Y24.762
G1 X59.048 Y24.762
G1 X59.048 Y26.667
G1 X59.048 Y28.571
G1 X57.143 Y28.571
G1 X57.143 Y26.667
G1 X55.238 Y26.667
G1 X55.238 Y28.571
G1 X53.333 Y28.571
G1 X53.333 Y26.667
G1 X53.333 Y24.762
G1 X55.238 Y24.762
G1 X55.238 Y22.857
G1 X53.333 Y22.857
G1 X51.429 Y22.857
G1 X49.524 Y22.857
G1 X49.524 Y24.762
G1 X51.429 Y24.762
G1 X51.429 Y26.667
G1 X51.429 Y28.571
G1 X49.524 Y28.571
G1 X49.524 Y26.667
G1 X47.619 Y26.667
G1 X47.619 Y28.571
G1 X45.714 Y28.571
G1 X45.714 Y26.667
G1 X45.714 Y24.762
G1 X47.619 Y24.762
G1 X47.619 Y22.857
G1 X45.714 Y22.857
G1 X45.714 Y20.952
G1 X45.714 Y19.048
G1 X47.619 Y19.048
G1 X47.619 Y20.952
G1 X49.524 Y20.952
G1 X51.429 Y20.952
G1 X51.429 Y19.048
G1 X49.524 Y19.048
G1 X49.524 Y17.143
G1 X51.429 Y17.143
G1 X51.429 Y15.238
G1 X49.524 Y15.238
G1 X47.619 Y15.238
G1 X47.619 Y17.143
G1 X45.714 Y17.143
G1 X45.714 Y15.238
G1 X43.810 Y15.238
G1 X43.810 Y17.143
G1 X41.905 Y17.143
G1 X41.905 Y15.238
G1 X40.000 Y15.238
G1 X38.095 Y15.238
G1 X38.095 Y17.143
G1 X40.000 Y17.143
G1 X40.000 Y19.048
G1 X38.095 Y19.048
G1 X38.095 Y20.952
G1 X40.000 Y20.952
G1 X41.905 Y20.952
G1 X41.905 Y19.048
G1 X43.810 Y19.048
G1 X43.810 Y20.952
G1 X43.810 Y22.857
G1 X41.905 Y22.857
G1 X41.905 Y24.762
G1 X43.810 Y24.762
G1 X43.810 Y26.667
G1 X43.810 Y28.571
G1 X41.905 Y28.571
G1 X41.905 Y26.667
G1 X40.000 Y26.667
G1 X40.000 Y28.571
G1 X38.095 Y28.571
G1 X38.095 Y26.667
G1 X38.095 Y24.762
G1 X40.000 Y24.762
G1 X40.000 Y22.857
G1 X38.095 Y22.857
G1 X36.190 Y22.857
G1 X34.286 Y22.857
G1 X34.286 Y24.762
G1 X36.190 Y24.762
G1 X36.190 Y26.667
G1 X36.190 Y28.571
G1 X34.286 Y28.571
G1 X34.286 Y26.667
G1 X32.381 Y26.667
G1 X32.381 Y28.571
G1 X30.476 Y28.571
G1 X30.476 Y26.667
G1 X30.476 Y24.762
G1 X32.381 Y24.762
G1 X32.381 Y22.857
G1 X30.476 Y22.857
G1 X30.476 Y20.952
G1 X30.476 Y19.048
G1 X32.381 Y19.048
G1 X32.381 Y20.952
G1 X34.286 Y20.952
G1 X36.190 Y20.952
G1 X36.190 Y19.048
G1 X34.286 Y19.048
G1 X34.286 Y17.143
G1 X36.190 Y17.143
G1 X36.190 Y15.238
G1 X34.286 Y15.238
G1 X32.381 Y15.238
G1 X32.381 Y17.143
G1 X30.476 Y17.143
G1 X30.476 Y15.238
G1 X30.476 Y13.333
G1 X32.381 Y13.333
G1 X32.381 Y11.429
G1 X30.476 Y11.429
G1 X30.476 Y9.524
G1 X30.476 Y7.619
G1 X32.381 Y7.619
G1 X32.381 Y9.524
G1 X34.286 Y9.524
G1 X34.286 Y7.619
G1 X36.190 Y7.619
G1 X36.190 Y9.524
G1 X36.190 Y11.429
G1 X34.286 Y11.429
G1 X34.286 Y13.333
G1 X36.190 Y13.333
G1 X38.095 Y13.333
G1 X38.095 Y11.429
G1 X40.000 Y11.429
G1 X40.000 Y13.333
G1 X41.905 Y13.333
G1 X43.810 Y13.333
G1 X43.810 Y11.429
G1 X41.905 Y11.429
G1 X41.905 Y9.524
G1 X43.810 Y9.524
G1 X43.810 Y7.619
G1 X41.905 Y7.619
G1 X40.000 Y7.619
G1 X40.000 Y9.524
G1 X38.095 Y9.524
G1 X38.095 Y7.619
G1 X38.095 Y5.714
G1 X38.095 Y3.810
G1 X40.000 Y3.810
G1 X40.000 Y5.714
G1 X41.905 Y5.714
G1 X43.810 Y5.714
G1 X43.810 Y3.810
G1 X41.905 Y3.810
G1 X41.905 Y1.905
G1 X43.810 Y1.905
G1 X43.810 Y0.000
G1 X41.905 Y0.000
G1 X40.000 Y0.000
G1 X40.000 Y1.905
G1 X38.095 Y1.905
G1 X38.095 Y0.000
G1 X36.190 Y0.000
G1 X34.286 Y0.000
G1 X34.286 Y1.905
G1 X36.190 Y1.905
G1 X36.190 Y3.810
G1 X36.190 Y5.714
G1 X34.286 Y5.714
G1 X34.286 Y3.810
G1 X32.381 Y3.810
G1 X32.381 Y5.714
G1 X30.476 Y5.714
G1 X30.476 Y3.810
G1 X30.476 Y1.905
G1 X32.381 Y1.905
G1 X32.381 Y0.000
G1 X30.476 Y0.000
G1 X28.571 Y0.000
G1 X28.571 Y1.905
G1 X26.667 Y1.905
G1 X26.667 Y0.000
G1 X24.762 Y0.000
G1 X22.857 Y0.000
G1 X22.857 Y1.905
G1 X24.762 Y1.905
G1 X24.762 Y3.810
G1 X22.857 Y3.810
G1 X22.857 Y5.714
G1 X24.762 Y5.714
G1 X26.667 Y5.714
G1 X26.667 Y3.810
G1 X28.571 Y3.810
G1 X28.571 Y5.714
G1 X28.571 Y7.619
G1 X26.667 Y7.619
G1 X26.667 Y9.524
G1 X28.571 Y9.524
G1 X28.571 Y11.429
G1 X28.571 Y13.333
G1 X26.667 Y13.333
G1 X26.667 Y11.429
G1 X24.762 Y11.429
G1 X24.762 Y13.333
G1 X22.857 Y13.333
G1 X22.857 Y11.429
G1 X22.857 Y9.524
G1 X24.762 Y9.524
G1 X24.762 Y7.619
G1 X22.857 Y7.619
G1 X20.952 Y7.619
G1 X19.048 Y7.619
G1 X19.048 Y9.524
G1 X20.952 Y9.524
G1 X20.952 Y11.429
G1 X20.952 Y13.333
G1 X19.048 Y13.333
G1 X19.048 Y11.429
G1 X17.143 Y11.429
G1 X17.143 Y13.333
G1 X15.238 Y13.333
G1 X15.238 Y11.429
G1 X15.238 Y9.524
G1 X17.143 Y9.524
G1 X17.143 Y7.619
G1 X15.238 Y7.619
G1 X15.238 Y5.714
G1 X15.238 Y3.810
G1 X17.143 Y3.810
G1 X17.143 Y5.714
G1 X19.048 Y5.714
G1 X20.952 Y5.714
G1 X20.952 Y3.810
G1 X19.048 Y3.810
G1 X19.048 Y1.905
G1 X20.952 Y1.905
G1 X20.952 Y0.000
G1 X19.048 Y0.000
G1 X17.143 Y0.000
G1 X17.143 Y1.905
G1 X15.238 Y1.905
G1 X15.238 Y0.000
G1 X13.333 Y0.000
G1 X11.429 Y0.000
G1 X11.429 Y1.905
G1 X13.333 Y1.905
G1 X13.333 Y3.810
G1 X13.333 Y5.714
G1 X11.429 Y5.714
G1 X11.429 Y3.810
G1 X9.524 Y3.810
G1 X9.524 Y5.714
G1 X7.619 Y5.714
G1 X7.619 Y3.810
G1 X7.619 Y1.905
G1 X9.524 Y1.905
G1 X9.524 Y0.000
G1 X7.619 Y0.000
G1 X5.714 Y0.000
G1 X5.714 Y1.905
G1 X3.810 Y1.905
G1 X3.810 Y0.000
G1 X1.905 Y0.000
G1 X0.000 Y0.000
G1 X0.000 Y1.905
G1 X1.905 Y1.905
G1 X1.905 Y3.810
G1 X0.000 Y3.810
G1 X0.000 Y5.714
G1 X1.905 Y5.714
G1 X3.810 Y5.714
G1 X3.810 Y3.810
G1 X5.714 Y3.810
G1 X5.714 Y5.714
G1 X5.714 Y7.619
G1 X5.714 Y9.524
G1 X3.810 Y9.524
G1 X3.810 Y7.619
G1 X1.905 Y7.619
G1 X0.000 Y7.619
G1 X0.000 Y9.524
G1 X1.905 Y9.524
G1 X1.905 Y11.429
G1 X0.000 Y11.429
G1 X0.000 Y13.333
G1 X1.905 Y13.333
G1 X3.810 Y13.333
G1 X3.810 Y11.429
G1 X5.714 Y11.429
G1 X5.714 Y13.333
G1 X7.619 Y13.333
G1 X9.524 Y13.333
G1 X9.524 Y11.429
G1 X7.619 Y11.429
G1 X7.619 Y9.524
G1 X7.619 Y7.619
G1 X9.524 Y7.619
G1 X9.524 Y9.524
G1 X11.429 Y9.524
G1 X11.429 Y7.619
G1 X13.333 Y7.619
G1 X13.333 Y9.524
G1 X13.333 Y11.429
G1 X11.429 Y11.429
G1 X11.429 Y13.333
G1 X13.333 Y13.333
G1 X13.333 Y15.238
G1 X11.429 Y15.238
G1 X11.429 Y17.143
G1 X13.333 Y17.143
G1 X13.333 Y19.048
G1 X13.333 Y20.952
G1 X11.429 Y20.952
G1 X11.429 Y19.048
G1 X9.524 Y19.048
G1 X9.524 Y20.952
G1 X7.619 Y20.952
G1 X7.619 Y19.048
G1 X7.619 Y17.143
G1 X9.524 Y17.143
G1 X9.524 Y15.238
G1 X7.619 Y15.238
G1 X5.714 Y15.238
G1 X5.714 Y17.143
G1 X3.810 Y17.143
G1 X3.810 Y15.238
G1 X1.905 Y15.238
G1 X0.000 Y15.238
G1 X0.000 Y17.143
G1 X1.905 Y17.143
G1 X1.905 Y19.048
G1 X0.000 Y19.048
G1 X0.000 Y20.952
G1 X1.905 Y20.952
G1 X3.810 Y20.952
G1 X3.810 Y19.048
G1 X5.714 Y19.048
G1 X5.714 Y20.952
G1 X5.714 Y22.857
G1 X5.714 Y24.762
G1 X3.810 Y24.762
G1 X3.810 Y22.857
G1 X1.905 Y22.857
G1 X0.000 Y22.857
G1 X0.000 Y24.762
G1 X1.905 Y24.762
G1 X1.905 Y26.667
G1 X0.000 Y26.667
G1 X0.000 Y28.571
G1 X1.905 Y28.571
G1 X3.810 Y28.571
G1 X3.810 Y26.667
G1 X5.714 Y26.667
G1 X5.714 Y28.571
G1 X7.619 Y28.571
G1 X9.524 Y28.571
G1 X9.524 Y26.667
G1 X7.619 Y26.667
G1 X7.619 Y24.762
G1 X7.619 Y22.857
G1 X9.524 Y22.857
G1 X9.524 Y24.762
G1 X11.429 Y24.762
G1 X11.429 Y22.857
G1 X13.333 Y22.857
G1 X13.333 Y24.762
G1 X13.333 Y26.667
G1 X11.429 Y26.667
G1 X11.429 Y28.571
G1 X13.333 Y28.571
G1 X15.238 Y28.571
G1 X15.238 Y26.667
G1 X17.143 Y26.667
G1 X17.143 Y28.571
G1 X19.048 Y28.571
G1 X20.952 Y28.571
G1 X20.952 Y26.667
G1 X19.048 Y26.667
G1 X19.048 Y24.762
G1 X20.952 Y24.762
G1 X20.952 Y22.857
G1 X19.048 Y22.857
G1 X17.143 Y22.857
G1 X17.143 Y24.762
G1 X15.238 Y24.762
G1 X15.238 Y22.857
G1 X15.238 Y20.952
G1 X17.143 Y20.952
G1 X17.143 Y19.048
G1 X15.238 Y19.048
G1 X15.238 Y17.143
G1 X15.238 Y15.238
G1 X17.143 Y15.238
G1 X17.143 Y17.143
G1 X19.048 Y17.143
G1 X19.048 Y15.238
G1 X20.952 Y15.238
G1 X20.952 Y17.143
G1 X20.952 Y19.048
G1 X19.048 Y19.048
G1 X19.048 Y20.952
G1 X20.952 Y20.952
G1 X22.857 Y20.952
G1 X24.762 Y20.952
G1 X24.762 Y19.048
G1 X22.857 Y19.048
G1 X22.857 Y17.143
G1 X22.857 Y15.238
G1 X24.762 Y15.238
G1 X24.762 Y17.143
G1 X26.667 Y17.143
G1 X26.667 Y15.238
G1 X28.571 Y15.238
G1 X28.571 Y17.143
G1 X28.571 Y19.048
G1 X26.667 Y19.048
G1 X26.667 Y20.952
G1 X28.571 Y20.952
G1 X28.571 Y22.857
G1 X28.571 Y24.762
G1 X26.667 Y24.762
G1 X26.667 Y22.857
G1 X24.762 Y22.857
G1 X22.857 Y22.857
G1 X22.857 Y24.762
G1 X24.762 Y24.762
G1 X24.762 Y26.667
G1 X22.857 Y26.667
G1 X22.857 Y28.571
G1 X24.762 Y28.571
G1 X26.667 Y28.571
G1 X26.667 Y26.667
G1 X28.571 Y26.667
G1 X28.571 Y28.571
G1 X28.571 Y30.476
G1 X28.571 Y32.381
G1 X26.667 Y32.381
G1 X26.667 Y30.476
G1 X24.762 Y30.476
G1 X22.857 Y30.476
G1 X22.857 Y32.381
G1 X24.762 Y32.381
G1 X24.762 Y34.286
G1 X22.857 Y34.286
G1 X22.857 Y36.190
G1 X24.762 Y36.190
G1 X26.667 Y36.190
G1 X26.667 Y34.286
G1 X28.571 Y34.286
G1 X28.571 Y36.190
G1 X28.571 Y38.095
G1 X26.667 Y38.095
G1 X26.667 Y40.000
G1 X28.571 Y40.000
G1 X28.571 Y41.905
G1 X28.571 Y43.810
G1 X26.667 Y43.810
G1 X26.667 Y41.905
G1 X24.762 Y41.905
G1 X24.762 Y43.810
G1 X22.857 Y43.810
G1 X22.857 Y41.905
G1 X22.857 Y40.000
G1 X24.762 Y40.000
G1 X24.762 Y38.095
G1 X22.857 Y38.095
G1 X20.952 Y38.095
G1 X19.048 Y38.095
G1 X19.048 Y40.000
G1 X20.952 Y40.000
G1 X20.952 Y41.905
G1 X20.952 Y43.810
G1 X19.048 Y43.810
G1 X19.048 Y41.905
G1 X17.143 Y41.905
G1 X17.143 Y43.810
G1 X15.238 Y43.810
G1 X15.238 Y41.905
G1 X15.238 Y40.000
G1 X17.143 Y40.000
G1 X17.143 Y38.095
G1 X15.238 Y38.095
G1 X15.238 Y36.190
G1 X15.238 Y34.286
G1 X17.143 Y34.286
G1 X17.143 Y36.190
G1 X19.048 Y36.190
G1 X20.952 Y36.190
G1 X20.952 Y34.286
G1 X19.048 Y34.286
G1 X19.048 Y32.381
G1 X20.952 Y32.381
G1 X20.952 Y30.476
G1 X19.048 Y30.476
G1 X17.143 Y30.476
G1 X17.143 Y32.381
G1 X15.238 Y32.381
G1 X15.238 Y30.476
G1 X13.333 Y30.476
G1 X11.429 Y30.476
G1 X11.429 Y32.381
G1 X13.333 Y32.381
G1 X13.333 Y34.286
G1 X13.333 Y36.190
G1 X11.429 Y36.190
G1 X11.429 Y34.286
G1 X9.524 Y34.286
G1 X9.524 Y36.190
G1 X7.619 Y36.190
G1 X7.619 Y34.286
G1 X7.619 Y32.381
G1 X9.524 Y32.381
G1 X9.524 Y30.476
G1 X7.619 Y30.476
G1 X5.714 Y30.476
G1 X5.714 Y32.381
G1 X3.810 Y32.381
G1 X3.810 Y30.476
G1 X1.905 Y30.476
G1 X0.000 Y30.476
G1 X0.000 Y32.381
G1 X1.905 Y32.381
G1 X1.905 Y34.286
G1 X0.000 Y34.286
G1 X0.000 Y36.190
G1 X1.905 Y36.190
G1 X3.810 Y36.190
G1 X3.810 Y34.286
G1 X5.714 Y34.286
G1 X5.714 Y36.190
G1 X5.714 Y38.095
G1 X5.714 Y40.000
G1 X3.810 Y40.000
G1 X3.810 Y38.095
G1 X1.905 Y38.095
G1 X0.000 Y38.095
G1 X0.000 Y40.000
G1 X1.905 Y40.000
G1 X1.905 Y41.905
G1 X0.000 Y41.905
G1 X0.000 Y43.810
G1 X1.905 Y43.810
G1 X3.810 Y43.810
G1 X3.810 Y41.905
G1 X5.714 Y41.905
G1 X5.714 Y43.810
G1 X7.619 Y43.810
G1 X9.524 Y43.810
G1 X9.524 Y41.905
G1 X7.619 Y41.905
G1 X7.619 Y40.000
G1 X7.619 Y38.095
G1 X9.524 Y38.095
G1 X9.524 Y40.000
G1 X11.429 Y40.000
G1 X11.429 Y38.095
G1 X13.333 Y38.095
G1 X13.333 Y40.000
G1 X13.333 Y41.905
G1 X11.429 Y41.905
G1 X11.429 Y43.810
G1 X13.333 Y43.810
G1 X13.333 Y45.714
G1 X11.429 Y45.714
G1 X11.429 Y47.619
G1 X13.333 Y47.619
G1 X13.333 Y49.524
G1 X13.333 Y51.429
G1 X11.429 Y51.429
G1 X11.429 Y49.524
G1 X9.524 Y49.524
G1 X9.524 Y51.429
G1 X7.619 Y51.429
G1 X7.619 Y49.524
G1 X7.619 Y47.619
G1 X9.524 Y47.619
G1 X9.524 Y45.714
G1 X7.619 Y45.714
G1 X5.714 Y45.714
G1 X5.714 Y47.619
G1 X3.810 Y47.619
G1 X3.810 Y45.714
G1 X1.905 Y45.714
G1 X0.000 Y45.714
G1 X0.000 Y47.619
G1 X1.905 Y47.619
G1 X1.905 Y49.524
G1 X0.000 Y49.524
G1 X0.000 Y51.429
G1 X1.905 Y51.429
G1 X3.810 Y51.429
G1 X3.810 Y49.524
G1 X5.714 Y49.524
G1 X5.714 Y51.429
G1 X5.714 Y53.333
G1 X5.714 Y55.238
G1 X3.810 Y55.238
G1 X3.810 Y53.333
G1 X1.905 Y53.333
G1 X0.000 Y53.333
G1 X0.000 Y55.238
G1 X1.905 Y55.238
G1 X1.905 Y57.143
G1 X0.000 Y57.143
G1 X0.000 Y59.048
G1 X1.905 Y59.048
G1 X3.810 Y59.048
G1 X3.810 Y57.143
G1 X5.714 Y57.143
G1 X5.714 Y59.048
G1 X7.619 Y59.048
G1 X9.524 Y59.048
G1 X9.524 Y57.143
G1 X7.619 Y57.143
G1 X7.619 Y55.238
G1 X7.619 Y53.333
G1 X9.524 Y53.333
G1 X9.524 Y55.238
G1 X11.429 Y55.238
G1 X11.429 Y53.333
G1 X13.333 Y53.333
G1 X13.333 Y55.238
G1 X13.333 Y57.143
G1 X11.429 Y57.143
G1 X11.429 Y59.048
G1 X13.333 Y59.048
G1 X15.238 Y59.048
G1 X15.238 Y57.143
G1 X17.143 Y57.143
G1 X17.143 Y59.048
G1 X19.048 Y59.048
G1 X20.952 Y59.048
G1 X20.952 Y57.143
G1 X19.048 Y57.143
G1 X19.048 Y55.238
G1 X20.952 Y55.238
G1 X20.952 Y53.333
G1 X19.048 Y53.333
G1 X17.143 Y53.333
G1 X17.143 Y55.238
G1 X15.238 Y55.238
G1 X15.238 Y53.333
G1 X15.238 Y51.429
G1 X17.143 Y51.429
G1 X17.143 Y49.524
G1 X15.238 Y49.524
G1 X15.238 Y47.619
G1 X15.238 Y45.714
G1 X17.143 Y45.714
G1 X17.143 Y47.619
G1 X19.048 Y47.619
G1 X19.048 Y45.714
G1 X20.952 Y45.714
G1 X20.952 Y47.619
G1 X20.952 Y49.524
G1 X19.048 Y49.524
G1 X19.048 Y51.429
G1 X20.952 Y51.429
G1 X22.857 Y51.429
G1 X24.762 Y51.429
G1 X24.762 Y49.524
G1 X22.857 Y49.524
G1 X22.857 Y47.619
G1 X22.857 Y45.714
G1 X24.762 Y45.714
G1 X24.762 Y47.619
G1 X26.667 Y47.619
G1 X26.667 Y45.714
G1 X28.571 Y45.714
G1 X28.571 Y47.619
G1 X28.571 Y49.524
G1 X26.667 Y49.524
G1 X26.667 Y51.429
G1 X28.571 Y51.429
G1 X28.571 Y53.333
G1 X28.571 Y55.238
G1 X26.667 Y55.238
G1 X26.667 Y53.333
G1 X24.762 Y53.333
G1 X22.857 Y53.333
G1 X22.857 Y55.238
G1 X24.762 Y55.238
G1 X24.762 Y57.143
G1 X22.857 Y57.143
G1 X22.857 Y59.048
G1 X24.762 Y59.048
G1 X26.667 Y59.048
G1 X26.667 Y57.143
G1 X28.571 Y57.143
G1 X28.571 Y59.048
G1 X30.476 Y59.048
G1 X32.381 Y59.048
G1 X32.381 Y57.143
G1 X30.476 Y57.143
G1 X30.476 Y55.238
G1 X30.476 Y53.333
G1 X32.381 Y53.333
G1 X32.381 Y55.238
G1 X34.286 Y55.238
G1 X34.286 Y53.333
G1 X36.190 Y53.333
G1 X36.190 Y55.238
G1 X36.190 Y57.143
G1 X34.286 Y57.143
G1 X34.286 Y59.048
G1 X36.190 Y59.048
G1 X38.095 Y59.048
G1 X38.095 Y57.143
G1 X40.000 Y57.143
G1 X40.000 Y59.048
G1 X41.905 Y59.048
G1 X43.810 Y59.048
G1 X43.810 Y57.143
G1 X41.905 Y57.143
G1 X41.905 Y55.238
G1 X43.810 Y55.238
G1 X43.810 Y53.333
G1 X41.905 Y53.333
G1 X40.000 Y53.333
G1 X40.000 Y55.238
G1 X38.095 Y55.238
G1 X38.095 Y53.333
G1 X38.095 Y51.429
G1 X38.095 Y49.524
G1 X40.000 Y49.524
G1 X40.000 Y51.429
G1 X41.905 Y51.429
G1 X43.810 Y51.429
G1 X43.810 Y49.524
G1 X41.905 Y49.524
G1 X41.905 Y47.619
G1 X43.810 Y47.619
G1 X43.810 Y45.714
G1 X41.905 Y45.714
G1 X40.000 Y45.714
G1 X40.000 Y47.619
G1 X38.095 Y47.619
G1 X38.095 Y45.714
G1 X36.190 Y45.714
G1 X34.286 Y45.714
G1 X34.286 Y47.619
G1 X36.190 Y47.619
G1 X36.190 Y49.524
G1 X36.190 Y51.429
G1 X34.286 Y51.429
G1 X34.286 Y49.524
G1 X32.381 Y49.524
G1 X32.381 Y51.429
G1 X30.476 Y51.429
G1 X30.476 Y49.524
G1 X30.476 Y47.619
G1 X32.381 Y47.619
G1 X32.381 Y45.714
G1 X30.476 Y45.714
G1 X30.476 Y43.810
G1 X30.476 Y41.905
G1 X32.381 Y41.905
G1 X32.381 Y43.810
G1 X34.286 Y43.810
G1 X36.190 Y43.810
G1 X36.190 Y41.905
G1 X34.286 Y41.905
G1 X34.286 Y40.000
G1 X36.190 Y40.000
G1 X36.190 Y38.095
G1 X34.286 Y38.095
G1 X32.381 Y38.095
G1 X32.381 Y40.000
G1 X30.476 Y40.000
G1 X30.476 Y38.095
G1 X30.476 Y36.190
G1 X32.381 Y36.190
G1 X32.381 Y34.286
G1 X30.476 Y34.286
G1 X30.476 Y32.381
G1 X30.476 Y30.476
G1 X32.381 Y30.476
G1 X32.381 Y32.381
G1 X34.286 Y32.381
G1 X34.286 Y30.476
G1 X36.190 Y30.476
G1 X36.190 Y32.381
G1 X36.190 Y34.286
G1 X34.286 Y34.286
G1 X34.286 Y36.190
G1 X36.190 Y36.190
G1 X38.095 Y36.190
G1 X40.000 Y36.190
G1 X40.000 Y34.286
G1 X38.095 Y34.286
G1 X38.095 Y32.381
G1 X38.095 Y30.476
G1 X40.000 Y30.476
G1 X40.000 Y32.381
G1 X41.905 Y32.381
G1 X41.905 Y30.476
G1 X43.810 Y30.476
G1 X43.810 Y32.381
G1 X43.810 Y34.286
G1 X41.905 Y34.286
G1 X41.905 Y36.190
G1 X43.810 Y36.190
G1 X43.810 Y38.095
G1 X43.810 Y40.000
G1 X41.905 Y40.000
G1 X41.905 Y38.095
G1 X40.000 Y38.095
G1 X38.095 Y38.095
G1 X38.095 Y40.000
G1 X40.000 Y40.000
G1 X40.000 Y41.905
G1 X38.095 Y41.905
G1 X38.095 Y43.810
G1 X40.000 Y43.810
G1 X41.905 Y43.810
G1 X41.905 Y41.905
G1 X43.810 Y41.905
G1 X43.810 Y43.810
G1 X45.714 Y43.810
G1 X45.714 Y41.905
G1 X47.619 Y41.905
G1 X47.619 Y43.810
G1 X49.524 Y43.810
G1 X51.429 Y43.810
G1 X51.429 Y41.905
G1 X49.524 Y41.905
G1 X49.524 Y40.000
G1 X51.429 Y40.000
G1 X51.429 Y38.095
G1 X49.524 Y38.095
G1 X47.619 Y38.095
G1 X47.619 Y40.000
G1 X45.714 Y40.000
G1 X45.714 Y38.095
G1 X45.714 Y36.190
G1 X47.619 Y36.190
G1 X47.619 Y34.286
G1 X45.714 Y34.286
G1 X45.714 Y32.381
G1 X45.714 Y30.476
G1 X47.619 Y30.476
G1 X47.619 Y32.381
G1 X49.524 Y32.381
G1 X49.524 Y30.476
G1 X51.429 Y30.476
G1 X51.429 Y32.381
G1 X51.429 Y34.286
G1 X49.524 Y34.286
G1 X49.524 Y36.190
G1 X51.429 Y36.190
G1 X53.333 Y36.190
G1 X55.238 Y36.190
G1 X55.238 Y34.286
G1 X53.333 Y34.286
G1 X53.333 Y32.381
G1 X53.333 Y30.476
G1 X55.238 Y30.476
G1 X55.238 Y32.381
G1 X57.143 Y32.381
G1 X57.143 Y30.476
G1 X59.048 Y30.476
G1 X59.048 Y32.381
G1 X59.048 Y34.286
G1 X57.143 Y34.286
G1 X57.143 Y36.190
G1 X59.048 Y36.190
G1 X59.048 Y38.095
G1 X59.048 Y40.000
G1 X57.143 Y40.000
G1 X57.143 Y38.095
G1 X55.238 Y38.095
G1 X53.333 Y38.095
G1 X53.333 Y40.000
G1 X55.238 Y40.000
G1 X55.238 Y41.905
G1 X53.333 Y41.905
G1 X53.333 Y43.810
G1 X55.238 Y43.810
G1 X57.143 Y43.810
G1 X57.143 Y41.905
G1 X59.048 Y41.905
G1 X59.048 Y43.810
G1 X59.048 Y45.714
G1 X57.143 Y45.714
G1 X57.143 Y47.619
G1 X59.048 Y47.619
G1 X59.048 Y49.524
G1 X59.048 Y51.429
G1 X57.143 Y51.429
G1 X57.143 Y49.524
G1 X55.238 Y49.524
G1 X55.238 Y51.429
G1 X53.333 Y51.429
G1 X53.333 Y49.524
G1 X53.333 Y47.619
G1 X55.238 Y47.619
G1 X55.238 Y45.714
G1 X53.333 Y45.714
G1 X51.429 Y45.714
G1 X51.429 Y47.619
G1 X49.524 Y47.619
G1 X49.524 Y45.714
G1 X47.619 Y45.714
G1 X45.714 Y45.714
G1 X45.714 Y47.619
G1 X47.619 Y47.619
G1 X47.619 Y49.524
G1 X45.714 Y49.524
G1 X45.714 Y51.429
G1 X47.619 Y51.429
G1 X49.524 Y51.429
G1 X49.524 Y49.524
G1 X51.429 Y49.524
G1 X51.429 Y51.429
G1 X51.429 Y53.333
G1 X51.429 Y55.238
G1 X49.524 Y55.238
G1 X49.524 Y53.333
G1 X47.619 Y53.333
G1 X45.714 Y53.333
G1 X45.714 Y55.238
G1 X47.619 Y55.238
G1 X47.619 Y57.143
G1 X45.714 Y57.143
G1 X45.714 Y59.048
G1 X47.619 Y59.048
G1 X49.524 Y59.048
G1 X49.524 Y57.143
G1 X51.429 Y57.143
G1 X51.429 Y59.048
G1 X53.333 Y59.048
G1 X55.238 Y59.048
G1 X55.238 Y57.143
G1 X53.333 Y57.143
G1 X53.333 Y55.238
G1 X53.333 Y53.333
G1 X55.238 Y53.333
G1 X55.238 Y55.238
G1 X57.143 Y55.238
G1 X57.143 Y53.333
G1 X59.048 Y53.333
G1 X59.048 Y55.238
G1 X59.048 Y57.143
G1 X57.143 Y57.143
G1 X57.143 Y59.048
G1 X59.048 Y59.048
G1 X59.048 Y60.952
G1 X57.143 Y60.952
G1 X57.143 Y62.857
G1 X59.048 Y62.857
G1 X59.048 Y64.762
G1 X59.048 Y66.667
G1 X57.143 Y66.667
G1 X57.143 Y64.762
G1 X55.238 Y64.762
G1 X55.238 Y66.667
G1 X53.333 Y66.667
G1 X53.333 Y64.762
G1 X53.333 Y62.857
G1 X55.238 Y62.857
G1 X55.238 Y60.952
G1 X53.333 Y60.952
G1 X51.429 Y60.952
G1 X51.429 Y62.857
G1 X49.524 Y62.857
G1 X49.524 Y60.952
G1 X47.619 Y60.952
G1 X45.714 Y60.952
G1 X45.714 Y62.857
G1 X47.619 Y62.857
G1 X47.619 Y64.762
G1 X45.714 Y64.762
G1 X45.714 Y66.667
G1 X47.619 Y66.667
G1 X49.524 Y66.667
G1 X49.524 Y64.762
G1 X51.429 Y64.762
G1 X51.429 Y66.667
G1 X51.429 Y68.571
G1 X51.429 Y70.476
G1 X49.524 Y70.476
G1 X49.524 Y68.571
G1 X47.619 Y68.571
G1 X45.714 Y68.571
G1 X45.714 Y70.476
G1 X47.619 Y70.476
G1 X47.619 Y72.381
G1 X45.714 Y72.381
G1 X45.714 Y74.286
G1 X47.619 Y74.286
G1 X49.524 Y74.286
G1 X49.524 Y72.381
G1 X51.429 Y72.381
G1 X51.429 Y74.286
G1 X53.333 Y74.286
G1 X55.238 Y74.286
G1 X55.238 Y72.381
G1 X53.333 Y72.381
G1 X53.333 Y70.476
G1 X53.333 Y68.571
G1 X55.238 Y68.571
G1 X55.238 Y70.476
G1 X57.143 Y70.476
G1 X57.143 Y68.571
G1 X59.048 Y68.571
G1 X59.048 Y70.476
G1 X59.048 Y72.381
G1 X57.143 Y72.381
G1 X57.143 Y74.286
G1 X59.048 Y74.286
G1 X59.048 Y76.190
G1 X59.048 Y78.095
G1 X57.143 Y78.095
G1 X57.143 Y76.190
G1 X55.238 Y76.190
G1 X53.333 Y76.190
G1 X53.333 Y78.095
G1 X55.238 Y78.095
G1 X55.238 Y80.000
G1 X53.333 Y80.000
G1 X53.333 Y81.905
G1 X55.238 Y81.905
G1 X57.143 Y81.905
G1 X57.143 Y80.000
G1 X59.048 Y80.000
G1 X59.048 Y81.905
G1 X59.048 Y83.810
G1 X57.143 Y83.810
G1 X57.143 Y85.714
G1 X59.048 Y85.714
G1 X59.048 Y87.619
G1 X59.048 Y89.524
G1 X57.143 Y89.524
G1 X57.143 Y87.619
G1 X55.238 Y87.619
G1 X55.238 Y89.524
G1 X53.333 Y89.524
G1 X53.333 Y87.619
G1 X53.333 Y85.714
G1 X55.238 Y85.714
G1 X55.238 Y83.810
G1 X53.333 Y83.810
G1 X51.429 Y83.810
G1 X49.524 Y83.810
G1 X49.524 Y85.714
G1 X51.429 Y85.714
G1 X51.429 Y87.619
G1 X51.429 Y89.524
G1 X49.524 Y89.524
G1 X49.524 Y87.619
G1 X47.619 Y87.619
G1 X47.619 Y89.524
G1 X45.714 Y89.524
G1 X45.714 Y87.619
G1 X45.714 Y85.714
G1 X47.619 Y85.714
G1 X47.619 Y83.810
G1 X45.714 Y83.810
G1 X45.714 Y81.905
G1 X45.714 Y80.000
G1 X47.619 Y80.000
G1 X47.619 Y81.905
G1 X49.524 Y81.905
G1 X51.429 Y81.905
G1 X51.429 Y80.000
G1 X49.524 Y80.000
G1 X49.524 Y78.095
G1 X51.429 Y78.095
G1 X51.429 Y76.190
G1 X49.524 Y76.190
G1 X47.619 Y76.190
G1 X47.619 Y78.095
G1 X45.714 Y78.095
G1 X45.714 Y76.190
G1 X43.810 Y76.190
G1 X43.810 Y78.095
G1 X41.905 Y78.095
G1 X41.905 Y76.190
G1 X40.000 Y76.190
G1 X38.095 Y76.190
G1 X38.095 Y78.095
G1 X40.000 Y78.095
G1 X40.000 Y80.000
G1 X38.095 Y80.000
G1 X38.095 Y81.905
G1 X40.000 Y81.905
G1 X41.905 Y81.905
G1 X41.905 Y80.000
G1 X43.810 Y80.000
G1 X43.810 Y81.905
G1 X43.810 Y83.810
G1 X41.905 Y83.810
G1 X41.905 Y85.714
G1 X43.810 Y85.714
G1 X43.810 Y87.619
G1 X43.810 Y89.524
G1 X41.905 Y89.524
G1 X41.905 Y87.619
G1 X40.000 Y87.619
G1 X40.000 Y89.524
G1 X38.095 Y89.524
G1 X38.095 Y87.619
G1 X38.095 Y85.714
G1 X40.000 Y85.714
G1 X40.000 Y83.810
G1 X38.095 Y83.810
G1 X36.190 Y83.810
G1 X34.286 Y83.810
G1 X34.286 Y85.714
G1 X36.190 Y85.714
G1 X36.190 Y87.619
G1 X36.190 Y89.524
G1 X34.286 Y89.524
G1 X34.286 Y87.619
G1 X32.381 Y87.619
G1 X32.381 Y89.524
G1 X30.476 Y89.524
G1 X30.476 Y87.619
G1 X30.476 Y85.714
G1 X32.381 Y85.714
G1 X32.381 Y83.810
G1 X30.476 Y83.810
G1 X30.476 Y81.905
G1 X30.476 Y80.000
G1 X32.381 Y80.000
G1 X32.381 Y81.905
G1 X34.286 Y81.905
G1 X36.190 Y81.905
G1 X36.190 Y80.000
G1 X34.286 Y80.000
G1 X34.286 Y78.095
G1 X36.190 Y78.095
G1 X36.190 Y76.190
G1 X34.286 Y76.190
G1 X32.381 Y76.190
G1 X32.381 Y78.095
G1 X30.476 Y78.095
G1 X30.476 Y76.190
G1 X30.476 Y74.286
G1 X32.381 Y74.286
G1 X32.381 Y72.381
G1 X30.476 Y72.381
G1 X30.476 Y70.476
G1 X30.476 Y68.571
G1 X32.381 Y68.571
G1 X32.381 Y70.476
G1 X34.286 Y70.476
G1 X34.286 Y68.571
G1 X36.190 Y68.571
G1 X36.190 Y70.476
G1 X36.190 Y72.381
G1 X34.286 Y72.381
G1 X34.286 Y74.286
G1 X36.190 Y74.286
G1 X38.095 Y74.286
G1 X38.095 Y72.381
G1 X40.000 Y72.381
G1 X40.000 Y74.286
G1 X41.905 Y74.286
G1 X43.810 Y74.286
G1 X43.810 Y72.381
G1 X41.905 Y72.381
G1 X41.905 Y70.476
G1 X43.810 Y70.476
G1 X43.810 Y68.571
G1 X41.905 Y68.571
G1 X40.000 Y68.571
G1 X40.000 Y70.476
G1 X38.095 Y70.476
G1 X38.095 Y68.571
G1 X38.095 Y66.667
G1 X38.095 Y64.762
G1 X40.000 Y64.762
G1 X40.000 Y66.667
G1 X41.905 Y66.667
G1 X43.810 Y66.667
G1 X43.810 Y64.762
G1 X41.905 Y64.762
G1 X41.905 Y62.857
G1 X43.810 Y62.857
G1 X43.810 Y60.952
G1 X41.905 Y60.952
G1 X40.000 Y60.952
G1 X40.000 Y62.857
G1 X38.095 Y62.857
G1 X38.095 Y60.952
G1 X36.190 Y60.952
G1 X34.286 Y60.952
G1 X34.286 Y62.857
G1 X36.190 Y62.857
G1 X36.190 Y64.762
G1 X36.190 Y66.667
G1 X34.286 Y66.667
G1 X34.286 Y64.762
G1 X32.381 Y64.762
G1 X32.381 Y66.667
G1 X30.476 Y66.667
G1 X30.476 Y64.762
G1 X30.476 Y62.857
G1 X32.381 Y62.857
G1 X32.381 Y60.952
G1 X30.476 Y60.952
G1 X28.571 Y60.952
G1 X28.571 Y62.857
G1 X26.667 Y62.857
G1 X26.667 Y60.952
G1 X24.762 Y60.952
G1 X22.857 Y60.952
G1 X22.857 Y62.857
G1 X24.762 Y62.857
G1 X24.762 Y64.762
G1 X22.857 Y64.762
G1 X22.857 Y66.667
G1 X24.762 Y66.667
G1 X26.667 Y66.667
G1 X26.667 Y64.762
G1 X28.571 Y64.762
G1 X28.571 Y66.667
G1 X28.571 Y68.571
G1 X26.667 Y68.571
G1 X26.667 Y70.476
G1 X28.571 Y70.476
G1 X28.571 Y72.381
G1 X28.571 Y74.286
G1 X26.667 Y74.286
G1 X26.667 Y72.381
G1 X24.762 Y72.381
G1 X24.762 Y74.286
G1 X22.857 Y74.286
G1 X22.857 Y72.381
G1 X22.857 Y70.476
G1 X24.762 Y70.476
G1 X24.762 Y68.571
G1 X22.857 Y68.571
G1 X20.952 Y68.571
G1 X19.048 Y68.571
G1 X19.048 Y70.476
G1 X20.952 Y70.476
G1 X20.952 Y72.381
G1 X20.952 Y74.286
G1 X19.048 Y74.286
G1 X19.048 Y72.381
G1 X17.143 Y72.381
G1 X17.143 Y74.286
G1 X15.238 Y74.286
G1 X15.238 Y72.381
G1 X15.238 Y70.476
G1 X17.143 Y70.476
G1 X17.143 Y68.571
G1 X15.238 Y68.571
G1 X15.238 Y66.667
G1 X15.238 Y64.762
G1 X17.143 Y64.762
G1 X17.143 Y66.667
G1 X19.048 Y66.667
G1 X20.952 Y66.667
G1 X20.952 Y64.762
G1 X19.048 Y64.762
G1 X19.048 Y62.857
G1 X20.952 Y62.857
G1 X20.952 Y60.952
G1 X19.048 Y60.952
G1 X17.143 Y60.952
G1 X17.143 Y62.857
G1 X15.238 Y62.857
G1 X15.238 Y60.952
G1 X13.333 Y60.952
G1 X11.429 Y60.952
G1 X11.429 Y62.857
G1 X13.333 Y62.857
G1 X13.333 Y64.762
G1 X13.333 Y66.667
G1 X11.429 Y66.667
G1 X11.429 Y64.762
G1 X9.524 Y64.762
G1 X9.524 Y66.667
G1 X7.619 Y66.667
G1 X7.619 Y64.762
G1 X7.619 Y62.857
G1 X9.524 Y62.857
G1 X9.524 Y60.952
G1 X7.619 Y60.952
G1 X5.714 Y60.952
G1 X5.714 Y62.857
G1 X3.810 Y62.857
G1 X3.810 Y60.952
G1 X1.905 Y60.952
G1 X0.000 Y60.952
G1 X0.000 Y62.857
G1 X1.905 Y62.857
G1 X1.905 Y64.762
G1 X0.000 Y64.762
G1 X0.000 Y66.667
G1 X1.905 Y66.667
G1 X3.810 Y66.667
G1 X3.810 Y64.762
G1 X5.714 Y64.762
G1 X5.714 Y66.667
G1 X5.714 Y68.571
G1 X5.714 Y70.476
G1 X3.810 Y70.476
G1 X3.810 Y68.571
G1 X1.905 Y68.571
G1 X0.000 Y68.571
G1 X0.000 Y70.476
G1 X1.905 Y70.476
G1 X1.905 Y72.381
G1 X0.000 Y72.381
G1 X0.000 Y74.286
G1 X1.905 Y74.286
G1 X3.810 Y74.286
G1 X3.810 Y72.381
G1 X5.714 Y72.381
G1 X5.714 Y74.286
G1 X7.619 Y74.286
G1 X9.524 Y74.286
G1 X9.524 Y72.381
G1 X7.619 Y72.381
G1 X7.619 Y70.476
G1 X7.619 Y68.571
G1 X9.524 Y68.571
G1 X9.524 Y70.476
G1 X11.429 Y70.476
G1 X11.429 Y68.571
G1 X13.333 Y68.571
G1 X13.333 Y70.476
G1 X13.333 Y72.381
G1 X11.429 Y72.381
G1 X11.429 Y74.286
G1 X13.333 Y74.286
G1 X13.333 Y76.190
G1 X11.429 Y76.190
G1 X11.429 Y78.095
G1 X13.333 Y78.095
G1 X13.333 Y80.000
G1 X13.333 Y81.905
G1 X11.429 Y81.905
G1 X11.429 Y80.000
G1 X9.524 Y80.000
G1 X9.524 Y81.905
G1 X7.619 Y81.905
G1 X7.619 Y80.000
G1 X7.619 Y78.095
G1 X9.524 Y78.095
G1 X9.524 Y76.190
G1 X7.619 Y76.190
G1 X5.714 Y76.190
G1 X5.714 Y78.095
G1 X3.810 Y78.095
G1 X3.810 Y76.190
G1 X1.905 Y76.190
G1 X0.000 Y76.190
G1 X0.000 Y78.095
G1 X1.905 Y78.095
G1 X1.905 Y80.000
G1 X0.000 Y80.000
G1 X0.000 Y81.905
G1 X1.905 Y81.905
G1 X3.810 Y81.905
G1 X3.810 Y80.000
G1 X5.714 Y80.000
G1 X5.714 Y81.905
G1 X5.714 Y83.810
G1 X5.714 Y85.714
G1 X3.810 Y85.714
G1 X3.810 Y83.810
G1 X1.905 Y83.810
G1 X0.000 Y83.810
G1 X0.000 Y85.714
G1 X1.905 Y85.714
G1 X1.905 Y87.619
G1 X0.000 Y87.619
G1 X0.000 Y89.524
G1 X1.905 Y89.524
G1 X3.810 Y89.524
G1 X3.810 Y87.619
G1 X5.714 Y87.619
G1 X5.714 Y89.524
G1 X7.619 Y89.524
G1 X9.524 Y89.524
G1 X9.524 Y87.619
G1 X7.619 Y87.619
G1 X7.619 Y85.714
G1 X7.619 Y83.810
G1 X9.524 Y83.810
G1 X9.524 Y85.714
G1 X11.429 Y85.714
G1 X11.429 Y83.810
G1 X13.333 Y83.810
G1 X13.333 Y85.714
G1 X13.333 Y87.619
G1 X11.429 Y87.619
G1 X11.429 Y89.524
G1 X13.333 Y89.524
G1 X15.238 Y89.524
G1 X15.238 Y87.619
G1 X17.143 Y87.619
G1 X17.143 Y89.524
G1 X19.048 Y89.524
G1 X20.952 Y89.524
G1 X20.952 Y87.619
G1 X19.048 Y87.619
G1 X19.048 Y85.714
G1 X20.952 Y85.714
G1 X20.952 Y83.810
G1 X19.048 Y83.810
G1 X17.143 Y83.810
G1 X17.143 Y85.714
G1 X15.238 Y85.714
G1 X15.238 Y83.810
G1 X15.238 Y81.905
G1 X17.143 Y81.905
G1 X17.143 Y80.000
G1 X15.238 Y80.000
G1 X15.238 Y78.095
G1 X15.238 Y76.190
G1 X17.143 Y76.190
G1 X17.143 Y78.095
G1 X19.048 Y78.095
G1 X19.048 Y76.190
G1 X20.952 Y76.190
G1 X20.952 Y78.095
G1 X20.952 Y80.000
G1 X19.048 Y80.000
G1 X19.048 Y81.905
G1 X20.952 Y81.905
G1 X22.857 Y81.905
G1 X24.762 Y81.905
G1 X24.762 Y80.000
G1 X22.857 Y80.000
G1 X22.857 Y78.095
G1 X22.857 Y76.190
G1 X24.762 Y76.190
G1 X24.762 Y78.095
G1 X26.667 Y78.095
G1 X26.667 Y76.190
G1 X28.571 Y76.190
G1 X28.571 Y78.095
G1 X28.571 Y80.000
G1 X26.667 Y80.000
G1 X26.667 Y81.905
G1 X28.571 Y81.905
G1 X28.571 Y83.810
G1 X28.571 Y85.714
G1 X26.667 Y85.714
G1 X26.667 Y83.810
G1 X24.762 Y83.810
G1 X22.857 Y83.810
G1 X22.857 Y85.714
G1 X24.762 Y85.714
G1 X24.762 Y87.619
G1 X22.857 Y87.619
G1 X22.857 Y89.524
G1 X24.762 Y89.524
G1 X26.667 Y89.524
G1 X26.667 Y87.619
G1 X28.571 Y87.619
G1 X28.571 Y89.524
G1 X28.571 Y91.429
G1 X28.571 Y93.333
G1 X26.667 Y93.333
G1 X26.667 Y91.429
G1 X24.762 Y91.429
G1 X22.857 Y91.429
G1 X22.857 Y93.333
G1 X24.762 Y93.333
G1 X24.762 Y95.238
G1 X22.857 Y95.238
G1 X22.857 Y97.143
G1 X24.762 Y97.143
G1 X26.667 Y97.143
G1 X26.667 Y95.238
G1 X28.571 Y95.238
G1 X28.571 Y97.143
G1 X28.571 Y99.048
G1 X26.667 Y99.048
G1 X26.667 Y100.952
G1 X28.571 Y100.952
G1 X28.571 Y102.857
G1 X28.571 Y104.762
G1 X26.667 Y104.762
G1 X26.667 Y102.857
G1 X24.762 Y102.857
G1 X24.762 Y104.762
G1 X22.857 Y104.762
G1 X22.857 Y102.857
G1 X22.857 Y100.952
G1 X24.762 Y100.952
G1 X24.762 Y99.048
G1 X22.857 Y99.048
G1 X20.952 Y99.048
G1 X19.048 Y99.048
G1 X19.048 Y100.952
G1 X20.952 Y100.952
G1 X20.952 Y102.857
G1 X20.952 Y104.762
G1 X19.048 Y104.762
G1 X19.048 Y102.857
G1 X17.143 Y102.857
G1 X17.143 Y104.762
G1 X15.238 Y104.762
G1 X15.238 Y102.857
G1 X15.238 Y100.952
G1 X17.143 Y100.952
G1 X17.143 Y99.048
G1 X15.238 Y99.048
G1 X15.238 Y97.143
G1 X15.238 Y95.238
G1 X17.143 Y95.238
G1 X17.143 Y97.143
G1 X19.048 Y97.143
G1 X20.952 Y97.143
G1 X20.952 Y95.238
G1 X19.048 Y95.238
G1 X19.048 Y93.333
G1 X20.952 Y93.333
G1 X20.952 Y91.429
G1 X19.048 Y91.429
G1 X17.143 Y91.429
G1 X17.143 Y93.333
G1 X15.238 Y93.333
G1 X15.238 Y91.429
G1 X13.333 Y91.429
G1 X11.429 Y91.429
G1 X11.429 Y93.333
G1 X13.333 Y93.333
G1 X13.333 Y95.238
G1 X13.333 Y97.143
G1 X11.429 Y97.143
G1 X11.429 Y95.238
G1 X9.524 Y95.238
G1 X9.524 Y97.143
G1 X7.619 Y97.143
G1 X7.619 Y95.238
G1 X7.619 Y93.333
G1 X9.524 Y93.333
G1 X9.524 Y91.429
G1 X7.619 Y91.429
G1 X5.714 Y91.429
G1 X5.714 Y93.333
G1 X3.810 Y93.333
G1 X3.810 Y91.429
G1 X1.905 Y91.429
G1 X0.000 Y91.429
G1 X0.000 Y93.333
G1 X1.905 Y93.333
G1 X1.905 Y95.238
G1 X0.000 Y95.238
G1 X0.000 Y97.143
G1 X1.905 Y97.143
G1 X3.810 Y97.143
G1 X3.810 Y95.238
G1 X5.714 Y95.238
G1 X5.714 Y97.143
G1 X5.714 Y99.048
G1 X5.714 Y100.952
G1 X3.810 Y100.952
G1 X3.810 Y99.048
G1 X1.905 Y99.048
G1 X0.000 Y99.048
G1 X0.000 Y100.952
G1 X1.905 Y100.952
G1 X1.905 Y102.857
G1 X0.000 Y102.857
G1 X0.000 Y104.762
G1 X1.905 Y104.762
G1 X3.810 Y104.762
G1 X3.810 Y102.857
G1 X5.714 Y102.857
G1 X5.714 Y104.762
G1 X7.619 Y104.762
G1 X9.524 Y104.762
G1 X9.524 Y102.857
G1 X7.619 Y102.857
G1 X7.619 Y100.952
G1 X7.619 Y99.048
G1 X9.524 Y99.048
G1 X9.524 Y100.952
G1 X11.429 Y100.952
G1 X11.429 Y99.048
G1 X13.333 Y99.048
G1 X13.333 Y100.952
G1 X13.333 Y102.857
G1 X11.429 Y102.857
G1 X11.429 Y104.762
G1 X13.333 Y104.762
G1 X13.333 Y106.667
G1 X11.429 Y106.667
G1 X11.429 Y108.571
G1 X13.333 Y108.571
G1 X13.333 Y110.476
G1 X13.333 Y112.381
G1 X11.429 Y112.381
G1 X11.429 Y110.476
G1 X9.524 Y110.476
G1 X9.524 Y112.381
G1 X7.619 Y112.381
G1 X7.619 Y110.476
G1 X7.619 Y108.571
G1 X9.524 Y108.571
G1 X9.524 Y106.667
G1 X7.619 Y106.667
G1 X5.714 Y106.667
G1 X5.714 Y108.571
G1 X3.810 Y108.571
G1 X3.810 Y106.667
G1 X1.905 Y106.667
G1 X0.000 Y106.667
G1 X0.000 Y108.571
G1 X1.905 Y108.571
G1 X1.905 Y110.476
G1 X0.000 Y110.476
G1 X0.000 Y112.381
G1 X1.905 Y112.381
G1 X3.810 Y112.381
G1 X3.810 Y110.476
G1 X5.714 Y110.476
G1 X5.714 Y112.381
G1 X5.714 Y114.286
G1 X5.714 Y116.190
G1 X3.810 Y116.190
G1 X3.810 Y114.286
G1 X1.905 Y114.286
G1 X0.000 Y114.286
G1 X0.000 Y116.190
G1 X1.905 Y116.190
G1 X1.905 Y118.095
G1 X0.000 Y118.095
G1 X0.000 Y120.000
G1 X1.905 Y120.000
G1 X3.810 Y120.000
G1 X3.810 Y118.095
G1 X5.714 Y118.095
G1 X5.714 Y120.000
G1 X7.619 Y120.000
G1 X9.524 Y120.000
G1 X9.524 Y118.095
G1 X7.619 Y118.095
G1 X7.619 Y116.190
G1 X7.619 Y114.286
G1 X9.524 Y114.286
G1 X9.524 Y116.190
G1 X11.429 Y116.190
G1 X11.429 Y114.286
G1 X13.333 Y114.286
G1 X13.333 Y116.190
G1 X13.333 Y118.095
G1 X11.429 Y118.095
G1 X11.429 Y120.000
G1 X13.333 Y120.000
G1 X15.238 Y120.000
G1 X15.238 Y118.095
G1 X17.143 Y118.095
G1 X17.143 Y120.000
G1 X19.048 Y120.000
G1 X20.952 Y120.000
G1 X20.952 Y118.095
G1 X19.048 Y118.095
G1 X19.048 Y116.190
G1 X20.952 Y116.190
G1 X20.952 Y114.286
G1 X19.048 Y114.286
G1 X17.143 Y114.286
G1 X17.143 Y116.190
G1 X15.238 Y116.190
G1 X15.238 Y114.286
G1 X15.238 Y112.381
G1 X17.143 Y112.381
G1 X17.143 Y110.476
G1 X15.238 Y110.476
G1 X15.238 Y108.571
G1 X15.238 Y106.667
G1 X17.143 Y106.667
G1 X17.143 Y108.571
G1 X19.048 Y108.571
G1 X19.048 Y106.667
G1 X20.952 Y106.667
G1 X20.952 Y108.571
G1 X20.952 Y110.476
G1 X19.048 Y110.476
G1 X19.048 Y112.381
G1 X20.952 Y112.381
G1 X22.857 Y112.381
G1 X24.762 Y112.381
G1 X24.762 Y110.476
G1 X22.857 Y110.476
G1 X22.857 Y108.571
G1 X22.857 Y106.667
G1 X24.762 Y106.667
G1 X24.762 Y108.571
G1 X26.667 Y108.571
G1 X26.667 Y106.667
G1 X28.571 Y106.667
G1 X28.571 Y108.571
G1 X28.571 Y110.476
G1 X26.667 Y110.476
G1 X26.667 Y112.381
G1 X28.571 Y112.381
G1 X28.571 Y114.286
G1 X28.571 Y116.190
G1 X26.667 Y116.190
G1 X26.667 Y114.286
G1 X24.762 Y114.286
G1 X22.857 Y114.286
G1 X22.857 Y116.190
G1 X24.762 Y116.190
G1 X24.762 Y118.095
G1 X22.857 Y118.095
G1 X22.857 Y120.000
G1 X24.762 Y120.000
G1 X26.667 Y120.000
G1 X26.667 Y118.095
G1 X28.571 Y118.095
G1 X28.571 Y120.000
G1 X30.476 Y120.000
G1 X32.381 Y120.000
G1 X32.381 Y118.095
G1 X30.476 Y118.095
G1 X30.476 Y116.190
G1 X30.476 Y114.286
G1 X32.381 Y114.286
G1 X32.381 Y116.190
G1 X34.286 Y116.190
G1 X34.286 Y114.286
G1 X36.190 Y114.286
G1 X36.190 Y116.190
G1 X36.190 Y118.095
G1 X34.286 Y118.095
G1 X34.286 Y120.000
G1 X36.190 Y120.000
G1 X38.095 Y120.000
G1 X38.095 Y118.095
G1 X40.000 Y118.095
G1 X40.000 Y120.000
G1 X41.905 Y120.000
G1 X43.810 Y120.000
G1 X43.810 Y118.095
G1 X41.905 Y118.095
G1 X41.905 Y116.190
G1 X43.810 Y116.190
G1 X43.810 Y114.286
G1 X41.905 Y114.286
G1 X40.000 Y114.286
G1 X40.000 Y116.190
G1 X38.095 Y116.190
G1 X38.095 Y114.286
G1 X38.095 Y112.381
G1 X38.095 Y110.476
G1 X40.000 Y110.476
G1 X40.000 Y112.381
G1 X41.905 Y112.381
G1 X43.810 Y112.381
G1 X43.810 Y110.476
G1 X41.905 Y110.476
G1 X41.905 Y108.571
G1 X43.810 Y108.571
G1 X43.810 Y106.667
G1 X41.905 Y106.667
G1 X40.000 Y106.667
G1 X40.000 Y108.571
G1 X38.095 Y108.571
G1 X38.095 Y106.667
G1 X36.190 Y106.667
G1 X34.286 Y106.667
G1 X34.286 Y108.571
G1 X36.190 Y108.571
G1 X36.190 Y110.476
G1 X36.190 Y112.381
G1 X34.286 Y112.381
G1 X34.286 Y110.476
G1 X32.381 Y110.476
G1 X32.381 Y112.381
G1 X30.476 Y112.381
G1 X30.476 Y110.476
G1 X30.476 Y108.571
G1 X32.381 Y108.571
G1 X32.381 Y106.667
G1 X30.476 Y106.667
G1 X30.476 Y104.762
G1 X30.476 Y102.857
G1 X32.381 Y102.857
G1 X32.381 Y104.762
G1 X34.286 Y104.762
G1 X36.190 Y104.762
G1 X36.190 Y102.857
G1 X34.286 Y102.857
G1 X34.286 Y100.952
G1 X36.190 Y100.952
G1 X36.190 Y99.048
G1 X34.286 Y99.048
G1 X32.381 Y99.048
G1 X32.381 Y100.952
G1 X30.476 Y100.952
G1 X30.476 Y99.048
G1 X30.476 Y97.143
G1 X32.381 Y97.143
G1 X32.381 Y95.238
G1 X30.476 Y95.238
G1 X30.476 Y93.333
G1 X30.476 Y91.429
G1 X32.381 Y91.429
G1 X32.381 Y93.333
G1 X34.286 Y93.333
G1 X34.286 Y91.429
G1 X36.190 Y91.429
G1 X36.190 Y93.333
G1 X36.190 Y95.238
G1 X34.286 Y95.238
G1 X34.286 Y97.143
G1 X36.190 Y97.143
G1 X38.095 Y97.143
G1 X40.000 Y97.143
G1 X40.000 Y95.238
G1 X38.095 Y95.238
G1 X38.095 Y93.333
G1 X38.095 Y91.429
G1 X40.000 Y91.429
G1 X40.000 Y93.333
G1 X41.905 Y93.333
G1 X41.905 Y91.429
G1 X43.810 Y91.429
G1 X43.810 Y93.333
G1 X43.810 Y95.238
G1 X41.905 Y95.238
G1 X41.905 Y97.143
G1 X43.810 Y97.143
G1 X43.810 Y99.048
G1 X43.810 Y100.952
G1 X41.905 Y100.952
G1 X41.905 Y99.048
G1 X40.000 Y99.048
G1 X38.095 Y99.048
G1 X38.095 Y100.952
G1 X40.000 Y100.952
G1 X40.000 Y102.857
G1 X38.095 Y102.857
G1 X38.095 Y104.762
G1 X40.000 Y104.762
G1 X41.905 Y104.762
G1 X41.905 Y102.857
G1 X43.810 Y102.857
G1 X43.810 Y104.762
G1 X45.714 Y104.762
G1 X45.714 Y102.857
G1 X47.619 Y102.857
G1 X47.619 Y104.762
G1 X49.524 Y104.762
G1 X51.429 Y104.762
G1 X51.429 Y102.857
G1 X49.524 Y102.857
G1 X49.524 Y100.952
G1 X51.429 Y100.952
G1 X51.429 Y99.048
G1 X49.524 Y99.048
G1 X47.619 Y99.048
G1 X47.619 Y100.952
G1 X45.714 Y100.952
G1 X45.714 Y99.048
G1 X45.714 Y97.143
G1 X47.619 Y97.143
G1 X47.619 Y95.238
G1 X45.714 Y95.238
G1 X45.714 Y93.333
G1 X45.714 Y91.429
G1 X47.619 Y91.429
G1 X47.619 Y93.333
G1 X49.524 Y93.333
G1 X49.524 Y91.429
G1 X51.429 Y91.429
G1 X51.429 Y93.333
G1 X51.429 Y95.238
G1 X49.524 Y95.238
G1 X49.524 Y97.143
G1 X51.429 Y97.143
G1 X53.333 Y97.143
G1 X55.238 Y97.143
G1 X55.238 Y95.238
G1 X53.333 Y95.238
G1 X53.333 Y93.333
G1 X53.333 Y91.429
G1 X55.238 Y91.429
G1 X55.238 Y93.333
G1 X57.143 Y93.333
G1 X57.143 Y91.429
G1 X59.048 Y91.429
G1 X59.048 Y93.333
G1 X59.048 Y95.238
G1 X57.143 Y95.238
G1 X57.143 Y97.143
G1 X59.048 Y97.143
G1 X59.048 Y99.048
G1 X59.048 Y100.952
G1 X57.143 Y100.952
G1 X57.143 Y99.048
G1 X55.238 Y99.048
G1 X53.333 Y99.048
G1 X53.333 Y100.952
G1 X55.238 Y100.952
G1 X55.238 Y102.857
G1 X53.333 Y102.857
G1 X53.333 Y104.762
G1 X55.238 Y104.762
G1 X57.143 Y104.762
G1 X57.143 Y102.857
G1 X59.048 Y102.857
G1 X59.048 Y104.762
G1 X59.048 Y106.667
G1 X57.143 Y106.667
G1 X57.143 Y108.571
G1 X59.048 Y108.571
G1 X59.048 Y110.476
G1 X59.048 Y112.381
G1 X57.143 Y112.381
G1 X57.143 Y110.476
G1 X55.238 Y110.476
G1 X55.238 Y112.381
G1 X53.333 Y112.381
G1 X53.333 Y110.476
G1 X53.333 Y108.571
G1 X55.238 Y108.571
G1 X55.238 Y106.667
G1 X53.333 Y106.667
G1 X51.429 Y106.667
G1 X51.429 Y108.571
G1 X49.524 Y108.571
G1 X49.524 Y106.667
G1 X47.619 Y106.667
G1 X45.714 Y106.667
G1 X45.714 Y108.571
G1 X47.619 Y108.571
G1 X47.619 Y110.476
G1 X45.714 Y110.476
G1 X45.714 Y112.381
G1 X47.619 Y112.381
G1 X49.524 Y112.381
G1 X49.524 Y110.476
G1 X51.429 Y110.476
G1 X51.429 Y112.381
G1 X51.429 Y114.286
G1 X51.429 Y116.190
G1 X49.524 Y116.190
G1 X49.524 Y114.286
G1 X47.619 Y114.286
G1 X45.714 Y114.286
G1 X45.714 Y116.190
G1 X47.619 Y116.190
G1 X47.619 Y118.095
G1 X45.714 Y118.095
G1 X45.714 Y120.000
G1 X47.619 Y120.000
G1 X49.524 Y120.000
G1 X49.524 Y118.095
G1 X51.429 Y118.095
G1 X51.429 Y120.000
G1 X53.333 Y120.000
G1 X55.238 Y120.000
G1 X55.238 Y118.095
G1 X53.333 Y118.095
G1 X53.333 Y116.190
G1 X53.333 Y114.286
G1 X55.238 Y114.286
G1 X55.238 Y116.190
G1 X57.143 Y116.190
G1 X57.143 Y114.286
G1 X59.048 Y114.286
G1 X59.048 Y116.190
G1 X59.048 Y118.095
G1 X57.143 Y118.095
G1 X57.143 Y120.000
G1 X59.048 Y120.000
G1 X60.952 Y120.000
G1 X60.952 Y118.095
G1 X62.857 Y118.095
G1 X62.857 Y120.000
G1 X64.762 Y120.000
G1 X66.667 Y120.000
G1 X66.667 Y118.095
G1 X64.762 Y118.095
G1 X64.762 Y116.190
G1 X66.667 Y116.190
G1 X66.667 Y114.286
G1 X64.762 Y114.286
G1 X62.857 Y114.286
G1 X62.857 Y116.190
G1 X60.952 Y116.190
G1 X60.952 Y114.286
G1 X60.952 Y112.381
G1 X62.857 Y112.381
G1 X62.857 Y110.476
G1 X60.952 Y110.476
G1 X60.952 Y108.571
G1 X60.952 Y106.667
G1 X62.857 Y106.667
G1 X62.857 Y108.571
G1 X64.762 Y108.571
G1 X64.762 Y106.667
G1 X66.667 Y106.667
G1 X66.667 Y108.571
G1 X66.667 Y110.476
G1 X64.762 Y110.476
G1 X64.762 Y112.381
G1 X66.667 Y112.381
G1 X68.571 Y112.381
G1 X70.476 Y112.381
G1 X70.476 Y110.476
G1 X68.571 Y110.476
G1 X68.571 Y108.571
G1 X68.571 Y106.667
G1 X70.476 Y106.667
G1 X70.476 Y108.571
G1 X72.381 Y108.571
G1 X72.381 Y106.667
G1 X74.286 Y106.667
G1 X74.286 Y108.571
G1 X74.286 Y110.476
G1 X72.381 Y110.476
G1 X72.381 Y112.381
G1 X74.286 Y112.381
G1 X74.286 Y114.286
G1 X74.286 Y116.190
G1 X72.381 Y116.190
G1 X72.381 Y114.286
G1 X70.476 Y114.286
G1 X68.571 Y114.286
G1 X68.571 Y116.190
G1 X70.476 Y116.190
G1 X70.476 Y118.095
G1 X68.571 Y118.095
G1 X68.571 Y120.000
G1 X70.476 Y120.000
G1 X72.381 Y120.000
G1 X72.381 Y118.095
G1 X74.286 Y118.095
G1 X74.286 Y120.000
G1 X76.190 Y120.000
G1 X78.095 Y120.000
G1 X78.095 Y118.095
G1 X76.190 Y118.095
G1 X76.190 Y116.190
G1 X76.190 Y114.286
G1 X78.095 Y114.286
G1 X78.095 Y116.190
G1 X80.000 Y116.190
G1 X80.000 Y114.286
G1 X81.905 Y114.286
G1 X81.905 Y116.190
G1 X81.905 Y118.095
G1 X80.000 Y118.095
G1 X80.000 Y120.000
G1 X81.905 Y120.000
G1 X83.810 Y120.000
G1 X83.810 Y118.095
G1 X85.714 Y118.095
G1 X85.714 Y120.000
G1 X87.619 Y120.000
G1 X89.524 Y120.000
G1 X89.524 Y118.095
G1 X87.619 Y118.095
G1 X87.619 Y116.190
G1 X89.524 Y116.190
G1 X89.524 Y114.286
G1 X87.619 Y114.286
G1 X85.714 Y114.286
G1 X85.714 Y116.190
G1 X83.810 Y116.190
G1 X83.810 Y114.286
G1 X83.810 Y112.381
G1 X83.810 Y110.476
G1 X85.714 Y110.476
G1 X85.714 Y112.381
G1 X87.619 Y112.381
G1 X89.524 Y112.381
G1 X89.524 Y110.476
G1 X87.619 Y110.476
G1 X87.619 Y108.571
G1 X89.524 Y108.571
G1 X89.524 Y106.667
G1 X87.619 Y106.667
G1 X85.714 Y106.667
G1 X85.714 Y108.571
G1 X83.810 Y108.571
G1 X83.810 Y106.667
G1 X81.905 Y106.667
G1 X80.000 Y106.667
G1 X80.000 Y108.571
G1 X81.905 Y108.571
G1 X81.905 Y110.476
G1 X81.905 Y112.381
G1 X80.000 Y112.381
G1 X80.000 Y110.476
G1 X78.095 Y110.476
G1 X78.095 Y112.381
G1 X76.190 Y112.381
G1 X76.190 Y110.476
G1 X76.190 Y108.571
G1 X78.095 Y108.571
G1 X78.095 Y106.667
G1 X76.190 Y106.667
G1 X76.190 Y104.762
G1 X78.095 Y104.762
G1 X78.095 Y102.857
G1 X76.190 Y102.857
G1 X76.190 Y100.952
G1 X76.190 Y99.048
G1 X78.095 Y99.048
G1 X78.095 Y100.952
G1 X80.000 Y100.952
G1 X80.000 Y99.048
G1 X81.905 Y99.048
G1 X81.905 Y100.952
G1 X81.905 Y102.857
G1 X80.000 Y102.857
G1 X80.000 Y104.762
G1 X81.905 Y104.762
G1 X83.810 Y104.762
G1 X83.810 Y102.857
G1 X85.714 Y102.857
G1 X85.714 Y104.762
G1 X87.619 Y104.762
G1 X89.524 Y104.762
G1 X89.524 Y102.857
G1 X87.619 Y102.857
G1 X87.619 Y100.952
G1 X89.524 Y100.952
G1 X89.524 Y99.048
G1 X87.619 Y99.048
G1 X85.714 Y99.048
G1 X85.714 Y100.952
G1 X83.810 Y100.952
G1 X83.810 Y99.048
G1 X83.810 Y97.143
G1 X83.810 Y95.238
G1 X85.714 Y95.238
G1 X85.714 Y97.143
G1 X87.619 Y97.143
G1 X89.524 Y97.143
G1 X89.524 Y95.238
G1 X87.619 Y95.238
G1 X87.619 Y93.333
G1 X89.524 Y93.333
G1 X89.524 Y91.429
G1 X87.619 Y91.429
G1 X85.714 Y91.429
G1 X85.714 Y93.333
G1 X83.810 Y93.333
G1 X83.810 Y91.429
G1 X81.905 Y91.429
G1 X80.000 Y91.429
G1 X80.000 Y93.333
G1 X81.905 Y93.333
G1 X81.905 Y95.238
G1 X81.905 Y97.143
G1 X80.000 Y97.143
G1 X80.000 Y95.238
G1 X78.095 Y95.238
G1 X78.095 Y97.143
G1 X76.190 Y97.143
G1 X76.190 Y95.238
G1 X76.190 Y93.333
G1 X78.095 Y93.333
G1 X78.095 Y91.429
G1 X76.190 Y91.429
G1 X74.286 Y91.429
G1 X74.286 Y93.333
G1 X72.381 Y93.333
G1 X72.381 Y91.429
G1 X70.476 Y91.429
G1 X68.571 Y91.429
G1 X68.571 Y93.333
G1 X70.476 Y93.333
G1 X70.476 Y95.238
G1 X68.571 Y95.238
G1 X68.571 Y97.143
G1 X70.476 Y97.143
G1 X72.381 Y97.143
G1 X72.381 Y95.238
G1 X74.286 Y95.238
G1 X74.286 Y97.143
G1 X74.286 Y99.048
G1 X72.381 Y99.048
G1 X72.381 Y100.952
G1 X74.286 Y100.952
G1 X74.286 Y102.857
G1 X74.286 Y104.762
G1 X72.381 Y104.762
G1 X72.381 Y102.857
G1 X70.476 Y102.857
G1 X70.476 Y104.762
G1 X68.571 Y104.762
G1 X68.571 Y102.857
G1 X68.571 Y100.952
G1 X70.476 Y100.952
G1 X70.476 Y99.048
G1 X68.571 Y99.048
G1 X66.667 Y99.048
G1 X64.762 Y99.048
G1 X64.762 Y100.952
G1 X66.667 Y100.952
G1 X66.667 Y102.857
G1 X66.667 Y104.762
G1 X64.762 Y104.762
G1 X64.762 Y102.857
G1 X62.857 Y102.857
G1 X62.857 Y104.762
G1 X60.952 Y104.762
G1 X60.952 Y102.857
G1 X60.952 Y100.952
G1 X62.857 Y100.952
G1 X62.857 Y99.048
G1 X60.952 Y99.048
G1 X60.952 Y97.143
G1 X60.952 Y95.238
G1 X62.857 Y95.238
G1 X62.857 Y97.143
G1 X64.762 Y97.143
G1 X66.667 Y97.143
G1 X66.667 Y95.238
G1 X64.762 Y95.238
G1 X64.762 Y93.333
G1 X66.667 Y93.333
G1 X66.667 Y91.429
G1 X64.762 Y91.429
G1 X62.857 Y91.429
G1 X62.857 Y93.333
G1 X60.952 Y93.333
G1 X60.952 Y91.429
G1 X60.952 Y89.524
G1 X62.857 Y89.524
G1 X62.857 Y87.619
G1 X60.952 Y87.619
G1 X60.952 Y85.714
G1 X60.952 Y83.810
G1 X62.857 Y83.810
G1 X62.857 Y85.714
G1 X64.762 Y85.714
G1 X64.762 Y83.810
G1 X66.667 Y83.810
G1 X66.667 Y85.714
G1 X66.667 Y87.619
G1 X64.762 Y87.619
G1 X64.762 Y89.524
G1 X66.667 Y89.524
G1 X68.571 Y89.524
G1 X68.571 Y87.619
G1 X70.476 Y87.619
G1 X70.476 Y89.524
G1 X72.381 Y89.524
G1 X74.286 Y89.524
G1 X74.286 Y87.619
G1 X72.381 Y87.619
G1 X72.381 Y85.714
G1 X74.286 Y85.714
G1 X74.286 Y83.810
G1 X72.381 Y83.810
G1 X70.476 Y83.810
G1 X70.476 Y85.714
G1 X68.571 Y85.714
G1 X68.571 Y83.810
G1 X68.571 Y81.905
G1 X68.571 Y80.000
G1 X70.476 Y80.000
G1 X70.476 Y81.905
G1 X72.381 Y81.905
G1 X74.286 Y81.905
G1 X74.286 Y80.000
G1 X72.381 Y80.000
G1 X72.381 Y78.095
G1 X74.286 Y78.095
G1 X74.286 Y76.190
G1 X72.381 Y76.190
G1 X70.476 Y76.190
G1 X70.476 Y78.095
G1 X68.571 Y78.095
G1 X68.571 Y76.190
G1 X66.667 Y76.190
G1 X64.762 Y76.190
G1 X64.762 Y78.095
G1 X66.667 Y78.095
G1 X66.667 Y80.000
G1 X66.667 Y81.905
G1 X64.762 Y81.905
G1 X64.762 Y80.000
G1 X62.857 Y80.000
G1 X62.857 Y81.905
G1 X60.952 Y81.905
G1 X60.952 Y80.000
G1 X60.952 Y78.095
G1 X62.857 Y78.095
G1 X62.857 Y76.190
G1 X60.952 Y76.190
G1 X60.952 Y74.286
G1 X60.952 Y72.381
G1 X62.857 Y72.381
G1 X62.857 Y74.286
G1 X64.762 Y74.286
G1 X66.667 Y74.286
G1 X66.667 Y72.381
G1 X64.762 Y72.381
G1 X64.762 Y70.476
G1 X66.667 Y70.476
G1 X66.667 Y68.571
G1 X64.762 Y68.571
G1 X62.857 Y68.571
G1 X62.857 Y70.476
G1 X60.952 Y70.476
G1 X60.952 Y68.571
G1 X60.952 Y66.667
G1 X62.857 Y66.667
G1 X62.857 Y64.762
G1 X60.952 Y64.762
G1 X60.952 Y62.857
G1 X60.952 Y60.952
G1 X62.857 Y60.952
G1 X62.857 Y62.857
G1 X64.762 Y62.857
G1 X64.762 Y60.952
G1 X66.667 Y60.952
G1 X66.667 Y62.857
G1 X66.667 Y64.762
G1 X64.762 Y64.762
G1 X64.762 Y66.667
G1 X66.667 Y66.667
G1 X68.571 Y66.667
G1 X70.476 Y66.667
G1 X70.476 Y64.762
G1 X68.571 Y64.762
G1 X68.571 Y62.857
G1 X68.571 Y60.952
G1 X70.476 Y60.952
G1 X70.476 Y62.857
G1 X72.381 Y62.857
G1 X72.381 Y60.952
G1 X74.286 Y60.952
G1 X74.286 Y62.857
G1 X74.286 Y64.762
G1 X72.381 Y64.762
G1 X72.381 Y66.667
G1 X74.286 Y66.667
G1 X74.286 Y68.571
G1 X74.286 Y70.476
G1 X72.381 Y70.476
G1 X72.381 Y68.571
G1 X70.476 Y68.571
G1 X68.571 Y68.571
G1 X68.571 Y70.476
G1 X70.476 Y70.476
G1 X70.476 Y72.381
G1 X68.571 Y72.381
G1 X68.571 Y74.286
G1 X70.476 Y74.286
G1 X72.381 Y74.286
G1 X72.381 Y72.381
G1 X74.286 Y72.381
G1 X74.286 Y74.286
G1 X76.190 Y74.286
G1 X76.190 Y72.381
G1 X78.095 Y72.381
G1 X78.095 Y74.286
G1 X80.000 Y74.286
G1 X81.905 Y74.286
G1 X81.905 Y72.381
G1 X80.000 Y72.381
G1 X80.000 Y70.476
G1 X81.905 Y70.476
G1 X81.905 Y68.571
G1 X80.000 Y68.571
G1 X78.095 Y68.571
G1 X78.095 Y70.476
G1 X76.190 Y70.476
G1 X76.190 Y68.571
G1 X76.190 Y66.667
G1 X78.095 Y66.667
G1 X78.095 Y64.762
G1 X76.190 Y64.762
G1 X76.190 Y62.857
G1 X76.190 Y60.952
G1 X78.095 Y60.952
G1 X78.095 Y62.857
G1 X80.000 Y62.857
G1 X80.000 Y60.952
G1 X81.905 Y60.952
G1 X81.905 Y62.857
G1 X81.905 Y64.762
G1 X80.000 Y64.762
G1 X80.000 Y66.667
G1 X81.905 Y66.667
G1 X83.810 Y66.667
G1 X85.714 Y66.667
G1 X85.714 Y64.762
G1 X83.810 Y64.762
G1 X83.810 Y62.857
G1 X83.810 Y60.952
G1 X85.714 Y60.952
G1 X85.714 Y62.857
G1 X87.619 Y62.857
G1 X87.619 Y60.952
G1 X89.524 Y60.952
G1 X89.524 Y62.857
G1 X89.524 Y64.762
G1 X87.619 Y64.762
G1 X87.619 Y66.667
G1 X89.524 Y66.667
G1 X89.524 Y68.571
G1 X89.524 Y70.476
G1 X87.619 Y70.476
G1 X87.619 Y68.571
G1 X85.714 Y68.571
G1 X83.810 Y68.571
G1 X83.810 Y70.476
G1 X85.714 Y70.476
G1 X85.714 Y72.381
G1 X83.810 Y72.381
G1 X83.810 Y74.286
G1 X85.714 Y74.286
G1 X87.619 Y74.286
G1 X87.619 Y72.381
G1 X89.524 Y72.381
G1 X89.524 Y74.286
G1 X89.524 Y76.190
G1 X87.619 Y76.190
G1 X87.619 Y78.095
G1 X89.524 Y78.095
G1 X89.524 Y80.000
G1 X89.524 Y81.905
G1 X87.619 Y81.905
G1 X87.619 Y80.000
G1 X85.714 Y80.000
G1 X85.714 Y81.905
G1 X83.810 Y81.905
G1 X83.810 Y80.000
G1 X83.810 Y78.095
G1 X85.714 Y78.095
G1 X85.714 Y76.190
G1 X83.810 Y76.190
G1 X81.905 Y76.190
G1 X81.905 Y78.095
G1 X80.000 Y78.095
G1 X80.000 Y76.190
G1 X78.095 Y76.190
G1 X76.190 Y76.190
G1 X76.190 Y78.095
G1 X78.095 Y78.095
G1 X78.095 Y80.000
G1 X76.190 Y80.000
G1 X76.190 Y81.905
G1 X78.095 Y81.905
G1 X80.000 Y81.905
G1 X80.000 Y80.000
G1 X81.905 Y80.000
G1 X81.905 Y81.905
G1 X81.905 Y83.810
G1 X81.905 Y85.714
G1 X80.000 Y85.714
G1 X80.000 Y83.810
G1 X78.095 Y83.810
G1 X76.190 Y83.810
G1 X76.190 Y85.714
G1 X78.095 Y85.714
G1 X78.095 Y87.619
G1 X76.190 Y87.619
G1 X76.190 Y89.524
G1 X78.095 Y89.524
G1 X80.000 Y89.524
G1 X80.000 Y87.619
G1 X81.905 Y87.619
G1 X81.905 Y89.524
G1 X83.810 Y89.524
G1 X85.714 Y89.524
G1 X85.714 Y87.619
G1 X83.810 Y87.619
G1 X83.810 Y85.714
G1 X83.810 Y83.810
G1 X85.714 Y83.810
G1 X85.714 Y85.714
G1 X87.619 Y85.714
G1 X87.619 Y83.810
G1 X89.524 Y83.810
G1 X89.524 Y85.714
G1 X89.524 Y87.619
G1 X87.619 Y87.619
G1 X87.619 Y89.524
G1 X89.524 Y89.524
G1 X91.429 Y89.524
G1 X93.333 Y89.524
G1 X93.333 Y87.619
G1 X91.429 Y87.619
G1 X91.429 Y85.714
G1 X91.429 Y83.810
G1 X93.333 Y83.810
G1 X93.333 Y85.714
G1 X95.238 Y85.714
G1 X95.238 Y83.810
G1 X97.143 Y83.810
G1 X97.143 Y85.714
G1 X97.143 Y87.619
G1 X95.238 Y87.619
G1 X95.238 Y89.524
G1 X97.143 Y89.524
G1 X99.048 Y89.524
G1 X99.048 Y87.619
G1 X100.952 Y87.619
G1 X100.952 Y89.524
G1 X102.857 Y89.524
G1 X104.762 Y89.524
G1 X104.762 Y87.619
G1 X102.857 Y87.619
G1 X102.857 Y85.714
G1 X104.762 Y85.714
G1 X104.762 Y83.810
G1 X102.857 Y83.810
G1 X100.952 Y83.810
G1 X100.952 Y85.714
G1 X99.048 Y85.714
G1 X99.048 Y83.810
G1 X99.048 Y81.905
G1 X99.048 Y80.000
G1 X100.952 Y80.000
G1 X100.952 Y81.905
G1 X102.857 Y81.905
G1 X104.762 Y81.905
G1 X104.762 Y80.000
G1 X102.857 Y80.000
G1 X102.857 Y78.095
G1 X104.762 Y78.095
G1 X104.762 Y76.190
G1 X102.857 Y76.190
G1 X100.952 Y76.190
G1 X100.952 Y78.095
G1 X99.048 Y78.095
G1 X99.048 Y76.190
G1 X97.143 Y76.190
G1 X95.238 Y76.190
G1 X95.238 Y78.095
G1 X97.143 Y78.095
G1 X97.143 Y80.000
G1 X97.143 Y81.905
G1 X95.238 Y81.905
G1 X95.238 Y80.000
G1 X93.333 Y80.000
G1 X93.333 Y81.905
G1 X91.429 Y81.905
G1 X91.429 Y80.000
G1 X91.429 Y78.095
G1 X93.333 Y78.095
G1 X93.333 Y76.190
G1 X91.429 Y76.190
G1 X91.429 Y74.286
G1 X91.429 Y72.381
G1 X93.333 Y72.381
G1 X93.333 Y74.286
G1 X95.238 Y74.286
G1 X97.143 Y74.286
G1 X97.143 Y72.381
G1 X95.238 Y72.381
G1 X95.238 Y70.476
G1 X97.143 Y70.476
G1 X97.143 Y68.571
G1 X95.238 Y68.571
G1 X93.333 Y68.571
G1 X93.333 Y70.476
G1 X91.429 Y70.476
G1 X91.429 Y68.571
G1 X91.429 Y66.667
G1 X93.333 Y66.667
G1 X93.333 Y64.762
G1 X91.429 Y64.762
G1 X91.429 Y62.857
G1 X91.429 Y60.952
G1 X93.333 Y60.952
G1 X93.333 Y62.857
G1 X95.238 Y62.857
G1 X95.238 Y60.952
G1 X97.143 Y60.952
G1 X97.143 Y62.857
G1 X97.143 Y64.762
G1 X95.238 Y64.762
G1 X95.238 Y66.667
G1 X97.143 Y66.667
G1 X99.048 Y66.667
G1 X100.952 Y66.667
G1 X100.952 Y64.762
G1 X99.048 Y64.762
G1 X99.048 Y62.857
G1 X99.048 Y60.952
G1 X100.952 Y60.952
G1 X100.952 Y62.857
G1 X102.857 Y62.857
G1 X102.857 Y60.952
G1 X104.762 Y60.952
G1 X104.762 Y62.857
G1 X104.762 Y64.762
G1 X102.857 Y64.762
G1 X102.857 Y66.667
G1 X104.762 Y66.667
G1 X104.762 Y68.571
G1 X104.762 Y70.476
G1 X102.857 Y70.476
G1 X102.857 Y68.571
G1 X100.952 Y68.571
G1 X99.048 Y68.571
G1 X99.048 Y70.476
G1 X100.952 Y70.476
G1 X100.952 Y72.381
G1 X99.048 Y72.381
G1 X99.048 Y74.286
G1 X100.952 Y74.286
G1 X102.857 Y74.286
G1 X102.857 Y72.381
G1 X104.762 Y72.381
G1 X104.762 Y74.286
G1 X106.667 Y74.286
G1 X106.667 Y72.381
G1 X108.571 Y72.381
G1 X108.571 Y74.286
G1 X110.476 Y74.286
G1 X112.381 Y74.286
G1 X112.381 Y72.381
G1 X110.476 Y72.381
G1 X110.476 Y70.476
G1 X112.381 Y70.476
G1 X112.381 Y68.571
G1 X110.476 Y68.571
G1 X108.571 Y68.571
G1 X108.571 Y70.476
G1 X106.667 Y70.476
G1 X106.667 Y68.571
G1 X106.667 Y66.667
G1 X108.571 Y66.667
G1 X108.571 Y64.762
G1 X106.667 Y64.762
G1 X106.667 Y62.857
G1 X106.667 Y60.952
G1 X108.571 Y60.952
G1 X108.571 Y62.857
G1 X110.476 Y62.857
G1 X110.476 Y60.952
G1 X112.381 Y60.952
G1 X112.381 Y62.857
G1 X112.381 Y64.762
G1 X110.476 Y64.762
G1 X110.476 Y66.667
G1 X112.381 Y66.667
G1 X114.286 Y66.667
G1 X116.190 Y66.667
G1 X116.190 Y64.762
G1 X114.286 Y64.762
G1 X114.286 Y62.857
G1 X114.286 Y60.952
G1 X116.190 Y60.952
G1 X116.190 Y62.857
G1 X118.095 Y62.857
G1 X118.095 Y60.952
G1 X120.000 Y60.952
G1 X120.000 Y62.857
G1 X120.000 Y64.762
G1 X118.095 Y64.762
G1 X118.095 Y66.667
G1 X120.000 Y66.667
G1 X120.000 Y68.571
G1 X120.000 Y70.476
G1 X118.095 Y70.476
G1 X118.095 Y68.571
G1 X116.190 Y68.571
G1 X114.286 Y68.571
G1 X114.286 Y70.476
G1 X116.190 Y70.476
G1 X116.190 Y72.381
G1 X114.286 Y72.381
G1 X114.286 Y74.286
G1 X116.190 Y74.286
G1 X118.095 Y74.286
G1 X118.095 Y72.381
G1 X120.000 Y72.381
G1 X120.000 Y74.286
G1 X120.000 Y76.190
G1 X118.095 Y76.190
G1 X118.095 Y78.095
G1 X120.000 Y78.095
G1 X120.000 Y80.000
G1 X120.000 Y81.905
G1 X118.095 Y81.905
G1 X118.095 Y80.000
G1 X116.190 Y80.000
G1 X116.190 Y81.905
G1 X114.286 Y81.905
G1 X114.286 Y80.000
G1 X114.286 Y78.095
G1 X116.190 Y78.095
G1 X116.190 Y76.190
G1 X114.286 Y76.190
G1 X112.381 Y76.190
G1 X112.381 Y78.095
G1 X110.476 Y78.095
G1 X110.476 Y76.190
G1 X108.571 Y76.190
G1 X106.667 Y76.190
G1 X106.667 Y78.095
G1 X108.571 Y78.095
G1 X108.571 Y80.000
G1 X106.667 Y80.000
G1 X106.667 Y81.905
G1 X108.571 Y81.905
G1 X110.476 Y81.905
G1 X110.476 Y80.000
G1 X112.381 Y80.000
G1 X112.381 Y81.905
G1 X112.381 Y83.810
G1 X112.381 Y85.714
G1 X110.476 Y85.714
G1 X110.476 Y83.810
G1 X108.571 Y83.810
G1 X106.667 Y83.810
G1 X106.667 Y85.714
G1 X108.571 Y85.714
G1 X108.571 Y87.619
G1 X106.667 Y87.619
G1 X106.667 Y89.524
G1 X108.571 Y89.524
G1 X110.476 Y89.524
G1 X110.476 Y87.619
G1 X112.381 Y87.619
G1 X112.381 Y89.524
G1 X114.286 Y89.524
G1 X116.190 Y89.524
G1 X116.190 Y87.619
G1 X114.286 Y87.619
G1 X114.286 Y85.714
G1 X114.286 Y83.810
G1 X116.190 Y83.810
G1 X116.190 Y85.714
G1 X118.095 Y85.714
G1 X118.095 Y83.810
G1 X120.000 Y83.810
G1 X120.000 Y85.714
G1 X120.000 Y87.619
G1 X118.095 Y87.619
G1 X118.095 Y89.524
G1 X120.000 Y89.524
G1 X120.000 Y91.429
G1 X120.000 Y93.333
G1 X118.095 Y93.333
G1 X118.095 Y91.429
G1 X116.190 Y91.429
G1 X114.286 Y91.429
G1 X114.286 Y93.333
G1 X116.190 Y93.333
G1 X116.190 Y95.238
G1 X114.286 Y95.238
G1 X114.286 Y97.143
G1 X116.190 Y97.143
G1 X118.095 Y97.143
G1 X118.095 Y95.238
G1 X120.000 Y95.238
G1 X120.000 Y97.143
G1 X120.000 Y99.048
G1 X118.095 Y99.048
G1 X118.095 Y100.952
G1 X120.000 Y100.952
G1 X120.000 Y102.857
G1 X120.000 Y104.762
G1 X118.095 Y104.762
G1 X118.095 Y102.857
G1 X116.190 Y102.857
G1 X116.190 Y104.762
G1 X114.286 Y104.762
G1 X114.286 Y102.857
G1 X114.286 Y100.952
G1 X116.190 Y100.952
G1 X116.190 Y99.048
G1 X114.286 Y99.048
G1 X112.381 Y99.048
G1 X110.476 Y99.048
G1 X110.476 Y100.952
G1 X112.381 Y100.952
G1 X112.381 Y102.857
G1 X112.381 Y104.762
G1 X110.476 Y104.762
G1 X110.476 Y102.857
G1 X108.571 Y102.857
G1 X108.571 Y104.762
G1 X106.667 Y104.762
G1 X106.667 Y102.857
G1 X106.667 Y100.952
G1 X108.571 Y100.952
G1 X108.571 Y99.048
G1 X106.667 Y99.048
G1 X106.667 Y97.143
G1 X106.667 Y95.238
G1 X108.571 Y95.238
G1 X108.571 Y97.143
G1 X110.476 Y97.143
G1 X112.381 Y97.143
G1 X112.381 Y95.238
G1 X110.476 Y95.238
G1 X110.476 Y93.333
G1 X112.381 Y93.333
G1 X112.381 Y91.429
G1 X110.476 Y91.429
G1 X108.571 Y91.429
G1 X108.571 Y93.333
G1 X106.667 Y93.333
G1 X106.667 Y91.429
G1 X104.762 Y91.429
G1 X102.857 Y91.429
G1 X102.857 Y93.333
G1 X104.762 Y93.333
G1 X104.762 Y95.238
G1 X104.762 Y97.143
G1 X102.857 Y97.143
G1 X102.857 Y95.238
G1 X100.952 Y95.238
G1 X100.952 Y97.143
G1 X99.048 Y97.143
G1 X99.048 Y95.238
G1 X99.048 Y93.333
G1 X100.952 Y93.333
G1 X100.952 Y91.429
G1 X99.048 Y91.429
G1 X97.143 Y91.429
G1 X97.143 Y93.333
G1 X95.238 Y93.333
G1 X95.238 Y91.429
G1 X93.333 Y91.429
G1 X91.429 Y91.429
G1 X91.429 Y93.333
G1 X93.333 Y93.333
G1 X93.333 Y95.238
G1 X91.429 Y95.238
G1 X91.429 Y97.143
G1 X93.333 Y97.143
G1 X95.238 Y97.143
G1 X95.238 Y95.238
G1 X97.143 Y95.238
G1 X97.143 Y97.143
G1 X97.143 Y99.048
G1 X97.143 Y100.952
G1 X95.238 Y100.952
G1 X95.238 Y99.048
G1 X93.333 Y99.048
G1 X91.429 Y99.048
G1 X91.429 Y100.952
G1 X93.333 Y100.952
G1 X93.333 Y102.857
G1 X91.429 Y102.857
G1 X91.429 Y104.762
G1 X93.333 Y104.762
G1 X95.238 Y104.762
G1 X95.238 Y102.857
G1 X97.143 Y102.857
G1 X97.143 Y104.762
G1 X99.048 Y104.762
G1 X100.952 Y104.762
G1 X100.952 Y102.857
G1 X99.048 Y102.857
G1 X99.048 Y100.952
G1 X99.048 Y99.048
G1 X100.952 Y99.048
G1 X100.952 Y100.952
G1 X102.857 Y100.952
G1 X102.857 Y99.048
G1 X104.762 Y99.048
G1 X104.762 Y100.952
G1 X104.762 Y102.857
G1 X102.857 Y102.857
G1 X102.857 Y104.762
G1 X104.762 Y104.762
G1 X104.762 Y106.667
G1 X102.857 Y106.667
G1 X102.857 Y108.571
G1 X104.762 Y108.571
G1 X104.762 Y110.476
G1 X104.762 Y112.381
G1 X102.857 Y112.381
G1 X102.857 Y110.476
G1 X100.952 Y110.476
G1 X100.952 Y112.381
G1 X99.048 Y112.381
G1 X99.048 Y110.476
G1 X99.048 Y108.571
G1 X100.952 Y108.571
G1 X100.952 Y106.667
G1 X99.048 Y106.667
G1 X97.143 Y106.667
G1 X97.143 Y108.571
G1 X95.238 Y108.571
G1 X95.238 Y106.667
G1 X93.333 Y106.667
G1 X91.429 Y106.667
G1 X91.429 Y108.571
G1 X93.333 Y108.571
G1 X93.333 Y110.476
G1 X91.429 Y110.476
G1 X91.429 Y112.381
G1 X93.333 Y112.381
G1 X95.238 Y112.381
G1 X95.238 Y110.476
G1 X97.143 Y110.476
G1 X97.143 Y112.381
G1 X97.143 Y114.286
G1 X97.143 Y116.190
G1 X95.238 Y116.190
G1 X95.238 Y114.286
G1 X93.333 Y114.286
G1 X91.429 Y114.286
G1 X91.429 Y116.190
G1 X93.333 Y116.190
G1 X93.333 Y118.095
G1 X91.429 Y118.095
G1 X91.429 Y120.000
G1 X93.333 Y120.000
G1 X95.238 Y120.000
G1 X95.238 Y118.095
G1 X97.143 Y118.095
G1 X97.143 Y120.000
G1 X99.048 Y120.000
G1 X100.952 Y120.000
G1 X100.952 Y118.095
G1 X99.048 Y118.095
G1 X99.048 Y116.190
G1 X99.048 Y114.286
G1 X100.952 Y114.286
G1 X100.952 Y116.190
G1 X102.857 Y116.190
G1 X102.857 Y114.286
G1 X104.762 Y114.286
G1 X104.762 Y116.190
G1 X104.762 Y118.095
G1 X102.857 Y118.095
G1 X102.857 Y120.000
G1 X104.762 Y120.000
G1 X106.667 Y120.000
G1 X106.667 Y118.095
G1 X108.571 Y118.095
G1 X108.571 Y120.000
G1 X110.476 Y120.000
G1 X112.381 Y120.000
G1 X112.381 Y118.095
G1 X110.476 Y118.095
G1 X110.476 Y116.190
G1 X112.381 Y116.190
G1 X112.381 Y114.286
G1 X110.476 Y114.286
G1 X108.571 Y114.286
G1 X108.571 Y116.190
G1 X106.667 Y116.190
G1 X106.667 Y114.286
G1 X106.667 Y112.381
G1 X108.571 Y112.381
G1 X108.571 Y110.476
G1 X106.667 Y110.476
G1 X106.667 Y108.571
G1 X106.667 Y106.667
G1 X108.571 Y106.667
G1 X108.571 Y108.571
G1 X110.476 Y108.571
G1 X110.476 Y106.667
G1 X112.381 Y106.667
G1 X112.381 Y108.571
G1 X112.381 Y110.476
G1 X110.476 Y110.476
G1 X110.476 Y112.381
G1 X112.381 Y112.381
G1 X114.286 Y112.381
G1 X116.190 Y112.381
G1 X116.190 Y110.476
G1 X114.286 Y110.476
G1 X114.286 Y108.571
G1 X114.286 Y106.667
G1 X116.190 Y106.667
G1 X116.190 Y108.571
G1 X118.095 Y108.571
G1 X118.095 Y106.667
G1 X120.000 Y106.667
G1 X120.000 Y108.571
G1 X120.000 Y110.476
G1 X118.095 Y110.476
G1 X118.095 Y112.381
G1 X120.000 Y112.381
G1 X120.000 Y114.286
G1 X120.000 Y116.190
G1 X118.095 Y116.190
G1 X118.095 Y114.286
G1 X116.190 Y114.286
G1 X114.286 Y114.286
G1 X114.286 Y116.190
G1 X116.190 Y116.190
G1 X116.190 Y118.095
G1 X114.286 Y118.095
G1 X114.286 Y120.000
G1 X116.190 Y120.000
G1 X118.095 Y120.000
G1 X118.095 Y118.095
G1 X120.000 Y118.095
G1 X120.000 Y120.000
;### Footer ###

M03
G04 P1
G0 X0 Y0

