G21 ; units = mm
G90 ; absolute coords
G04 P0.5

M03

G04 P0.5
G0 X23.218 Y39.513 F3000
G04 P0.5

M05

G04 P0.5
G1 X21.941 Y39.451 F1000
G1 X19.589 Y38.963 F1000
G1 X17.507 Y37.986 F1000
G1 X15.694 Y36.520 F1000
G1 X14.889 Y35.603 F1000
G1 X14.168 Y34.584 F1000
G1 X13.013 Y32.278 F1000
G1 X12.244 Y29.616 F1000
G1 X11.859 Y26.600 F1000
G1 X11.811 Y24.958 F1000
G1 X11.859 Y23.324 F1000
G1 X12.244 Y20.317 F1000
G1 X13.013 Y17.662 F1000
G1 X14.168 Y15.357 F1000
G1 X14.889 Y14.336 F1000
G1 X15.694 Y13.421 F1000
G1 X17.507 Y11.958 F1000
G1 X19.589 Y10.983 F1000
G1 X21.941 Y10.495 F1000
G1 X23.218 Y10.434 F1000
G1 X24.493 Y10.495 F1000
G1 X26.839 Y10.983 F1000
G1 X28.913 Y11.958 F1000
G1 X30.717 Y13.421 F1000
G1 X31.516 Y14.336 F1000
G1 X32.234 Y15.357 F1000
G1 X33.383 Y17.662 F1000
G1 X34.149 Y20.317 F1000
G1 X34.532 Y23.324 F1000
G1 X34.580 Y24.958 F1000
G1 X34.532 Y26.600 F1000
G1 X34.149 Y29.616 F1000
G1 X33.383 Y32.278 F1000
G1 X32.234 Y34.584 F1000
G1 X31.516 Y35.603 F1000
G1 X30.717 Y36.520 F1000
G1 X28.913 Y37.986 F1000
G1 X26.839 Y38.963 F1000
G1 X24.493 Y39.451 F1000
G1 X23.218 Y39.513 F1000
G1 X23.218 Y39.513 F1000
G04 P0.5

M03

G04 P0.5
G0 X23.218 Y43.414 F3000
G04 P0.5

M05

G04 P0.5
G1 X25.040 Y43.336 F1000
G1 X28.402 Y42.709 F1000
G1 X31.389 Y41.455 F1000
G1 X34.001 Y39.575 F1000
G1 X35.166 Y38.400 F1000
G1 X36.217 Y37.093 F1000
G1 X37.897 Y34.159 F1000
G1 X39.017 Y30.799 F1000
G1 X39.577 Y27.012 F1000
G1 X39.647 Y24.958 F1000
G1 X39.577 Y22.910 F1000
G1 X39.017 Y19.131 F1000
G1 X37.897 Y15.776 F1000
G1 X36.217 Y12.845 F1000
G1 X35.166 Y11.539 F1000
G1 X34.001 Y10.364 F1000
G1 X31.389 Y8.483 F1000
G1 X28.402 Y7.230 F1000
G1 X25.040 Y6.603 F1000
G1 X23.218 Y6.525 F1000
G1 X21.390 Y6.603 F1000
G1 X18.017 Y7.228 F1000
G1 X15.018 Y8.478 F1000
G1 X12.395 Y10.352 F1000
G1 X11.224 Y11.524 F1000
G1 X10.172 Y12.829 F1000
G1 X8.489 Y15.760 F1000
G1 X7.367 Y19.118 F1000
G1 X6.806 Y22.905 F1000
G1 X6.736 Y24.958 F1000
G1 X6.806 Y27.012 F1000
G1 X7.367 Y30.799 F1000
G1 X8.489 Y34.159 F1000
G1 X10.172 Y37.093 F1000
G1 X11.224 Y38.400 F1000
G1 X12.395 Y39.575 F1000
G1 X15.018 Y41.455 F1000
G1 X18.017 Y42.709 F1000
G1 X21.390 Y43.336 F1000
G1 X23.218 Y43.414 F1000
G1 X23.218 Y43.414 F1000
G04 P0.5

M03

G04 P0.5
G0 X46.981 Y44.275 F3000
G04 P0.5

M05

G04 P0.5
G1 X51.363 Y44.275 F1000
G1 X51.363 Y7.218 F1000
G1 X46.981 Y7.218 F1000
G1 X46.981 Y44.275 F1000
G1 X46.981 Y44.275 F1000
G04 P0.5

M03

G04 P0.5
G0 X60.531 Y33.889 F3000
G04 P0.5

M05

G04 P0.5
G1 X64.913 Y33.889 F1000
G1 X64.913 Y7.218 F1000
G1 X60.531 Y7.218 F1000
G1 X60.531 Y33.889 F1000
G1 X60.531 Y33.889 F1000
G04 P0.5

M03

G04 P0.5
G0 X60.531 Y44.275 F3000
G04 P0.5

M05

G04 P0.5
G1 X64.913 Y44.275 F1000
G1 X64.913 Y38.720 F1000
G1 X60.531 Y38.720 F1000
G1 X60.531 Y44.275 F1000
G1 X60.531 Y44.275 F1000
G04 P0.5

M03

G04 P0.5
G0 X70.941 Y33.889 F3000
G04 P0.5

M05

G04 P0.5
G1 X75.582 Y33.889 F1000
G1 X83.918 Y11.508 F1000
G1 X92.255 Y33.889 F1000
G1 X96.895 Y33.889 F1000
G1 X86.890 Y7.218 F1000
G1 X80.939 Y7.218 F1000
G1 X70.941 Y33.889 F1000
G1 X70.941 Y33.889 F1000
G04 P0.5

M03

G04 P0.5
G0 X125.757 Y21.651 F3000
G04 P0.5

M05

G04 P0.5
G1 X125.757 Y19.510 F1000
G1 X105.609 Y19.510 F1000
G1 X105.715 Y18.412 F1000
G1 X106.128 Y16.418 F1000
G1 X106.810 Y14.694 F1000
G1 X107.761 Y13.240 F1000
G1 X108.337 Y12.613 F1000
G1 X108.977 Y12.058 F1000
G1 X110.436 Y11.169 F1000
G1 X112.135 Y10.577 F1000
G1 X114.075 Y10.281 F1000
G1 X115.134 Y10.244 F1000
G1 X116.386 Y10.282 F1000
G1 X118.832 Y10.591 F1000
G1 X120.026 Y10.861 F1000
G1 X121.209 Y11.208 F1000
G1 X123.564 Y12.138 F1000
G1 X124.736 Y12.720 F1000
G1 X124.736 Y8.575 F1000
G1 X123.547 Y8.105 F1000
G1 X121.128 Y7.343 F1000
G1 X119.897 Y7.051 F1000
G1 X118.654 Y6.821 F1000
G1 X116.143 Y6.558 F1000
G1 X114.875 Y6.525 F1000
G1 X113.320 Y6.583 F1000
G1 X110.460 Y7.047 F1000
G1 X107.932 Y7.974 F1000
G1 X105.736 Y9.366 F1000
G1 X104.763 Y10.236 F1000
G1 X103.890 Y11.207 F1000
G1 X102.493 Y13.393 F1000
G1 X101.561 Y15.908 F1000
G1 X101.095 Y18.750 F1000
G1 X101.037 Y20.294 F1000
G1 X101.092 Y21.889 F1000
G1 X101.534 Y24.823 F1000
G1 X102.418 Y27.420 F1000
G1 X103.744 Y29.678 F1000
G1 X104.573 Y30.681 F1000
G1 X105.495 Y31.583 F1000
G1 X107.572 Y33.026 F1000
G1 X109.957 Y33.988 F1000
G1 X112.651 Y34.469 F1000
G1 X114.113 Y34.529 F1000
G1 X115.423 Y34.475 F1000
G1 X117.832 Y34.041 F1000
G1 X119.960 Y33.175 F1000
G1 X121.807 Y31.874 F1000
G1 X122.625 Y31.062 F1000
G1 X123.359 Y30.158 F1000
G1 X124.533 Y28.117 F1000
G1 X125.316 Y25.764 F1000
G1 X125.708 Y23.100 F1000
G1 X125.757 Y21.651 F1000
G1 X125.757 Y21.651 F1000
G04 P0.5

M03

G04 P0.5
G0 X121.375 Y22.939 F3000
G04 P0.5

M05

G04 P0.5
G1 X121.334 Y23.813 F1000
G1 X121.071 Y25.427 F1000
G1 X120.568 Y26.859 F1000
G1 X119.825 Y28.111 F1000
G1 X119.363 Y28.669 F1000
G1 X118.852 Y29.173 F1000
G1 X117.710 Y29.979 F1000
G1 X116.409 Y30.516 F1000
G1 X114.949 Y30.784 F1000
G1 X114.159 Y30.818 F1000
G1 X113.265 Y30.786 F1000
G1 X111.616 Y30.526 F1000
G1 X110.149 Y30.008 F1000
G1 X108.865 Y29.231 F1000
G1 X108.291 Y28.745 F1000
G1 X107.770 Y28.201 F1000
G1 X106.902 Y26.953 F1000
G1 X106.268 Y25.494 F1000
G1 X105.867 Y23.823 F1000
G1 X105.754 Y22.908 F1000
G1 X121.375 Y22.939 F1000
G1 X121.375 Y22.939 F1000
G04 P0.5

M03

G04 P0.5
G0 X148.400 Y29.797 F3000
G04 P0.5

M05

G04 P0.5
G1 X147.628 Y30.166 F1000
G1 X146.792 Y30.422 F1000
G1 X145.880 Y30.576 F1000
G1 X144.879 Y30.627 F1000
G1 X143.977 Y30.590 F1000
G1 X142.334 Y30.288 F1000
G1 X140.907 Y29.684 F1000
G1 X139.696 Y28.778 F1000
G1 X139.172 Y28.212 F1000
G1 X138.706 Y27.575 F1000
G1 X137.960 Y26.103 F1000
G1 X137.463 Y24.368 F1000
G1 X137.214 Y22.368 F1000
G1 X137.183 Y21.270 F1000
G1 X137.183 Y7.218 F1000
G1 X132.779 Y7.218 F1000
G1 X132.779 Y33.889 F1000
G1 X137.183 Y33.889 F1000
G1 X137.183 Y29.743 F1000
G1 X137.928 Y30.880 F1000
G1 X139.726 Y32.682 F1000
G1 X140.780 Y33.348 F1000
G1 X141.948 Y33.865 F1000
G1 X144.642 Y34.455 F1000
G1 X146.167 Y34.529 F1000
G1 X146.642 Y34.514 F1000
G1 X147.166 Y34.468 F1000
G1 X147.743 Y34.397 F1000
G1 X148.377 Y34.293 F1000
G1 X148.400 Y29.797 F1000
G1 X148.400 Y29.797 F1000
G04 P0.5

M03

G04 P0.5
G0 X0.000 Y0.000 F3000
G04 P0.5

M05

G04 P0.5
G1 X152.400 Y0.000 F1000
G1 X152.400 Y50.800 F1000
G1 X0.000 Y50.800 F1000
G1 X0.000 Y0.000 F1000
G04 P0.5

M03

G04 P0.5
G0 X35.151 Y106.228 F3000
G04 P0.5

M05

G04 P0.5
G1 X39.546 Y106.228 F1000
G1 X39.546 Y75.988 F1000
G1 X39.511 Y74.568 F1000
G1 X39.233 Y72.032 F1000
G1 X38.676 Y69.898 F1000
G1 X37.840 Y68.168 F1000
G1 X37.317 Y67.454 F1000
G1 X36.717 Y66.832 F1000
G1 X35.263 Y65.837 F1000
G1 X33.469 Y65.173 F1000
G1 X31.336 Y64.841 F1000
G1 X30.142 Y64.800 F1000
G1 X28.470 Y64.800 F1000
G1 X28.470 Y68.499 F1000
G1 X29.842 Y68.499 F1000
G1 X30.544 Y68.525 F1000
G1 X31.785 Y68.729 F1000
G1 X32.813 Y69.138 F1000
G1 X33.626 Y69.752 F1000
G1 X33.953 Y70.136 F1000
G1 X34.233 Y70.584 F1000
G1 X34.683 Y71.723 F1000
G1 X35.076 Y74.039 F1000
G1 X35.151 Y75.988 F1000
G1 X35.151 Y106.228 F1000
G1 X35.151 Y106.228 F1000
G04 P0.5

M03

G04 P0.5
G0 X57.571 Y95.298 F3000
G04 P0.5

M05

G04 P0.5
G1 X56.788 Y95.258 F1000
G1 X55.347 Y94.944 F1000
G1 X54.073 Y94.315 F1000
G1 X52.968 Y93.372 F1000
G1 X52.479 Y92.783 F1000
G1 X52.040 Y92.125 F1000
G1 X51.337 Y90.635 F1000
G1 X50.869 Y88.913 F1000
G1 X50.634 Y86.958 F1000
G1 X50.605 Y85.893 F1000
G1 X50.634 Y84.829 F1000
G1 X50.867 Y82.874 F1000
G1 X51.332 Y81.152 F1000
G1 X52.029 Y79.662 F1000
G1 X52.465 Y79.004 F1000
G1 X52.953 Y78.415 F1000
G1 X54.058 Y77.472 F1000
G1 X55.335 Y76.843 F1000
G1 X56.783 Y76.528 F1000
G1 X57.571 Y76.489 F1000
G1 X58.351 Y76.529 F1000
G1 X59.786 Y76.844 F1000
G1 X61.054 Y77.474 F1000
G1 X62.155 Y78.420 F1000
G1 X62.643 Y79.011 F1000
G1 X63.082 Y79.672 F1000
G1 X63.784 Y81.164 F1000
G1 X64.253 Y82.885 F1000
G1 X64.487 Y84.834 F1000
G1 X64.516 Y85.893 F1000
G1 X64.487 Y86.949 F1000
G1 X64.253 Y88.890 F1000
G1 X63.784 Y90.608 F1000
G1 X63.082 Y92.100 F1000
G1 X62.643 Y92.762 F1000
G1 X62.155 Y93.356 F1000
G1 X61.054 Y94.307 F1000
G1 X59.786 Y94.941 F1000
G1 X58.351 Y95.258 F1000
G1 X57.571 Y95.298 F1000
G1 X57.571 Y95.298 F1000
G04 P0.5

M03

G04 P0.5
G0 X57.571 Y98.690 F3000
G04 P0.5

M05

G04 P0.5
G1 X58.842 Y98.637 F1000
G1 X61.174 Y98.212 F1000
G1 X63.226 Y97.362 F1000
G1 X64.997 Y96.088 F1000
G1 X65.777 Y95.291 F1000
G1 X66.478 Y94.402 F1000
G1 X67.598 Y92.379 F1000
G1 X68.346 Y90.030 F1000
G1 X68.719 Y87.354 F1000
G1 X68.766 Y85.893 F1000
G1 X68.719 Y84.438 F1000
G1 X68.346 Y81.767 F1000
G1 X67.598 Y79.418 F1000
G1 X66.478 Y77.390 F1000
G1 X65.777 Y76.496 F1000
G1 X64.997 Y75.698 F1000
G1 X63.226 Y74.420 F1000
G1 X61.174 Y73.569 F1000
G1 X58.842 Y73.143 F1000
G1 X57.571 Y73.090 F1000
G1 X56.295 Y73.143 F1000
G1 X53.956 Y73.569 F1000
G1 X51.901 Y74.420 F1000
G1 X50.130 Y75.698 F1000
G1 X49.351 Y76.496 F1000
G1 X48.656 Y77.390 F1000
G1 X47.543 Y79.418 F1000
G1 X46.801 Y81.767 F1000
G1 X46.430 Y84.438 F1000
G1 X46.384 Y85.893 F1000
G1 X46.430 Y87.354 F1000
G1 X46.801 Y90.030 F1000
G1 X47.543 Y92.379 F1000
G1 X48.656 Y94.402 F1000
G1 X49.351 Y95.291 F1000
G1 X50.130 Y96.088 F1000
G1 X51.901 Y97.362 F1000
G1 X53.956 Y98.212 F1000
G1 X56.295 Y98.637 F1000
G1 X57.571 Y98.690 F1000
G1 X57.571 Y98.690 F1000
G04 P0.5

M03

G04 P0.5
G0 X95.673 Y88.443 F3000
G04 P0.5

M05

G04 P0.5
G1 X95.673 Y73.724 F1000
G1 X91.668 Y73.724 F1000
G1 X91.668 Y88.311 F1000
G1 X91.647 Y89.149 F1000
G1 X91.478 Y90.661 F1000
G1 X91.140 Y91.955 F1000
G1 X90.633 Y93.031 F1000
G1 X90.316 Y93.487 F1000
G1 X89.958 Y93.890 F1000
G1 X89.114 Y94.535 F1000
G1 X88.102 Y94.965 F1000
G1 X86.922 Y95.180 F1000
G1 X86.269 Y95.207 F1000
G1 X85.479 Y95.175 F1000
G1 X84.027 Y94.916 F1000
G1 X82.747 Y94.399 F1000
G1 X81.639 Y93.623 F1000
G1 X81.149 Y93.138 F1000
G1 X80.710 Y92.599 F1000
G1 X80.007 Y91.379 F1000
G1 X79.539 Y89.970 F1000
G1 X79.304 Y88.372 F1000
G1 X79.275 Y87.503 F1000
G1 X79.275 Y73.724 F1000
G1 X75.249 Y73.724 F1000
G1 X75.249 Y107.600 F1000
G1 X79.275 Y107.600 F1000
G1 X79.275 Y94.316 F1000
G1 X80.027 Y95.347 F1000
G1 X81.720 Y96.991 F1000
G1 X82.661 Y97.604 F1000
G1 X83.673 Y98.079 F1000
G1 X85.923 Y98.622 F1000
G1 X87.161 Y98.690 F1000
G1 X88.179 Y98.650 F1000
G1 X90.023 Y98.325 F1000
G1 X91.612 Y97.675 F1000
G1 X92.944 Y96.701 F1000
G1 X93.514 Y96.092 F1000
G1 X94.020 Y95.404 F1000
G1 X94.830 Y93.798 F1000
G1 X95.370 Y91.886 F1000
G1 X95.640 Y89.667 F1000
G1 X95.673 Y88.443 F1000
G1 X95.673 Y88.443 F1000
G04 P0.5

M03

G04 P0.5
G0 X123.930 Y88.443 F3000
G04 P0.5

M05

G04 P0.5
G1 X123.930 Y73.724 F1000
G1 X119.924 Y73.724 F1000
G1 X119.924 Y88.311 F1000
G1 X119.903 Y89.149 F1000
G1 X119.734 Y90.661 F1000
G1 X119.396 Y91.955 F1000
G1 X118.890 Y93.031 F1000
G1 X118.573 Y93.487 F1000
G1 X118.214 Y93.890 F1000
G1 X117.370 Y94.535 F1000
G1 X116.358 Y94.965 F1000
G1 X115.179 Y95.180 F1000
G1 X114.526 Y95.207 F1000
G1 X113.735 Y95.175 F1000
G1 X112.284 Y94.916 F1000
G1 X111.004 Y94.399 F1000
G1 X109.895 Y93.623 F1000
G1 X109.405 Y93.138 F1000
G1 X108.966 Y92.599 F1000
G1 X108.264 Y91.379 F1000
G1 X107.795 Y89.970 F1000
G1 X107.561 Y88.372 F1000
G1 X107.532 Y87.503 F1000
G1 X107.532 Y73.724 F1000
G1 X103.505 Y73.724 F1000
G1 X103.505 Y98.105 F1000
G1 X107.532 Y98.105 F1000
G1 X107.532 Y94.316 F1000
G1 X108.284 Y95.347 F1000
G1 X109.977 Y96.991 F1000
G1 X110.917 Y97.604 F1000
G1 X111.930 Y98.079 F1000
G1 X114.180 Y98.622 F1000
G1 X115.417 Y98.690 F1000
G1 X116.435 Y98.650 F1000
G1 X118.280 Y98.325 F1000
G1 X119.868 Y97.675 F1000
G1 X121.200 Y96.701 F1000
G1 X121.770 Y96.092 F1000
G1 X122.276 Y95.404 F1000
G1 X123.086 Y93.798 F1000
G1 X123.626 Y91.886 F1000
G1 X123.896 Y89.667 F1000
G1 X123.930 Y88.443 F1000
G1 X123.930 Y88.443 F1000
G04 P0.5

M03

G04 P0.5
G0 X0.000 Y60.800 F3000
G04 P0.5

M05

G04 P0.5
G1 X152.400 Y60.800 F1000
G1 X152.400 Y111.600 F1000
G1 X0.000 Y111.600 F1000
G1 X0.000 Y60.800 F1000
G04 P0.5

M03

G04 P0.5
G0 X9.739 Y164.206 F3000
G04 P0.5

M05

G04 P0.5
G1 X13.516 Y164.206 F1000
G1 X13.516 Y138.226 F1000
G1 X13.486 Y137.007 F1000
G1 X13.246 Y134.828 F1000
G1 X12.768 Y132.995 F1000
G1 X12.049 Y131.509 F1000
G1 X11.601 Y130.895 F1000
G1 X11.085 Y130.361 F1000
G1 X9.836 Y129.506 F1000
G1 X8.295 Y128.936 F1000
G1 X6.462 Y128.651 F1000
G1 X5.436 Y128.615 F1000
G1 X4.000 Y128.615 F1000
G1 X4.000 Y131.793 F1000
G1 X5.179 Y131.793 F1000
G1 X5.781 Y131.815 F1000
G1 X6.848 Y131.991 F1000
G1 X7.731 Y132.342 F1000
G1 X8.430 Y132.870 F1000
G1 X8.710 Y133.199 F1000
G1 X8.951 Y133.584 F1000
G1 X9.337 Y134.563 F1000
G1 X9.675 Y136.552 F1000
G1 X9.739 Y138.226 F1000
G1 X9.739 Y164.206 F1000
G1 X9.739 Y164.206 F1000
G04 P0.5

M03

G04 P0.5
G0 X30.407 Y146.808 F3000
G04 P0.5

M05

G04 P0.5
G1 X28.482 Y146.749 F1000
G1 X26.194 Y146.437 F1000
G1 X25.069 Y146.080 F1000
G1 X24.626 Y145.857 F1000
G1 X24.249 Y145.598 F1000
G1 X23.645 Y144.953 F1000
G1 X23.243 Y144.139 F1000
G1 X23.041 Y143.156 F1000
G1 X23.016 Y142.601 F1000
G1 X23.035 Y142.155 F1000
G1 X23.186 Y141.334 F1000
G1 X23.488 Y140.607 F1000
G1 X23.942 Y139.974 F1000
G1 X24.225 Y139.693 F1000
G1 X24.541 Y139.442 F1000
G1 X25.253 Y139.040 F1000
G1 X26.523 Y138.688 F1000
G1 X27.505 Y138.621 F1000
G1 X28.204 Y138.653 F1000
G1 X29.495 Y138.907 F1000
G1 X30.644 Y139.414 F1000
G1 X31.651 Y140.175 F1000
G1 X32.101 Y140.650 F1000
G1 X32.506 Y141.178 F1000
G1 X33.155 Y142.360 F1000
G1 X33.587 Y143.708 F1000
G1 X33.803 Y145.222 F1000
G1 X33.831 Y146.042 F1000
G1 X33.831 Y146.808 F1000
G1 X30.407 Y146.808 F1000
G1 X30.407 Y146.808 F1000
G04 P0.5

M03

G04 P0.5
G0 X37.272 Y148.233 F3000
G04 P0.5

M05

G04 P0.5
G1 X37.272 Y136.281 F1000
G1 X33.831 Y136.281 F1000
G1 X33.831 Y139.459 F1000
G1 X33.205 Y138.570 F1000
G1 X31.736 Y137.163 F1000
G1 X30.892 Y136.647 F1000
G1 X29.963 Y136.249 F1000
G1 X27.812 Y135.794 F1000
G1 X26.589 Y135.737 F1000
G1 X25.806 Y135.765 F1000
G1 X24.363 Y135.991 F1000
G1 X23.084 Y136.443 F1000
G1 X21.968 Y137.121 F1000
G1 X21.472 Y137.544 F1000
G1 X21.028 Y138.015 F1000
G1 X20.316 Y139.071 F1000
G1 X19.842 Y140.280 F1000
G1 X19.605 Y141.642 F1000
G1 X19.575 Y142.380 F1000
G1 X19.612 Y143.235 F1000
G1 X19.907 Y144.784 F1000
G1 X20.498 Y146.116 F1000
G1 X21.385 Y147.230 F1000
G1 X21.939 Y147.706 F1000
G1 X22.568 Y148.127 F1000
G1 X24.043 Y148.800 F1000
G1 X25.808 Y149.249 F1000
G1 X27.864 Y149.474 F1000
G1 X29.001 Y149.502 F1000
G1 X33.831 Y149.502 F1000
G1 X33.831 Y149.843 F1000
G1 X33.806 Y150.420 F1000
G1 X33.611 Y151.473 F1000
G1 X33.220 Y152.392 F1000
G1 X32.635 Y153.176 F1000
G1 X32.269 Y153.517 F1000
G1 X31.858 Y153.822 F1000
G1 X30.919 Y154.309 F1000
G1 X29.823 Y154.633 F1000
G1 X28.568 Y154.796 F1000
G1 X27.882 Y154.816 F1000
G1 X26.990 Y154.789 F1000
G1 X25.239 Y154.574 F1000
G1 X24.381 Y154.385 F1000
G1 X23.539 Y154.143 F1000
G1 X21.905 Y153.496 F1000
G1 X21.113 Y153.092 F1000
G1 X21.113 Y156.276 F1000
G1 X22.049 Y156.618 F1000
G1 X23.880 Y157.163 F1000
G1 X24.776 Y157.365 F1000
G1 X25.658 Y157.525 F1000
G1 X27.388 Y157.708 F1000
G1 X28.235 Y157.730 F1000
G1 X29.336 Y157.694 F1000
G1 X31.322 Y157.399 F1000
G1 X33.020 Y156.809 F1000
G1 X34.430 Y155.925 F1000
G1 X35.027 Y155.373 F1000
G1 X35.553 Y154.746 F1000
G1 X36.395 Y153.266 F1000
G1 X36.956 Y151.481 F1000
G1 X37.237 Y149.392 F1000
G1 X37.272 Y148.233 F1000
G1 X37.272 Y148.233 F1000
G04 P0.5

M03

G04 P0.5
G0 X59.432 Y156.426 F3000
G04 P0.5

M05

G04 P0.5
G1 X59.432 Y153.206 F1000
G1 X58.702 Y153.585 F1000
G1 X57.238 Y154.189 F1000
G1 X56.506 Y154.415 F1000
G1 X55.771 Y154.590 F1000
G1 X54.289 Y154.791 F1000
G1 X53.543 Y154.816 F1000
G1 X52.729 Y154.783 F1000
G1 X51.240 Y154.517 F1000
G1 X49.938 Y153.986 F1000
G1 X48.824 Y153.189 F1000
G1 X48.337 Y152.691 F1000
G1 X47.903 Y152.135 F1000
G1 X47.210 Y150.861 F1000
G1 X46.747 Y149.372 F1000
G1 X46.516 Y147.669 F1000
G1 X46.487 Y146.737 F1000
G1 X46.516 Y145.804 F1000
G1 X46.747 Y144.100 F1000
G1 X47.210 Y142.610 F1000
G1 X47.903 Y141.334 F1000
G1 X48.337 Y140.776 F1000
G1 X48.824 Y140.279 F1000
G1 X49.938 Y139.485 F1000
G1 X51.240 Y138.955 F1000
G1 X52.729 Y138.690 F1000
G1 X53.543 Y138.657 F1000
G1 X54.289 Y138.682 F1000
G1 X55.771 Y138.883 F1000
G1 X56.506 Y139.058 F1000
G1 X57.238 Y139.284 F1000
G1 X58.702 Y139.889 F1000
G1 X59.432 Y140.267 F1000
G1 X59.432 Y137.083 F1000
G1 X58.705 Y136.769 F1000
G1 X57.211 Y136.267 F1000
G1 X56.446 Y136.078 F1000
G1 X55.664 Y135.929 F1000
G1 X54.024 Y135.758 F1000
G1 X53.166 Y135.737 F1000
G1 X52.013 Y135.783 F1000
G1 X49.889 Y136.155 F1000
G1 X48.009 Y136.899 F1000
G1 X46.371 Y138.014 F1000
G1 X45.643 Y138.711 F1000
G1 X44.991 Y139.487 F1000
G1 X43.948 Y141.234 F1000
G1 X43.252 Y143.240 F1000
G1 X42.904 Y145.506 F1000
G1 X42.861 Y146.737 F1000
G1 X42.905 Y147.983 F1000
G1 X43.256 Y150.271 F1000
G1 X43.959 Y152.285 F1000
G1 X45.014 Y154.025 F1000
G1 X45.673 Y154.792 F1000
G1 X46.411 Y155.481 F1000
G1 X48.080 Y156.583 F1000
G1 X50.010 Y157.317 F1000
G1 X52.201 Y157.685 F1000
G1 X53.394 Y157.730 F1000
G1 X54.182 Y157.710 F1000
G1 X55.732 Y157.545 F1000
G1 X56.494 Y157.401 F1000
G1 X57.245 Y157.219 F1000
G1 X58.714 Y156.731 F1000
G1 X59.432 Y156.426 F1000
G1 X59.432 Y156.426 F1000
G04 P0.5

M03

G04 P0.5
G0 X65.284 Y165.385 F3000
G04 P0.5

M05

G04 P0.5
G1 X68.743 Y165.385 F1000
G1 X68.743 Y148.197 F1000
G1 X79.012 Y157.228 F1000
G1 X83.405 Y157.228 F1000
G1 X72.298 Y147.431 F1000
G1 X83.878 Y136.281 F1000
G1 X79.389 Y136.281 F1000
G1 X68.743 Y146.509 F1000
G1 X68.743 Y136.281 F1000
G1 X65.284 Y136.281 F1000
G1 X65.284 Y165.385 F1000
G1 X65.284 Y165.385 F1000
G04 P0.5

M03

G04 P0.5
G0 X100.948 Y156.611 F3000
G04 P0.5

M05

G04 P0.5
G1 X100.948 Y153.356 F1000
G1 X100.213 Y153.706 F1000
G1 X98.699 Y154.266 F1000
G1 X97.919 Y154.475 F1000
G1 X97.128 Y154.640 F1000
G1 X95.500 Y154.828 F1000
G1 X94.664 Y154.852 F1000
G1 X93.463 Y154.803 F1000
G1 X91.542 Y154.411 F1000
G1 X90.822 Y154.068 F1000
G1 X90.521 Y153.860 F1000
G1 X90.041 Y153.369 F1000
G1 X89.721 Y152.779 F1000
G1 X89.561 Y152.091 F1000
G1 X89.541 Y151.710 F1000
G1 X89.598 Y151.144 F1000
G1 X90.056 Y150.204 F1000
G1 X90.457 Y149.831 F1000
G1 X91.030 Y149.494 F1000
G1 X92.874 Y148.844 F1000
G1 X94.143 Y148.532 F1000
G1 X95.322 Y148.269 F1000
G1 X97.021 Y147.836 F1000
G1 X99.073 Y147.036 F1000
G1 X100.110 Y146.402 F1000
G1 X100.529 Y146.054 F1000
G1 X100.891 Y145.679 F1000
G1 X101.470 Y144.823 F1000
G1 X101.856 Y143.825 F1000
G1 X102.049 Y142.685 F1000
G1 X102.073 Y142.063 F1000
G1 X102.037 Y141.352 F1000
G1 X101.748 Y140.043 F1000
G1 X101.170 Y138.887 F1000
G1 X100.304 Y137.882 F1000
G1 X99.763 Y137.437 F1000
G1 X99.158 Y137.038 F1000
G1 X97.787 Y136.401 F1000
G1 X96.200 Y135.976 F1000
G1 X94.396 Y135.763 F1000
G1 X93.413 Y135.737 F1000
G1 X91.695 Y135.819 F1000
G1 X89.906 Y136.066 F1000
G1 X88.033 Y136.476 F1000
G1 X86.064 Y137.048 F1000
G1 X86.064 Y140.602 F1000
G1 X87.015 Y140.137 F1000
G1 X88.894 Y139.392 F1000
G1 X89.822 Y139.112 F1000
G1 X90.745 Y138.898 F1000
G1 X92.579 Y138.652 F1000
G1 X93.491 Y138.621 F1000
G1 X94.635 Y138.673 F1000
G1 X96.503 Y139.089 F1000
G1 X97.225 Y139.453 F1000
G1 X97.532 Y139.672 F1000
G1 X98.024 Y140.173 F1000
G1 X98.352 Y140.760 F1000
G1 X98.515 Y141.431 F1000
G1 X98.536 Y141.799 F1000
G1 X98.477 Y142.459 F1000
G1 X98.004 Y143.533 F1000
G1 X97.590 Y143.948 F1000
G1 X96.979 Y144.319 F1000
G1 X94.908 Y145.040 F1000
G1 X93.449 Y145.390 F1000
G1 X92.252 Y145.671 F1000
G1 X90.765 Y146.052 F1000
G1 X88.949 Y146.792 F1000
G1 X88.016 Y147.399 F1000
G1 X87.632 Y147.736 F1000
G1 X87.299 Y148.101 F1000
G1 X86.767 Y148.928 F1000
G1 X86.413 Y149.884 F1000
G1 X86.236 Y150.969 F1000
G1 X86.213 Y151.560 F1000
G1 X86.246 Y152.278 F1000
G1 X86.508 Y153.587 F1000
G1 X87.032 Y154.727 F1000
G1 X87.817 Y155.699 F1000
G1 X88.308 Y156.121 F1000
G1 X88.859 Y156.498 F1000
G1 X90.126 Y157.102 F1000
G1 X91.614 Y157.504 F1000
G1 X93.321 Y157.705 F1000
G1 X94.257 Y157.730 F1000
G1 X96.105 Y157.660 F1000
G1 X97.842 Y157.449 F1000
G1 X98.669 Y157.294 F1000
G1 X100.222 Y156.875 F1000
G1 X100.948 Y156.611 F1000
G1 X100.948 Y156.611 F1000
G04 P0.5

M03

G04 P0.5
G0 X115.666 Y154.816 F3000
G04 P0.5

M05

G04 P0.5
G1 X114.993 Y154.782 F1000
G1 X113.755 Y154.512 F1000
G1 X112.661 Y153.972 F1000
G1 X111.712 Y153.162 F1000
G1 X111.291 Y152.655 F1000
G1 X110.914 Y152.090 F1000
G1 X110.310 Y150.810 F1000
G1 X109.908 Y149.331 F1000
G1 X109.707 Y147.651 F1000
G1 X109.682 Y146.737 F1000
G1 X109.706 Y145.822 F1000
G1 X109.906 Y144.143 F1000
G1 X110.306 Y142.663 F1000
G1 X110.905 Y141.383 F1000
G1 X111.279 Y140.818 F1000
G1 X111.699 Y140.311 F1000
G1 X112.648 Y139.501 F1000
G1 X113.745 Y138.961 F1000
G1 X114.989 Y138.691 F1000
G1 X115.666 Y138.657 F1000
G1 X116.336 Y138.691 F1000
G1 X117.569 Y138.962 F1000
G1 X118.659 Y139.504 F1000
G1 X119.604 Y140.316 F1000
G1 X120.023 Y140.824 F1000
G1 X120.400 Y141.391 F1000
G1 X121.004 Y142.674 F1000
G1 X121.406 Y144.152 F1000
G1 X121.608 Y145.826 F1000
G1 X121.633 Y146.737 F1000
G1 X121.608 Y147.643 F1000
G1 X121.406 Y149.311 F1000
G1 X121.004 Y150.787 F1000
G1 X120.400 Y152.069 F1000
G1 X120.023 Y152.638 F1000
G1 X119.604 Y153.148 F1000
G1 X118.659 Y153.965 F1000
G1 X117.569 Y154.510 F1000
G1 X116.336 Y154.782 F1000
G1 X115.666 Y154.816 F1000
G1 X115.666 Y154.816 F1000
G04 P0.5

M03

G04 P0.5
G0 X115.666 Y157.730 F3000
G04 P0.5

M05

G04 P0.5
G1 X116.758 Y157.685 F1000
G1 X118.762 Y157.320 F1000
G1 X120.524 Y156.590 F1000
G1 X122.046 Y155.494 F1000
G1 X122.716 Y154.810 F1000
G1 X123.318 Y154.046 F1000
G1 X124.281 Y152.308 F1000
G1 X124.922 Y150.290 F1000
G1 X125.243 Y147.991 F1000
G1 X125.284 Y146.737 F1000
G1 X125.243 Y145.486 F1000
G1 X124.922 Y143.192 F1000
G1 X124.281 Y141.173 F1000
G1 X123.318 Y139.431 F1000
G1 X122.716 Y138.663 F1000
G1 X122.046 Y137.977 F1000
G1 X120.524 Y136.880 F1000
G1 X118.762 Y136.148 F1000
G1 X116.758 Y135.783 F1000
G1 X115.666 Y135.737 F1000
G1 X114.570 Y135.783 F1000
G1 X112.561 Y136.148 F1000
G1 X110.795 Y136.880 F1000
G1 X109.274 Y137.977 F1000
G1 X108.604 Y138.663 F1000
G1 X108.007 Y139.431 F1000
G1 X107.051 Y141.173 F1000
G1 X106.413 Y143.192 F1000
G1 X106.095 Y145.486 F1000
G1 X106.055 Y146.737 F1000
G1 X106.095 Y147.991 F1000
G1 X106.413 Y150.290 F1000
G1 X107.051 Y152.308 F1000
G1 X108.007 Y154.046 F1000
G1 X108.604 Y154.810 F1000
G1 X109.274 Y155.494 F1000
G1 X110.795 Y156.590 F1000
G1 X112.561 Y157.320 F1000
G1 X114.570 Y157.685 F1000
G1 X115.666 Y157.730 F1000
G1 X115.666 Y157.730 F1000
G04 P0.5

M03

G04 P0.5
G0 X148.400 Y148.927 F3000
G04 P0.5

M05

G04 P0.5
G1 X148.400 Y136.281 F1000
G1 X144.959 Y136.281 F1000
G1 X144.959 Y148.813 F1000
G1 X144.941 Y149.533 F1000
G1 X144.796 Y150.833 F1000
G1 X144.505 Y151.945 F1000
G1 X144.070 Y152.868 F1000
G1 X143.798 Y153.260 F1000
G1 X143.489 Y153.606 F1000
G1 X142.765 Y154.161 F1000
G1 X141.895 Y154.530 F1000
G1 X140.882 Y154.715 F1000
G1 X140.321 Y154.738 F1000
G1 X139.642 Y154.710 F1000
G1 X138.395 Y154.488 F1000
G1 X137.295 Y154.044 F1000
G1 X136.343 Y153.377 F1000
G1 X135.922 Y152.961 F1000
G1 X135.545 Y152.498 F1000
G1 X134.941 Y151.449 F1000
G1 X134.539 Y150.239 F1000
G1 X134.337 Y148.866 F1000
G1 X134.312 Y148.119 F1000
G1 X134.312 Y136.281 F1000
G1 X130.853 Y136.281 F1000
G1 X130.853 Y157.228 F1000
G1 X134.312 Y157.228 F1000
G1 X134.312 Y153.972 F1000
G1 X134.958 Y154.858 F1000
G1 X136.413 Y156.270 F1000
G1 X137.221 Y156.797 F1000
G1 X138.091 Y157.205 F1000
G1 X140.024 Y157.672 F1000
G1 X141.087 Y157.730 F1000
G1 X141.961 Y157.696 F1000
G1 X143.546 Y157.417 F1000
G1 X144.910 Y156.859 F1000
G1 X146.055 Y156.021 F1000
G1 X146.545 Y155.498 F1000
G1 X146.980 Y154.907 F1000
G1 X147.675 Y153.528 F1000
G1 X148.139 Y151.885 F1000
G1 X148.371 Y149.979 F1000
G1 X148.400 Y148.927 F1000
G1 X148.400 Y148.927 F1000
G04 P0.5

M03

G04 P0.5
G0 X0.000 Y121.600 F3000
G04 P0.5

M05

G04 P0.5
G1 X152.400 Y121.600 F1000
G1 X152.400 Y172.400 F1000
G1 X0.000 Y172.400 F1000
G1 X0.000 Y121.600 F1000
G04 P0.5

M03

G04 P0.5
G0 X25.103 Y202.019 F3000
G04 P0.5

M05

G04 P0.5
G1 X25.103 Y208.961 F1000
G1 X19.391 Y208.961 F1000
G1 X19.391 Y211.836 F1000
G1 X28.566 Y211.836 F1000
G1 X28.566 Y200.733 F1000
G1 X27.529 Y200.059 F1000
G1 X25.296 Y198.973 F1000
G1 X24.101 Y198.561 F1000
G1 X22.861 Y198.239 F1000
G1 X20.257 Y197.871 F1000
G1 X18.893 Y197.824 F1000
G1 X17.419 Y197.880 F1000
G1 X14.718 Y198.322 F1000
G1 X12.346 Y199.207 F1000
G1 X10.305 Y200.535 F1000
G1 X9.407 Y201.365 F1000
G1 X8.606 Y202.295 F1000
G1 X7.324 Y204.414 F1000
G1 X6.470 Y206.879 F1000
G1 X6.042 Y209.691 F1000
G1 X5.989 Y211.227 F1000
G1 X6.042 Y212.768 F1000
G1 X6.470 Y215.587 F1000
G1 X7.324 Y218.057 F1000
G1 X8.606 Y220.177 F1000
G1 X9.407 Y221.105 F1000
G1 X10.305 Y221.935 F1000
G1 X12.346 Y223.263 F1000
G1 X14.718 Y224.148 F1000
G1 X17.419 Y224.590 F1000
G1 X18.893 Y224.646 F1000
G1 X20.140 Y224.607 F1000
G1 X22.542 Y224.293 F1000
G1 X23.696 Y224.020 F1000
G1 X24.813 Y223.672 F1000
G1 X26.912 Y222.755 F1000
G1 X27.896 Y222.186 F1000
G1 X27.896 Y218.463 F1000
G1 X26.911 Y219.234 F1000
G1 X24.850 Y220.473 F1000
G1 X23.774 Y220.939 F1000
G1 X22.668 Y221.303 F1000
G1 X20.375 Y221.718 F1000
G1 X19.186 Y221.770 F1000
G1 X18.036 Y221.729 F1000
G1 X15.958 Y221.398 F1000
G1 X14.175 Y220.736 F1000
G1 X12.688 Y219.743 F1000
G1 X12.056 Y219.122 F1000
G1 X11.499 Y218.419 F1000
G1 X10.607 Y216.770 F1000
G1 X10.013 Y214.796 F1000
G1 X9.716 Y212.498 F1000
G1 X9.679 Y211.227 F1000
G1 X9.716 Y209.960 F1000
G1 X10.013 Y207.667 F1000
G1 X10.607 Y205.698 F1000
G1 X11.499 Y204.051 F1000
G1 X12.056 Y203.348 F1000
G1 X12.688 Y202.728 F1000
G1 X14.175 Y201.734 F1000
G1 X15.958 Y201.072 F1000
G1 X18.036 Y200.741 F1000
G1 X19.186 Y200.700 F1000
G1 X20.087 Y200.720 F1000
G1 X21.738 Y200.881 F1000
G1 X22.488 Y201.021 F1000
G1 X23.198 Y201.204 F1000
G1 X24.506 Y201.703 F1000
G1 X25.103 Y202.019 F1000
G1 X25.103 Y202.019 F1000
G04 P0.5

M03

G04 P0.5
G0 X46.054 Y214.745 F3000
G04 P0.5

M05

G04 P0.5
G1 X45.493 Y215.014 F1000
G1 X44.885 Y215.199 F1000
G1 X44.221 Y215.311 F1000
G1 X43.494 Y215.349 F1000
G1 X42.838 Y215.321 F1000
G1 X41.643 Y215.102 F1000
G1 X40.606 Y214.663 F1000
G1 X39.726 Y214.004 F1000
G1 X39.344 Y213.593 F1000
G1 X39.006 Y213.129 F1000
G1 X38.463 Y212.059 F1000
G1 X38.102 Y210.798 F1000
G1 X37.921 Y209.344 F1000
G1 X37.898 Y208.545 F1000
G1 X37.898 Y198.329 F1000
G1 X34.696 Y198.329 F1000
G1 X34.696 Y217.720 F1000
G1 X37.898 Y217.720 F1000
G1 X37.898 Y214.706 F1000
G1 X38.440 Y215.533 F1000
G1 X39.747 Y216.843 F1000
G1 X40.513 Y217.327 F1000
G1 X41.363 Y217.702 F1000
G1 X43.321 Y218.132 F1000
G1 X44.431 Y218.186 F1000
G1 X44.775 Y218.174 F1000
G1 X45.156 Y218.141 F1000
G1 X45.576 Y218.090 F1000
G1 X46.037 Y218.014 F1000
G1 X46.054 Y214.745 F1000
G1 X46.054 Y214.745 F1000
G04 P0.5

M03

G04 P0.5
G0 X58.211 Y208.074 F3000
G04 P0.5

M05

G04 P0.5
G1 X56.428 Y208.019 F1000
G1 X54.310 Y207.730 F1000
G1 X53.269 Y207.400 F1000
G1 X52.859 Y207.193 F1000
G1 X52.510 Y206.954 F1000
G1 X51.951 Y206.357 F1000
G1 X51.578 Y205.603 F1000
G1 X51.392 Y204.693 F1000
G1 X51.369 Y204.179 F1000
G1 X51.386 Y203.766 F1000
G1 X51.526 Y203.006 F1000
G1 X51.806 Y202.333 F1000
G1 X52.225 Y201.747 F1000
G1 X52.488 Y201.487 F1000
G1 X52.780 Y201.254 F1000
G1 X53.439 Y200.882 F1000
G1 X54.615 Y200.557 F1000
G1 X55.524 Y200.495 F1000
G1 X56.171 Y200.524 F1000
G1 X57.366 Y200.759 F1000
G1 X58.430 Y201.229 F1000
G1 X59.362 Y201.933 F1000
G1 X59.779 Y202.373 F1000
G1 X60.154 Y202.862 F1000
G1 X60.755 Y203.956 F1000
G1 X61.155 Y205.204 F1000
G1 X61.355 Y206.606 F1000
G1 X61.380 Y207.365 F1000
G1 X61.380 Y208.074 F1000
G1 X58.211 Y208.074 F1000
G1 X58.211 Y208.074 F1000
G04 P0.5

M03

G04 P0.5
G0 X64.566 Y209.393 F3000
G04 P0.5

M05

G04 P0.5
G1 X64.566 Y198.329 F1000
G1 X61.380 Y198.329 F1000
G1 X61.380 Y201.271 F1000
G1 X60.801 Y200.447 F1000
G1 X59.441 Y199.145 F1000
G1 X58.660 Y198.667 F1000
G1 X57.800 Y198.298 F1000
G1 X55.808 Y197.877 F1000
G1 X54.676 Y197.824 F1000
G1 X53.951 Y197.851 F1000
G1 X52.615 Y198.060 F1000
G1 X51.431 Y198.478 F1000
G1 X50.399 Y199.106 F1000
G1 X49.939 Y199.498 F1000
G1 X49.527 Y199.934 F1000
G1 X48.869 Y200.912 F1000
G1 X48.430 Y202.031 F1000
G1 X48.210 Y203.291 F1000
G1 X48.183 Y203.974 F1000
G1 X48.217 Y204.766 F1000
G1 X48.491 Y206.200 F1000
G1 X49.038 Y207.433 F1000
G1 X49.858 Y208.465 F1000
G1 X50.371 Y208.905 F1000
G1 X50.953 Y209.295 F1000
G1 X52.319 Y209.918 F1000
G1 X53.953 Y210.334 F1000
G1 X55.857 Y210.541 F1000
G1 X56.909 Y210.567 F1000
G1 X61.380 Y210.567 F1000
G1 X61.380 Y210.883 F1000
G1 X61.357 Y211.418 F1000
G1 X61.177 Y212.393 F1000
G1 X60.815 Y213.243 F1000
G1 X60.273 Y213.969 F1000
G1 X59.934 Y214.285 F1000
G1 X59.554 Y214.567 F1000
G1 X58.685 Y215.018 F1000
G1 X57.670 Y215.318 F1000
G1 X56.508 Y215.469 F1000
G1 X55.873 Y215.487 F1000
G1 X55.047 Y215.462 F1000
G1 X53.426 Y215.263 F1000
G1 X52.632 Y215.088 F1000
G1 X51.853 Y214.864 F1000
G1 X50.340 Y214.266 F1000
G1 X49.607 Y213.892 F1000
G1 X49.607 Y216.839 F1000
G1 X50.473 Y217.156 F1000
G1 X52.168 Y217.660 F1000
G1 X52.997 Y217.848 F1000
G1 X53.815 Y217.995 F1000
G1 X55.416 Y218.164 F1000
G1 X56.200 Y218.186 F1000
G1 X57.219 Y218.151 F1000
G1 X59.058 Y217.879 F1000
G1 X60.630 Y217.333 F1000
G1 X61.935 Y216.514 F1000
G1 X62.488 Y216.003 F1000
G1 X62.975 Y215.423 F1000
G1 X63.754 Y214.052 F1000
G1 X64.274 Y212.400 F1000
G1 X64.533 Y210.466 F1000
G1 X64.566 Y209.393 F1000
G1 X64.566 Y209.393 F1000
G04 P0.5

M03

G04 P0.5
G0 X79.192 Y196.528 F3000
G04 P0.5

M05

G04 P0.5
G1 X78.522 Y194.947 F1000
G1 X77.533 Y193.141 F1000
G1 X76.882 Y192.313 F1000
G1 X76.560 Y192.013 F1000
G1 X76.227 Y191.765 F1000
G1 X75.479 Y191.368 F1000
G1 X74.154 Y191.020 F1000
G1 X73.136 Y190.954 F1000
G1 X70.588 Y190.954 F1000
G1 X70.588 Y193.619 F1000
G1 X72.460 Y193.619 F1000
G1 X73.080 Y193.658 F1000
G1 X74.099 Y193.971 F1000
G1 X74.499 Y194.245 F1000
G1 X74.874 Y194.662 F1000
G1 X75.680 Y196.133 F1000
G1 X76.111 Y197.187 F1000
G1 X76.682 Y198.639 F1000
G1 X68.842 Y217.720 F1000
G1 X72.216 Y217.720 F1000
G1 X78.278 Y202.556 F1000
G1 X84.339 Y217.720 F1000
G1 X87.713 Y217.720 F1000
G1 X79.192 Y196.528 F1000
G1 X79.192 Y196.528 F1000
G04 P0.5

M03

G04 P0.5
G0 X104.470 Y217.149 F3000
G04 P0.5

M05

G04 P0.5
G1 X104.470 Y214.135 F1000
G1 X103.790 Y214.460 F1000
G1 X102.388 Y214.978 F1000
G1 X101.667 Y215.172 F1000
G1 X100.934 Y215.324 F1000
G1 X99.427 Y215.499 F1000
G1 X98.653 Y215.521 F1000
G1 X97.541 Y215.475 F1000
G1 X95.763 Y215.112 F1000
G1 X95.096 Y214.795 F1000
G1 X94.818 Y214.602 F1000
G1 X94.373 Y214.148 F1000
G1 X94.077 Y213.602 F1000
G1 X93.928 Y212.965 F1000
G1 X93.910 Y212.612 F1000
G1 X93.963 Y212.088 F1000
G1 X94.387 Y211.218 F1000
G1 X94.758 Y210.872 F1000
G1 X95.289 Y210.560 F1000
G1 X96.995 Y209.959 F1000
G1 X98.171 Y209.670 F1000
G1 X99.262 Y209.426 F1000
G1 X100.835 Y209.026 F1000
G1 X102.734 Y208.285 F1000
G1 X103.694 Y207.698 F1000
G1 X104.082 Y207.376 F1000
G1 X104.417 Y207.029 F1000
G1 X104.953 Y206.236 F1000
G1 X105.311 Y205.312 F1000
G1 X105.489 Y204.257 F1000
G1 X105.512 Y203.681 F1000
G1 X105.478 Y203.022 F1000
G1 X105.211 Y201.811 F1000
G1 X104.676 Y200.740 F1000
G1 X103.874 Y199.810 F1000
G1 X103.373 Y199.398 F1000
G1 X102.813 Y199.029 F1000
G1 X101.544 Y198.439 F1000
G1 X100.074 Y198.046 F1000
G1 X98.405 Y197.849 F1000
G1 X97.495 Y197.824 F1000
G1 X95.905 Y197.901 F1000
G1 X94.248 Y198.129 F1000
G1 X92.514 Y198.509 F1000
G1 X90.691 Y199.038 F1000
G1 X90.691 Y202.329 F1000
G1 X91.571 Y201.898 F1000
G1 X93.311 Y201.208 F1000
G1 X94.170 Y200.949 F1000
G1 X95.025 Y200.751 F1000
G1 X96.723 Y200.523 F1000
G1 X97.567 Y200.495 F1000
G1 X98.626 Y200.543 F1000
G1 X100.355 Y200.928 F1000
G1 X101.024 Y201.265 F1000
G1 X101.308 Y201.467 F1000
G1 X101.763 Y201.931 F1000
G1 X102.067 Y202.474 F1000
G1 X102.218 Y203.096 F1000
G1 X102.237 Y203.437 F1000
G1 X102.182 Y204.047 F1000
G1 X101.745 Y205.042 F1000
G1 X101.362 Y205.426 F1000
G1 X100.796 Y205.769 F1000
G1 X98.879 Y206.437 F1000
G1 X97.528 Y206.761 F1000
G1 X96.420 Y207.022 F1000
G1 X95.043 Y207.374 F1000
G1 X93.362 Y208.059 F1000
G1 X92.498 Y208.621 F1000
G1 X92.143 Y208.933 F1000
G1 X91.835 Y209.271 F1000
G1 X91.342 Y210.036 F1000
G1 X91.014 Y210.921 F1000
G1 X90.850 Y211.926 F1000
G1 X90.829 Y212.473 F1000
G1 X90.860 Y213.138 F1000
G1 X91.102 Y214.350 F1000
G1 X91.587 Y215.405 F1000
G1 X92.314 Y216.304 F1000
G1 X92.769 Y216.695 F1000
G1 X93.279 Y217.044 F1000
G1 X94.452 Y217.603 F1000
G1 X95.829 Y217.976 F1000
G1 X97.409 Y218.162 F1000
G1 X98.276 Y218.186 F1000
G1 X99.986 Y218.120 F1000
G1 X101.595 Y217.925 F1000
G1 X102.360 Y217.781 F1000
G1 X103.798 Y217.393 F1000
G1 X104.470 Y217.149 F1000
G1 X104.470 Y217.149 F1000
G04 P0.5

M03

G04 P0.5
G0 X118.096 Y215.487 F3000
G04 P0.5

M05

G04 P0.5
G1 X117.473 Y215.456 F1000
G1 X116.327 Y215.206 F1000
G1 X115.314 Y214.706 F1000
G1 X114.435 Y213.956 F1000
G1 X114.046 Y213.487 F1000
G1 X113.697 Y212.964 F1000
G1 X113.138 Y211.779 F1000
G1 X112.765 Y210.409 F1000
G1 X112.579 Y208.854 F1000
G1 X112.556 Y208.008 F1000
G1 X112.579 Y207.161 F1000
G1 X112.764 Y205.606 F1000
G1 X113.133 Y204.236 F1000
G1 X113.688 Y203.051 F1000
G1 X114.035 Y202.528 F1000
G1 X114.423 Y202.060 F1000
G1 X115.302 Y201.309 F1000
G1 X116.317 Y200.809 F1000
G1 X117.469 Y200.559 F1000
G1 X118.096 Y200.528 F1000
G1 X118.717 Y200.560 F1000
G1 X119.858 Y200.810 F1000
G1 X120.866 Y201.312 F1000
G1 X121.742 Y202.064 F1000
G1 X122.129 Y202.534 F1000
G1 X122.479 Y203.059 F1000
G1 X123.038 Y204.246 F1000
G1 X123.410 Y205.615 F1000
G1 X123.596 Y207.165 F1000
G1 X123.620 Y208.008 F1000
G1 X123.596 Y208.847 F1000
G1 X123.410 Y210.391 F1000
G1 X123.038 Y211.757 F1000
G1 X122.479 Y212.944 F1000
G1 X122.129 Y213.471 F1000
G1 X121.742 Y213.943 F1000
G1 X120.866 Y214.700 F1000
G1 X119.858 Y215.204 F1000
G1 X118.717 Y215.456 F1000
G1 X118.096 Y215.487 F1000
G1 X118.096 Y215.487 F1000
G04 P0.5

M03

G04 P0.5
G0 X118.096 Y218.186 F3000
G04 P0.5

M05

G04 P0.5
G1 X119.107 Y218.143 F1000
G1 X120.962 Y217.805 F1000
G1 X122.593 Y217.129 F1000
G1 X124.002 Y216.115 F1000
G1 X124.623 Y215.482 F1000
G1 X125.180 Y214.775 F1000
G1 X126.071 Y213.166 F1000
G1 X126.665 Y211.297 F1000
G1 X126.962 Y209.169 F1000
G1 X126.999 Y208.008 F1000
G1 X126.962 Y206.850 F1000
G1 X126.665 Y204.726 F1000
G1 X126.071 Y202.857 F1000
G1 X125.180 Y201.244 F1000
G1 X124.623 Y200.534 F1000
G1 X124.002 Y199.899 F1000
G1 X122.593 Y198.883 F1000
G1 X120.962 Y198.205 F1000
G1 X119.107 Y197.867 F1000
G1 X118.096 Y197.824 F1000
G1 X117.081 Y197.867 F1000
G1 X115.221 Y198.205 F1000
G1 X113.587 Y198.883 F1000
G1 X112.178 Y199.899 F1000
G1 X111.558 Y200.534 F1000
G1 X111.005 Y201.244 F1000
G1 X110.120 Y202.857 F1000
G1 X109.530 Y204.726 F1000
G1 X109.235 Y206.850 F1000
G1 X109.198 Y208.008 F1000
G1 X109.235 Y209.169 F1000
G1 X109.530 Y211.297 F1000
G1 X110.120 Y213.166 F1000
G1 X111.005 Y214.775 F1000
G1 X111.558 Y215.482 F1000
G1 X112.178 Y216.115 F1000
G1 X113.587 Y217.129 F1000
G1 X115.221 Y217.805 F1000
G1 X117.081 Y218.143 F1000
G1 X118.096 Y218.186 F1000
G1 X118.096 Y218.186 F1000
G04 P0.5

M03

G04 P0.5
G0 X148.400 Y210.036 F3000
G04 P0.5

M05

G04 P0.5
G1 X148.400 Y198.329 F1000
G1 X145.214 Y198.329 F1000
G1 X145.214 Y209.930 F1000
G1 X145.197 Y210.597 F1000
G1 X145.063 Y211.800 F1000
G1 X144.794 Y212.829 F1000
G1 X144.391 Y213.684 F1000
G1 X144.139 Y214.047 F1000
G1 X143.854 Y214.368 F1000
G1 X143.183 Y214.881 F1000
G1 X142.378 Y215.223 F1000
G1 X141.440 Y215.394 F1000
G1 X140.920 Y215.415 F1000
G1 X140.292 Y215.390 F1000
G1 X139.138 Y215.184 F1000
G1 X138.119 Y214.773 F1000
G1 X137.238 Y214.155 F1000
G1 X136.848 Y213.770 F1000
G1 X136.499 Y213.341 F1000
G1 X135.940 Y212.371 F1000
G1 X135.567 Y211.250 F1000
G1 X135.381 Y209.979 F1000
G1 X135.358 Y209.288 F1000
G1 X135.358 Y198.329 F1000
G1 X132.155 Y198.329 F1000
G1 X132.155 Y217.720 F1000
G1 X135.358 Y217.720 F1000
G1 X135.358 Y214.706 F1000
G1 X135.956 Y215.526 F1000
G1 X137.303 Y216.834 F1000
G1 X138.050 Y217.321 F1000
G1 X138.856 Y217.699 F1000
G1 X140.645 Y218.132 F1000
G1 X141.630 Y218.186 F1000
G1 X142.439 Y218.153 F1000
G1 X143.906 Y217.895 F1000
G1 X145.169 Y217.378 F1000
G1 X146.229 Y216.603 F1000
G1 X146.682 Y216.119 F1000
G1 X147.085 Y215.572 F1000
G1 X147.729 Y214.295 F1000
G1 X148.158 Y212.774 F1000
G1 X148.373 Y211.009 F1000
G1 X148.400 Y210.036 F1000
G1 X148.400 Y210.036 F1000
G04 P0.5

M03

G04 P0.5
G0 X0.000 Y182.400 F3000
G04 P0.5

M05

G04 P0.5
G1 X152.400 Y182.400 F1000
G1 X152.400 Y233.200 F1000
G1 X0.000 Y233.200 F1000
G1 X0.000 Y182.400 F1000
G04 P0.5

M03

G04 P0.5
G0 X7.933 Y282.879 F3000
G04 P0.5

M05

G04 P0.5
G1 X11.885 Y282.879 F1000
G1 X11.885 Y256.982 F1000
G1 X26.114 Y256.982 F1000
G1 X26.114 Y253.657 F1000
G1 X7.933 Y253.657 F1000
G1 X7.933 Y282.879 F1000
G1 X7.933 Y282.879 F1000
G04 P0.5

M03

G04 P0.5
G0 X40.071 Y264.673 F3000
G04 P0.5

M05

G04 P0.5
G1 X38.056 Y264.611 F1000
G1 X35.662 Y264.284 F1000
G1 X34.485 Y263.911 F1000
G1 X34.022 Y263.677 F1000
G1 X33.627 Y263.406 F1000
G1 X32.995 Y262.732 F1000
G1 X32.574 Y261.880 F1000
G1 X32.363 Y260.851 F1000
G1 X32.337 Y260.270 F1000
G1 X32.357 Y259.804 F1000
G1 X32.515 Y258.944 F1000
G1 X32.831 Y258.183 F1000
G1 X33.305 Y257.521 F1000
G1 X33.602 Y257.227 F1000
G1 X33.932 Y256.964 F1000
G1 X34.678 Y256.544 F1000
G1 X36.007 Y256.176 F1000
G1 X37.034 Y256.106 F1000
G1 X37.765 Y256.139 F1000
G1 X39.117 Y256.404 F1000
G1 X40.319 Y256.935 F1000
G1 X41.373 Y257.731 F1000
G1 X41.844 Y258.229 F1000
G1 X42.268 Y258.781 F1000
G1 X42.947 Y260.018 F1000
G1 X43.399 Y261.428 F1000
G1 X43.625 Y263.013 F1000
G1 X43.654 Y263.872 F1000
G1 X43.654 Y264.673 F1000
G1 X40.071 Y264.673 F1000
G1 X40.071 Y264.673 F1000
G04 P0.5

M03

G04 P0.5
G0 X47.255 Y266.164 F3000
G04 P0.5

M05

G04 P0.5
G1 X47.255 Y253.657 F1000
G1 X43.654 Y253.657 F1000
G1 X43.654 Y256.982 F1000
G1 X42.999 Y256.052 F1000
G1 X41.461 Y254.580 F1000
G1 X40.579 Y254.039 F1000
G1 X39.607 Y253.622 F1000
G1 X37.355 Y253.147 F1000
G1 X36.076 Y253.087 F1000
G1 X35.256 Y253.117 F1000
G1 X33.746 Y253.353 F1000
G1 X32.408 Y253.826 F1000
G1 X31.240 Y254.535 F1000
G1 X30.721 Y254.978 F1000
G1 X30.256 Y255.471 F1000
G1 X29.511 Y256.577 F1000
G1 X29.015 Y257.842 F1000
G1 X28.767 Y259.266 F1000
G1 X28.736 Y260.039 F1000
G1 X28.774 Y260.934 F1000
G1 X29.084 Y262.555 F1000
G1 X29.702 Y263.948 F1000
G1 X30.630 Y265.115 F1000
G1 X31.210 Y265.613 F1000
G1 X31.868 Y266.053 F1000
G1 X33.411 Y266.758 F1000
G1 X35.259 Y267.227 F1000
G1 X37.410 Y267.462 F1000
G1 X38.600 Y267.491 F1000
G1 X43.654 Y267.491 F1000
G1 X43.654 Y267.848 F1000
G1 X43.628 Y268.452 F1000
G1 X43.424 Y269.555 F1000
G1 X43.015 Y270.516 F1000
G1 X42.402 Y271.336 F1000
G1 X42.019 Y271.694 F1000
G1 X41.590 Y272.012 F1000
G1 X40.607 Y272.522 F1000
G1 X39.460 Y272.862 F1000
G1 X38.147 Y273.032 F1000
G1 X37.429 Y273.053 F1000
G1 X36.495 Y273.025 F1000
G1 X34.663 Y272.799 F1000
G1 X33.765 Y272.602 F1000
G1 X32.884 Y272.348 F1000
G1 X31.174 Y271.672 F1000
G1 X30.345 Y271.249 F1000
G1 X30.345 Y274.581 F1000
G1 X31.325 Y274.939 F1000
G1 X33.241 Y275.509 F1000
G1 X34.178 Y275.721 F1000
G1 X35.102 Y275.888 F1000
G1 X36.912 Y276.079 F1000
G1 X37.798 Y276.103 F1000
G1 X38.950 Y276.064 F1000
G1 X41.029 Y275.756 F1000
G1 X42.806 Y275.139 F1000
G1 X44.282 Y274.214 F1000
G1 X44.906 Y273.635 F1000
G1 X45.457 Y272.980 F1000
G1 X46.337 Y271.431 F1000
G1 X46.925 Y269.563 F1000
G1 X47.218 Y267.377 F1000
G1 X47.255 Y266.164 F1000
G1 X47.255 Y266.164 F1000
G04 P0.5

M03

G04 P0.5
G0 X72.894 Y266.890 F3000
G04 P0.5

M05

G04 P0.5
G1 X72.894 Y253.657 F1000
G1 X69.293 Y253.657 F1000
G1 X69.293 Y266.771 F1000
G1 X69.274 Y267.525 F1000
G1 X69.122 Y268.885 F1000
G1 X68.818 Y270.048 F1000
G1 X68.363 Y271.015 F1000
G1 X68.078 Y271.425 F1000
G1 X67.755 Y271.787 F1000
G1 X66.997 Y272.367 F1000
G1 X66.087 Y272.754 F1000
G1 X65.026 Y272.947 F1000
G1 X64.439 Y272.971 F1000
G1 X63.729 Y272.942 F1000
G1 X62.424 Y272.710 F1000
G1 X61.273 Y272.245 F1000
G1 X60.277 Y271.547 F1000
G1 X59.836 Y271.111 F1000
G1 X59.441 Y270.627 F1000
G1 X58.809 Y269.530 F1000
G1 X58.388 Y268.263 F1000
G1 X58.178 Y266.827 F1000
G1 X58.151 Y266.045 F1000
G1 X58.151 Y253.657 F1000
G1 X54.531 Y253.657 F1000
G1 X54.531 Y275.577 F1000
G1 X58.151 Y275.577 F1000
G1 X58.151 Y272.170 F1000
G1 X58.828 Y273.097 F1000
G1 X60.350 Y274.575 F1000
G1 X61.195 Y275.126 F1000
G1 X62.106 Y275.553 F1000
G1 X64.128 Y276.042 F1000
G1 X65.241 Y276.103 F1000
G1 X66.156 Y276.066 F1000
G1 X67.814 Y275.774 F1000
G1 X69.242 Y275.190 F1000
G1 X70.440 Y274.314 F1000
G1 X70.953 Y273.767 F1000
G1 X71.408 Y273.148 F1000
G1 X72.136 Y271.705 F1000
G1 X72.621 Y269.986 F1000
G1 X72.864 Y267.991 F1000
G1 X72.894 Y266.890 F1000
G1 X72.894 Y266.890 F1000
G04 P0.5

M03

G04 P0.5
G0 X94.496 Y272.251 F3000
G04 P0.5

M05

G04 P0.5
G1 X94.496 Y284.113 F1000
G1 X98.097 Y284.113 F1000
G1 X98.097 Y253.657 F1000
G1 X94.496 Y253.657 F1000
G1 X94.496 Y256.945 F1000
G1 X93.892 Y256.031 F1000
G1 X92.457 Y254.578 F1000
G1 X91.628 Y254.039 F1000
G1 X90.720 Y253.622 F1000
G1 X88.640 Y253.147 F1000
G1 X87.469 Y253.087 F1000
G1 X86.499 Y253.137 F1000
G1 X84.698 Y253.533 F1000
G1 X83.081 Y254.325 F1000
G1 X81.647 Y255.513 F1000
G1 X81.000 Y256.256 F1000
G1 X80.415 Y257.081 F1000
G1 X79.481 Y258.918 F1000
G1 X78.858 Y261.003 F1000
G1 X78.546 Y263.337 F1000
G1 X78.507 Y264.598 F1000
G1 X78.546 Y265.859 F1000
G1 X78.858 Y268.192 F1000
G1 X79.481 Y270.276 F1000
G1 X80.415 Y272.110 F1000
G1 X81.000 Y272.934 F1000
G1 X81.647 Y273.677 F1000
G1 X83.081 Y274.865 F1000
G1 X84.698 Y275.657 F1000
G1 X86.499 Y276.053 F1000
G1 X87.469 Y276.103 F1000
G1 X88.640 Y276.043 F1000
G1 X90.720 Y275.567 F1000
G1 X91.628 Y275.151 F1000
G1 X92.457 Y274.615 F1000
G1 X93.892 Y273.165 F1000
G1 X94.496 Y272.251 F1000
G1 X94.496 Y272.251 F1000
G04 P0.5

M03

G04 P0.5
G0 X82.227 Y264.598 F3000
G04 P0.5

M05

G04 P0.5
G1 X82.253 Y263.632 F1000
G1 X82.457 Y261.861 F1000
G1 X82.866 Y260.303 F1000
G1 X83.479 Y258.959 F1000
G1 X83.862 Y258.367 F1000
G1 X84.289 Y257.837 F1000
G1 X85.259 Y256.989 F1000
G1 X86.382 Y256.424 F1000
G1 X87.657 Y256.141 F1000
G1 X88.352 Y256.106 F1000
G1 X89.047 Y256.141 F1000
G1 X90.323 Y256.424 F1000
G1 X91.447 Y256.989 F1000
G1 X92.420 Y257.837 F1000
G1 X92.849 Y258.367 F1000
G1 X93.235 Y258.959 F1000
G1 X93.853 Y260.303 F1000
G1 X94.264 Y261.861 F1000
G1 X94.470 Y263.632 F1000
G1 X94.496 Y264.598 F1000
G1 X94.470 Y265.564 F1000
G1 X94.264 Y267.336 F1000
G1 X93.853 Y268.893 F1000
G1 X93.235 Y270.238 F1000
G1 X92.849 Y270.830 F1000
G1 X92.420 Y271.359 F1000
G1 X91.447 Y272.207 F1000
G1 X90.323 Y272.772 F1000
G1 X89.047 Y273.055 F1000
G1 X88.352 Y273.090 F1000
G1 X87.657 Y273.055 F1000
G1 X86.382 Y272.772 F1000
G1 X85.259 Y272.207 F1000
G1 X84.289 Y271.359 F1000
G1 X83.862 Y270.830 F1000
G1 X83.479 Y270.238 F1000
G1 X82.866 Y268.893 F1000
G1 X82.457 Y267.336 F1000
G1 X82.253 Y265.564 F1000
G1 X82.227 Y264.598 F1000
G1 X82.227 Y264.598 F1000
G04 P0.5

M03

G04 P0.5
G0 X124.266 Y265.519 F3000
G04 P0.5

M05

G04 P0.5
G1 X124.266 Y263.759 F1000
G1 X107.707 Y263.759 F1000
G1 X107.794 Y262.857 F1000
G1 X108.134 Y261.218 F1000
G1 X108.695 Y259.801 F1000
G1 X109.476 Y258.606 F1000
G1 X109.949 Y258.091 F1000
G1 X110.475 Y257.635 F1000
G1 X111.675 Y256.904 F1000
G1 X113.071 Y256.417 F1000
G1 X114.665 Y256.174 F1000
G1 X115.536 Y256.143 F1000
G1 X116.565 Y256.175 F1000
G1 X118.575 Y256.429 F1000
G1 X119.557 Y256.651 F1000
G1 X120.529 Y256.936 F1000
G1 X122.464 Y257.700 F1000
G1 X123.427 Y258.179 F1000
G1 X123.427 Y254.772 F1000
G1 X122.450 Y254.386 F1000
G1 X120.462 Y253.759 F1000
G1 X119.450 Y253.519 F1000
G1 X118.429 Y253.330 F1000
G1 X116.365 Y253.114 F1000
G1 X115.323 Y253.087 F1000
G1 X114.045 Y253.135 F1000
G1 X111.694 Y253.516 F1000
G1 X109.616 Y254.278 F1000
G1 X107.812 Y255.422 F1000
G1 X107.012 Y256.137 F1000
G1 X106.294 Y256.935 F1000
G1 X105.146 Y258.732 F1000
G1 X104.380 Y260.799 F1000
G1 X103.998 Y263.135 F1000
G1 X103.950 Y264.404 F1000
G1 X103.995 Y265.714 F1000
G1 X104.358 Y268.126 F1000
G1 X105.085 Y270.260 F1000
G1 X106.175 Y272.116 F1000
G1 X106.856 Y272.940 F1000
G1 X107.614 Y273.681 F1000
G1 X109.320 Y274.867 F1000
G1 X111.281 Y275.658 F1000
G1 X113.495 Y276.053 F1000
G1 X114.697 Y276.103 F1000
G1 X115.773 Y276.058 F1000
G1 X117.753 Y275.702 F1000
G1 X119.502 Y274.990 F1000
G1 X121.020 Y273.921 F1000
G1 X121.692 Y273.253 F1000
G1 X122.296 Y272.510 F1000
G1 X123.261 Y270.833 F1000
G1 X123.904 Y268.899 F1000
G1 X124.226 Y266.710 F1000
G1 X124.266 Y265.519 F1000
G1 X124.266 Y265.519 F1000
G04 P0.5

M03

G04 P0.5
G0 X120.665 Y266.577 F3000
G04 P0.5

M05

G04 P0.5
G1 X120.631 Y267.296 F1000
G1 X120.415 Y268.622 F1000
G1 X120.002 Y269.800 F1000
G1 X119.391 Y270.828 F1000
G1 X119.012 Y271.287 F1000
G1 X118.591 Y271.701 F1000
G1 X117.653 Y272.363 F1000
G1 X116.583 Y272.804 F1000
G1 X115.383 Y273.025 F1000
G1 X114.734 Y273.053 F1000
G1 X114.000 Y273.026 F1000
G1 X112.644 Y272.813 F1000
G1 X111.438 Y272.387 F1000
G1 X110.383 Y271.749 F1000
G1 X109.912 Y271.349 F1000
G1 X109.483 Y270.902 F1000
G1 X108.770 Y269.876 F1000
G1 X108.249 Y268.677 F1000
G1 X107.919 Y267.304 F1000
G1 X107.826 Y266.552 F1000
G1 X120.665 Y266.577 F1000
G1 X120.665 Y266.577 F1000
G04 P0.5

M03

G04 P0.5
G0 X148.400 Y266.890 F3000
G04 P0.5

M05

G04 P0.5
G1 X148.400 Y253.657 F1000
G1 X144.799 Y253.657 F1000
G1 X144.799 Y266.771 F1000
G1 X144.780 Y267.525 F1000
G1 X144.628 Y268.885 F1000
G1 X144.324 Y270.048 F1000
G1 X143.869 Y271.015 F1000
G1 X143.584 Y271.425 F1000
G1 X143.261 Y271.787 F1000
G1 X142.503 Y272.367 F1000
G1 X141.593 Y272.754 F1000
G1 X140.532 Y272.947 F1000
G1 X139.945 Y272.971 F1000
G1 X139.235 Y272.942 F1000
G1 X137.930 Y272.710 F1000
G1 X136.779 Y272.245 F1000
G1 X135.782 Y271.547 F1000
G1 X135.342 Y271.111 F1000
G1 X134.947 Y270.627 F1000
G1 X134.315 Y269.530 F1000
G1 X133.894 Y268.263 F1000
G1 X133.684 Y266.827 F1000
G1 X133.657 Y266.045 F1000
G1 X133.657 Y253.657 F1000
G1 X130.037 Y253.657 F1000
G1 X130.037 Y275.577 F1000
G1 X133.657 Y275.577 F1000
G1 X133.657 Y272.170 F1000
G1 X134.334 Y273.097 F1000
G1 X135.856 Y274.575 F1000
G1 X136.701 Y275.126 F1000
G1 X137.612 Y275.553 F1000
G1 X139.634 Y276.042 F1000
G1 X140.747 Y276.103 F1000
G1 X141.662 Y276.066 F1000
G1 X143.320 Y275.774 F1000
G1 X144.748 Y275.190 F1000
G1 X145.946 Y274.314 F1000
G1 X146.459 Y273.767 F1000
G1 X146.914 Y273.148 F1000
G1 X147.642 Y271.705 F1000
G1 X148.127 Y269.986 F1000
G1 X148.370 Y267.991 F1000
G1 X148.400 Y266.890 F1000
G1 X148.400 Y266.890 F1000
G04 P0.5

M03

G04 P0.5
G0 X0.000 Y243.200 F3000
G04 P0.5

M05

G04 P0.5
G1 X152.400 Y243.200 F1000
G1 X152.400 Y294.000 F1000
G1 X0.000 Y294.000 F1000
G1 X0.000 Y243.200 F1000
G04 P0.5

M03

G04 P0.5
G04 P0.5

M03

G04 P0.5
G0 X0 Y0 F3000