G21 ; units = mm
G90 ; absolute coords
G04 P0.5

M03

G04 P0.5
G0 X9.739 Y42.606 F3000
G04 P0.5

M05

G04 P0.5
G1 X13.516 Y42.606 F1000
G1 X13.516 Y16.626 F1000
G1 X13.486 Y15.407 F1000
G1 X13.246 Y13.228 F1000
G1 X12.768 Y11.395 F1000
G1 X12.049 Y9.909 F1000
G1 X11.601 Y9.295 F1000
G1 X11.085 Y8.761 F1000
G1 X9.836 Y7.906 F1000
G1 X8.295 Y7.336 F1000
G1 X6.462 Y7.051 F1000
G1 X5.436 Y7.015 F1000
G1 X4.000 Y7.015 F1000
G1 X4.000 Y10.193 F1000
G1 X5.179 Y10.193 F1000
G1 X5.781 Y10.215 F1000
G1 X6.848 Y10.391 F1000
G1 X7.731 Y10.742 F1000
G1 X8.430 Y11.270 F1000
G1 X8.710 Y11.599 F1000
G1 X8.951 Y11.984 F1000
G1 X9.337 Y12.963 F1000
G1 X9.675 Y14.952 F1000
G1 X9.739 Y16.626 F1000
G1 X9.739 Y42.606 F1000
G1 X9.739 Y42.606 F1000
G04 P0.5

M03

G04 P0.5
G0 X30.407 Y25.208 F3000
G04 P0.5

M05

G04 P0.5
G1 X28.482 Y25.149 F1000
G1 X26.194 Y24.837 F1000
G1 X25.069 Y24.480 F1000
G1 X24.626 Y24.257 F1000
G1 X24.249 Y23.998 F1000
G1 X23.645 Y23.353 F1000
G1 X23.243 Y22.539 F1000
G1 X23.041 Y21.556 F1000
G1 X23.016 Y21.001 F1000
G1 X23.035 Y20.555 F1000
G1 X23.186 Y19.734 F1000
G1 X23.488 Y19.007 F1000
G1 X23.942 Y18.374 F1000
G1 X24.225 Y18.093 F1000
G1 X24.541 Y17.842 F1000
G1 X25.253 Y17.440 F1000
G1 X26.523 Y17.088 F1000
G1 X27.505 Y17.021 F1000
G1 X28.204 Y17.053 F1000
G1 X29.495 Y17.307 F1000
G1 X30.644 Y17.814 F1000
G1 X31.651 Y18.575 F1000
G1 X32.101 Y19.050 F1000
G1 X32.506 Y19.578 F1000
G1 X33.155 Y20.760 F1000
G1 X33.587 Y22.108 F1000
G1 X33.803 Y23.622 F1000
G1 X33.831 Y24.442 F1000
G1 X33.831 Y25.208 F1000
G1 X30.407 Y25.208 F1000
G1 X30.407 Y25.208 F1000
G04 P0.5

M03

G04 P0.5
G0 X37.272 Y26.633 F3000
G04 P0.5

M05

G04 P0.5
G1 X37.272 Y14.681 F1000
G1 X33.831 Y14.681 F1000
G1 X33.831 Y17.859 F1000
G1 X33.205 Y16.970 F1000
G1 X31.736 Y15.563 F1000
G1 X30.892 Y15.047 F1000
G1 X29.963 Y14.649 F1000
G1 X27.812 Y14.194 F1000
G1 X26.589 Y14.137 F1000
G1 X25.806 Y14.165 F1000
G1 X24.363 Y14.391 F1000
G1 X23.084 Y14.843 F1000
G1 X21.968 Y15.521 F1000
G1 X21.472 Y15.944 F1000
G1 X21.028 Y16.415 F1000
G1 X20.316 Y17.471 F1000
G1 X19.842 Y18.680 F1000
G1 X19.605 Y20.042 F1000
G1 X19.575 Y20.780 F1000
G1 X19.612 Y21.635 F1000
G1 X19.907 Y23.184 F1000
G1 X20.498 Y24.516 F1000
G1 X21.385 Y25.630 F1000
G1 X21.939 Y26.106 F1000
G1 X22.568 Y26.527 F1000
G1 X24.043 Y27.200 F1000
G1 X25.808 Y27.649 F1000
G1 X27.864 Y27.874 F1000
G1 X29.001 Y27.902 F1000
G1 X33.831 Y27.902 F1000
G1 X33.831 Y28.243 F1000
G1 X33.806 Y28.820 F1000
G1 X33.611 Y29.873 F1000
G1 X33.220 Y30.792 F1000
G1 X32.635 Y31.576 F1000
G1 X32.269 Y31.917 F1000
G1 X31.858 Y32.222 F1000
G1 X30.919 Y32.709 F1000
G1 X29.823 Y33.033 F1000
G1 X28.568 Y33.196 F1000
G1 X27.882 Y33.216 F1000
G1 X26.990 Y33.189 F1000
G1 X25.239 Y32.974 F1000
G1 X24.381 Y32.785 F1000
G1 X23.539 Y32.543 F1000
G1 X21.905 Y31.896 F1000
G1 X21.113 Y31.492 F1000
G1 X21.113 Y34.676 F1000
G1 X22.049 Y35.018 F1000
G1 X23.880 Y35.563 F1000
G1 X24.776 Y35.765 F1000
G1 X25.658 Y35.925 F1000
G1 X27.388 Y36.108 F1000
G1 X28.235 Y36.130 F1000
G1 X29.336 Y36.094 F1000
G1 X31.322 Y35.799 F1000
G1 X33.020 Y35.209 F1000
G1 X34.430 Y34.325 F1000
G1 X35.027 Y33.773 F1000
G1 X35.553 Y33.146 F1000
G1 X36.395 Y31.666 F1000
G1 X36.956 Y29.881 F1000
G1 X37.237 Y27.792 F1000
G1 X37.272 Y26.633 F1000
G1 X37.272 Y26.633 F1000
G04 P0.5

M03

G04 P0.5
G0 X59.432 Y34.826 F3000
G04 P0.5

M05

G04 P0.5
G1 X59.432 Y31.606 F1000
G1 X58.702 Y31.985 F1000
G1 X57.238 Y32.589 F1000
G1 X56.506 Y32.815 F1000
G1 X55.771 Y32.990 F1000
G1 X54.289 Y33.191 F1000
G1 X53.543 Y33.216 F1000
G1 X52.729 Y33.183 F1000
G1 X51.240 Y32.917 F1000
G1 X49.938 Y32.386 F1000
G1 X48.824 Y31.589 F1000
G1 X48.337 Y31.091 F1000
G1 X47.903 Y30.535 F1000
G1 X47.210 Y29.261 F1000
G1 X46.747 Y27.772 F1000
G1 X46.516 Y26.069 F1000
G1 X46.487 Y25.137 F1000
G1 X46.516 Y24.204 F1000
G1 X46.747 Y22.500 F1000
G1 X47.210 Y21.010 F1000
G1 X47.903 Y19.734 F1000
G1 X48.337 Y19.176 F1000
G1 X48.824 Y18.679 F1000
G1 X49.938 Y17.885 F1000
G1 X51.240 Y17.355 F1000
G1 X52.729 Y17.090 F1000
G1 X53.543 Y17.057 F1000
G1 X54.289 Y17.082 F1000
G1 X55.771 Y17.283 F1000
G1 X56.506 Y17.458 F1000
G1 X57.238 Y17.684 F1000
G1 X58.702 Y18.289 F1000
G1 X59.432 Y18.667 F1000
G1 X59.432 Y15.483 F1000
G1 X58.705 Y15.169 F1000
G1 X57.211 Y14.667 F1000
G1 X56.446 Y14.478 F1000
G1 X55.664 Y14.329 F1000
G1 X54.024 Y14.158 F1000
G1 X53.166 Y14.137 F1000
G1 X52.013 Y14.183 F1000
G1 X49.889 Y14.555 F1000
G1 X48.009 Y15.299 F1000
G1 X46.371 Y16.414 F1000
G1 X45.643 Y17.111 F1000
G1 X44.991 Y17.887 F1000
G1 X43.948 Y19.634 F1000
G1 X43.252 Y21.640 F1000
G1 X42.904 Y23.906 F1000
G1 X42.861 Y25.137 F1000
G1 X42.905 Y26.383 F1000
G1 X43.256 Y28.671 F1000
G1 X43.959 Y30.685 F1000
G1 X45.014 Y32.425 F1000
G1 X45.673 Y33.192 F1000
G1 X46.411 Y33.881 F1000
G1 X48.080 Y34.983 F1000
G1 X50.010 Y35.717 F1000
G1 X52.201 Y36.085 F1000
G1 X53.394 Y36.130 F1000
G1 X54.182 Y36.110 F1000
G1 X55.732 Y35.945 F1000
G1 X56.494 Y35.801 F1000
G1 X57.245 Y35.619 F1000
G1 X58.714 Y35.131 F1000
G1 X59.432 Y34.826 F1000
G1 X59.432 Y34.826 F1000
G04 P0.5

M03

G04 P0.5
G0 X65.284 Y43.785 F3000
G04 P0.5

M05

G04 P0.5
G1 X68.743 Y43.785 F1000
G1 X68.743 Y26.597 F1000
G1 X79.012 Y35.628 F1000
G1 X83.405 Y35.628 F1000
G1 X72.298 Y25.831 F1000
G1 X83.878 Y14.681 F1000
G1 X79.389 Y14.681 F1000
G1 X68.743 Y24.909 F1000
G1 X68.743 Y14.681 F1000
G1 X65.284 Y14.681 F1000
G1 X65.284 Y43.785 F1000
G1 X65.284 Y43.785 F1000
G04 P0.5

M03

G04 P0.5
G0 X100.948 Y35.011 F3000
G04 P0.5

M05

G04 P0.5
G1 X100.948 Y31.756 F1000
G1 X100.213 Y32.106 F1000
G1 X98.699 Y32.666 F1000
G1 X97.919 Y32.875 F1000
G1 X97.128 Y33.040 F1000
G1 X95.500 Y33.228 F1000
G1 X94.664 Y33.252 F1000
G1 X93.463 Y33.203 F1000
G1 X91.542 Y32.811 F1000
G1 X90.822 Y32.468 F1000
G1 X90.521 Y32.260 F1000
G1 X90.041 Y31.769 F1000
G1 X89.721 Y31.179 F1000
G1 X89.561 Y30.491 F1000
G1 X89.541 Y30.110 F1000
G1 X89.598 Y29.544 F1000
G1 X90.056 Y28.604 F1000
G1 X90.457 Y28.231 F1000
G1 X91.030 Y27.894 F1000
G1 X92.874 Y27.244 F1000
G1 X94.143 Y26.932 F1000
G1 X95.322 Y26.669 F1000
G1 X97.021 Y26.236 F1000
G1 X99.073 Y25.436 F1000
G1 X100.110 Y24.802 F1000
G1 X100.529 Y24.454 F1000
G1 X100.891 Y24.079 F1000
G1 X101.470 Y23.223 F1000
G1 X101.856 Y22.225 F1000
G1 X102.049 Y21.085 F1000
G1 X102.073 Y20.463 F1000
G1 X102.037 Y19.752 F1000
G1 X101.748 Y18.443 F1000
G1 X101.170 Y17.287 F1000
G1 X100.304 Y16.282 F1000
G1 X99.763 Y15.837 F1000
G1 X99.158 Y15.438 F1000
G1 X97.787 Y14.801 F1000
G1 X96.200 Y14.376 F1000
G1 X94.396 Y14.163 F1000
G1 X93.413 Y14.137 F1000
G1 X91.695 Y14.219 F1000
G1 X89.906 Y14.466 F1000
G1 X88.033 Y14.876 F1000
G1 X86.064 Y15.448 F1000
G1 X86.064 Y19.002 F1000
G1 X87.015 Y18.537 F1000
G1 X88.894 Y17.792 F1000
G1 X89.822 Y17.512 F1000
G1 X90.745 Y17.298 F1000
G1 X92.579 Y17.052 F1000
G1 X93.491 Y17.021 F1000
G1 X94.635 Y17.073 F1000
G1 X96.503 Y17.489 F1000
G1 X97.225 Y17.853 F1000
G1 X97.532 Y18.072 F1000
G1 X98.024 Y18.573 F1000
G1 X98.352 Y19.160 F1000
G1 X98.515 Y19.831 F1000
G1 X98.536 Y20.199 F1000
G1 X98.477 Y20.859 F1000
G1 X98.004 Y21.933 F1000
G1 X97.590 Y22.348 F1000
G1 X96.979 Y22.719 F1000
G1 X94.908 Y23.440 F1000
G1 X93.449 Y23.790 F1000
G1 X92.252 Y24.071 F1000
G1 X90.765 Y24.452 F1000
G1 X88.949 Y25.192 F1000
G1 X88.016 Y25.799 F1000
G1 X87.632 Y26.136 F1000
G1 X87.299 Y26.501 F1000
G1 X86.767 Y27.328 F1000
G1 X86.413 Y28.284 F1000
G1 X86.236 Y29.369 F1000
G1 X86.213 Y29.960 F1000
G1 X86.246 Y30.678 F1000
G1 X86.508 Y31.987 F1000
G1 X87.032 Y33.127 F1000
G1 X87.817 Y34.099 F1000
G1 X88.308 Y34.521 F1000
G1 X88.859 Y34.898 F1000
G1 X90.126 Y35.502 F1000
G1 X91.614 Y35.904 F1000
G1 X93.321 Y36.105 F1000
G1 X94.257 Y36.130 F1000
G1 X96.105 Y36.060 F1000
G1 X97.842 Y35.849 F1000
G1 X98.669 Y35.694 F1000
G1 X100.222 Y35.275 F1000
G1 X100.948 Y35.011 F1000
G1 X100.948 Y35.011 F1000
G04 P0.5

M03

G04 P0.5
G0 X115.666 Y33.216 F3000
G04 P0.5

M05

G04 P0.5
G1 X114.993 Y33.182 F1000
G1 X113.755 Y32.912 F1000
G1 X112.661 Y32.372 F1000
G1 X111.712 Y31.562 F1000
G1 X111.291 Y31.055 F1000
G1 X110.914 Y30.490 F1000
G1 X110.310 Y29.210 F1000
G1 X109.908 Y27.731 F1000
G1 X109.707 Y26.051 F1000
G1 X109.682 Y25.137 F1000
G1 X109.706 Y24.222 F1000
G1 X109.906 Y22.543 F1000
G1 X110.306 Y21.063 F1000
G1 X110.905 Y19.783 F1000
G1 X111.279 Y19.218 F1000
G1 X111.699 Y18.711 F1000
G1 X112.648 Y17.901 F1000
G1 X113.745 Y17.361 F1000
G1 X114.989 Y17.091 F1000
G1 X115.666 Y17.057 F1000
G1 X116.336 Y17.091 F1000
G1 X117.569 Y17.362 F1000
G1 X118.659 Y17.904 F1000
G1 X119.604 Y18.716 F1000
G1 X120.023 Y19.224 F1000
G1 X120.400 Y19.791 F1000
G1 X121.004 Y21.074 F1000
G1 X121.406 Y22.552 F1000
G1 X121.608 Y24.226 F1000
G1 X121.633 Y25.137 F1000
G1 X121.608 Y26.043 F1000
G1 X121.406 Y27.711 F1000
G1 X121.004 Y29.187 F1000
G1 X120.400 Y30.469 F1000
G1 X120.023 Y31.038 F1000
G1 X119.604 Y31.548 F1000
G1 X118.659 Y32.365 F1000
G1 X117.569 Y32.910 F1000
G1 X116.336 Y33.182 F1000
G1 X115.666 Y33.216 F1000
G1 X115.666 Y33.216 F1000
G04 P0.5

M03

G04 P0.5
G0 X115.666 Y36.130 F3000
G04 P0.5

M05

G04 P0.5
G1 X116.758 Y36.085 F1000
G1 X118.762 Y35.720 F1000
G1 X120.524 Y34.990 F1000
G1 X122.046 Y33.894 F1000
G1 X122.716 Y33.210 F1000
G1 X123.318 Y32.446 F1000
G1 X124.281 Y30.708 F1000
G1 X124.922 Y28.690 F1000
G1 X125.243 Y26.391 F1000
G1 X125.284 Y25.137 F1000
G1 X125.243 Y23.886 F1000
G1 X124.922 Y21.592 F1000
G1 X124.281 Y19.573 F1000
G1 X123.318 Y17.831 F1000
G1 X122.716 Y17.063 F1000
G1 X122.046 Y16.377 F1000
G1 X120.524 Y15.280 F1000
G1 X118.762 Y14.548 F1000
G1 X116.758 Y14.183 F1000
G1 X115.666 Y14.137 F1000
G1 X114.570 Y14.183 F1000
G1 X112.561 Y14.548 F1000
G1 X110.795 Y15.280 F1000
G1 X109.274 Y16.377 F1000
G1 X108.604 Y17.063 F1000
G1 X108.007 Y17.831 F1000
G1 X107.051 Y19.573 F1000
G1 X106.413 Y21.592 F1000
G1 X106.095 Y23.886 F1000
G1 X106.055 Y25.137 F1000
G1 X106.095 Y26.391 F1000
G1 X106.413 Y28.690 F1000
G1 X107.051 Y30.708 F1000
G1 X108.007 Y32.446 F1000
G1 X108.604 Y33.210 F1000
G1 X109.274 Y33.894 F1000
G1 X110.795 Y34.990 F1000
G1 X112.561 Y35.720 F1000
G1 X114.570 Y36.085 F1000
G1 X115.666 Y36.130 F1000
G1 X115.666 Y36.130 F1000
G04 P0.5

M03

G04 P0.5
G0 X148.400 Y27.327 F3000
G04 P0.5

M05

G04 P0.5
G1 X148.400 Y14.681 F1000
G1 X144.959 Y14.681 F1000
G1 X144.959 Y27.213 F1000
G1 X144.941 Y27.933 F1000
G1 X144.796 Y29.233 F1000
G1 X144.505 Y30.345 F1000
G1 X144.070 Y31.268 F1000
G1 X143.798 Y31.660 F1000
G1 X143.489 Y32.006 F1000
G1 X142.765 Y32.561 F1000
G1 X141.895 Y32.930 F1000
G1 X140.882 Y33.115 F1000
G1 X140.321 Y33.138 F1000
G1 X139.642 Y33.110 F1000
G1 X138.395 Y32.888 F1000
G1 X137.295 Y32.444 F1000
G1 X136.343 Y31.777 F1000
G1 X135.922 Y31.361 F1000
G1 X135.545 Y30.898 F1000
G1 X134.941 Y29.849 F1000
G1 X134.539 Y28.639 F1000
G1 X134.337 Y27.266 F1000
G1 X134.312 Y26.519 F1000
G1 X134.312 Y14.681 F1000
G1 X130.853 Y14.681 F1000
G1 X130.853 Y35.628 F1000
G1 X134.312 Y35.628 F1000
G1 X134.312 Y32.372 F1000
G1 X134.958 Y33.258 F1000
G1 X136.413 Y34.670 F1000
G1 X137.221 Y35.197 F1000
G1 X138.091 Y35.605 F1000
G1 X140.024 Y36.072 F1000
G1 X141.087 Y36.130 F1000
G1 X141.961 Y36.096 F1000
G1 X143.546 Y35.817 F1000
G1 X144.910 Y35.259 F1000
G1 X146.055 Y34.421 F1000
G1 X146.545 Y33.898 F1000
G1 X146.980 Y33.307 F1000
G1 X147.675 Y31.928 F1000
G1 X148.139 Y30.285 F1000
G1 X148.371 Y28.379 F1000
G1 X148.400 Y27.327 F1000
G1 X148.400 Y27.327 F1000
G04 P0.5

M03

G04 P0.5
G0 X0.000 Y0.000 F3000
G04 P0.5

M05

G04 P0.5
G1 X152.400 Y0.000 F1000
G1 X152.400 Y50.800 F1000
G1 X0.000 Y50.800 F1000
G1 X0.000 Y0.000 F1000
G04 P0.5

M03

G04 P0.5
G0 X9.602 Y107.417 F3000
G04 P0.5

M05

G04 P0.5
G1 X15.231 Y107.417 F1000
G1 X15.231 Y65.795 F1000
G1 X9.602 Y65.795 F1000
G1 X9.602 Y107.417 F1000
G1 X9.602 Y107.417 F1000
G04 P0.5

M03

G04 P0.5
G0 X46.118 Y96.097 F3000
G04 P0.5

M05

G04 P0.5
G1 X46.118 Y91.244 F1000
G1 X45.023 Y91.767 F1000
G1 X42.766 Y92.601 F1000
G1 X41.604 Y92.913 F1000
G1 X40.424 Y93.158 F1000
G1 X37.998 Y93.439 F1000
G1 X36.751 Y93.475 F1000
G1 X34.962 Y93.402 F1000
G1 X32.098 Y92.817 F1000
G1 X31.024 Y92.306 F1000
G1 X30.577 Y91.995 F1000
G1 X29.861 Y91.264 F1000
G1 X29.384 Y90.385 F1000
G1 X29.145 Y89.359 F1000
G1 X29.115 Y88.791 F1000
G1 X29.201 Y87.947 F1000
G1 X29.883 Y86.547 F1000
G1 X30.480 Y85.990 F1000
G1 X31.335 Y85.488 F1000
G1 X34.083 Y84.520 F1000
G1 X35.975 Y84.055 F1000
G1 X37.732 Y83.662 F1000
G1 X40.265 Y83.018 F1000
G1 X43.323 Y81.825 F1000
G1 X44.869 Y80.880 F1000
G1 X45.493 Y80.362 F1000
G1 X46.033 Y79.802 F1000
G1 X46.896 Y78.526 F1000
G1 X47.471 Y77.038 F1000
G1 X47.759 Y75.340 F1000
G1 X47.795 Y74.412 F1000
G1 X47.741 Y73.352 F1000
G1 X47.310 Y71.401 F1000
G1 X46.450 Y69.678 F1000
G1 X45.158 Y68.180 F1000
G1 X44.351 Y67.516 F1000
G1 X43.450 Y66.922 F1000
G1 X41.406 Y65.972 F1000
G1 X39.040 Y65.339 F1000
G1 X36.352 Y65.022 F1000
G1 X34.887 Y64.983 F1000
G1 X32.327 Y65.105 F1000
G1 X29.660 Y65.473 F1000
G1 X26.867 Y66.085 F1000
G1 X23.933 Y66.936 F1000
G1 X23.933 Y72.235 F1000
G1 X25.350 Y71.541 F1000
G1 X28.151 Y70.430 F1000
G1 X29.535 Y70.014 F1000
G1 X30.910 Y69.694 F1000
G1 X33.644 Y69.328 F1000
G1 X35.003 Y69.282 F1000
G1 X36.709 Y69.360 F1000
G1 X39.492 Y69.980 F1000
G1 X40.569 Y70.522 F1000
G1 X41.027 Y70.848 F1000
G1 X41.760 Y71.595 F1000
G1 X42.248 Y72.470 F1000
G1 X42.492 Y73.471 F1000
G1 X42.523 Y74.019 F1000
G1 X42.435 Y75.002 F1000
G1 X41.730 Y76.603 F1000
G1 X41.113 Y77.222 F1000
G1 X40.202 Y77.774 F1000
G1 X37.116 Y78.849 F1000
G1 X34.940 Y79.371 F1000
G1 X33.156 Y79.791 F1000
G1 X30.940 Y80.358 F1000
G1 X28.233 Y81.461 F1000
G1 X26.842 Y82.365 F1000
G1 X26.270 Y82.868 F1000
G1 X25.774 Y83.412 F1000
G1 X24.981 Y84.644 F1000
G1 X24.453 Y86.069 F1000
G1 X24.189 Y87.687 F1000
G1 X24.156 Y88.568 F1000
G1 X24.204 Y89.639 F1000
G1 X24.595 Y91.590 F1000
G1 X25.375 Y93.289 F1000
G1 X26.546 Y94.737 F1000
G1 X27.278 Y95.366 F1000
G1 X28.099 Y95.928 F1000
G1 X29.988 Y96.828 F1000
G1 X32.205 Y97.428 F1000
G1 X34.749 Y97.728 F1000
G1 X36.145 Y97.765 F1000
G1 X38.899 Y97.660 F1000
G1 X41.488 Y97.346 F1000
G1 X42.721 Y97.114 F1000
G1 X45.035 Y96.490 F1000
G1 X46.118 Y96.097 F1000
G1 X46.118 Y96.097 F1000
G04 P0.5

M03

G04 P0.5
G0 X70.153 Y81.486 F3000
G04 P0.5

M05

G04 P0.5
G1 X67.282 Y81.397 F1000
G1 X63.872 Y80.932 F1000
G1 X62.195 Y80.400 F1000
G1 X61.535 Y80.067 F1000
G1 X60.973 Y79.681 F1000
G1 X60.073 Y78.720 F1000
G1 X59.473 Y77.507 F1000
G1 X59.173 Y76.042 F1000
G1 X59.136 Y75.215 F1000
G1 X59.164 Y74.550 F1000
G1 X59.389 Y73.325 F1000
G1 X59.840 Y72.242 F1000
G1 X60.515 Y71.298 F1000
G1 X60.938 Y70.879 F1000
G1 X61.408 Y70.505 F1000
G1 X62.470 Y69.906 F1000
G1 X64.363 Y69.382 F1000
G1 X65.826 Y69.282 F1000
G1 X66.868 Y69.330 F1000
G1 X68.792 Y69.708 F1000
G1 X70.505 Y70.464 F1000
G1 X72.006 Y71.598 F1000
G1 X72.677 Y72.306 F1000
G1 X73.281 Y73.094 F1000
G1 X74.248 Y74.854 F1000
G1 X74.892 Y76.864 F1000
G1 X75.215 Y79.122 F1000
G1 X75.255 Y80.344 F1000
G1 X75.255 Y81.486 F1000
G1 X70.153 Y81.486 F1000
G1 X70.153 Y81.486 F1000
G04 P0.5

M03

G04 P0.5
G0 X80.384 Y83.609 F3000
G04 P0.5

M05

G04 P0.5
G1 X80.384 Y65.795 F1000
G1 X75.255 Y65.795 F1000
G1 X75.255 Y70.531 F1000
G1 X74.322 Y69.206 F1000
G1 X72.132 Y67.109 F1000
G1 X70.875 Y66.339 F1000
G1 X69.491 Y65.746 F1000
G1 X66.284 Y65.068 F1000
G1 X64.461 Y64.983 F1000
G1 X63.294 Y65.025 F1000
G1 X61.143 Y65.362 F1000
G1 X59.237 Y66.035 F1000
G1 X57.574 Y67.045 F1000
G1 X56.834 Y67.677 F1000
G1 X56.172 Y68.379 F1000
G1 X55.111 Y69.953 F1000
G1 X54.404 Y71.755 F1000
G1 X54.051 Y73.784 F1000
G1 X54.007 Y74.884 F1000
G1 X54.062 Y76.160 F1000
G1 X54.502 Y78.468 F1000
G1 X55.383 Y80.453 F1000
G1 X56.704 Y82.114 F1000
G1 X57.530 Y82.824 F1000
G1 X58.467 Y83.451 F1000
G1 X60.666 Y84.454 F1000
G1 X63.298 Y85.123 F1000
G1 X66.362 Y85.458 F1000
G1 X68.056 Y85.500 F1000
G1 X75.255 Y85.500 F1000
G1 X75.255 Y86.008 F1000
G1 X75.219 Y86.868 F1000
G1 X74.928 Y88.438 F1000
G1 X74.346 Y89.808 F1000
G1 X73.472 Y90.976 F1000
G1 X72.927 Y91.485 F1000
G1 X72.315 Y91.939 F1000
G1 X70.916 Y92.665 F1000
G1 X69.281 Y93.149 F1000
G1 X67.411 Y93.391 F1000
G1 X66.388 Y93.421 F1000
G1 X65.058 Y93.381 F1000
G1 X62.449 Y93.060 F1000
G1 X61.170 Y92.779 F1000
G1 X59.915 Y92.418 F1000
G1 X57.480 Y91.454 F1000
G1 X56.299 Y90.852 F1000
G1 X56.299 Y95.598 F1000
G1 X57.694 Y96.107 F1000
G1 X60.424 Y96.919 F1000
G1 X61.758 Y97.221 F1000
G1 X63.074 Y97.459 F1000
G1 X65.652 Y97.731 F1000
G1 X66.914 Y97.765 F1000
G1 X68.556 Y97.710 F1000
G1 X71.516 Y97.271 F1000
G1 X74.047 Y96.392 F1000
G1 X76.149 Y95.074 F1000
G1 X77.039 Y94.251 F1000
G1 X77.823 Y93.317 F1000
G1 X79.078 Y91.111 F1000
G1 X79.914 Y88.450 F1000
G1 X80.332 Y85.336 F1000
G1 X80.384 Y83.609 F1000
G1 X80.384 Y83.609 F1000
G04 P0.5

M03

G04 P0.5
G0 X105.137 Y81.486 F3000
G04 P0.5

M05

G04 P0.5
G1 X102.267 Y81.397 F1000
G1 X98.857 Y80.932 F1000
G1 X97.180 Y80.400 F1000
G1 X96.520 Y80.067 F1000
G1 X95.958 Y79.681 F1000
G1 X95.058 Y78.720 F1000
G1 X94.458 Y77.507 F1000
G1 X94.158 Y76.042 F1000
G1 X94.121 Y75.215 F1000
G1 X94.149 Y74.550 F1000
G1 X94.374 Y73.325 F1000
G1 X94.824 Y72.242 F1000
G1 X95.500 Y71.298 F1000
G1 X95.922 Y70.879 F1000
G1 X96.393 Y70.505 F1000
G1 X97.455 Y69.906 F1000
G1 X99.348 Y69.382 F1000
G1 X100.811 Y69.282 F1000
G1 X101.853 Y69.330 F1000
G1 X103.777 Y69.708 F1000
G1 X105.490 Y70.464 F1000
G1 X106.991 Y71.598 F1000
G1 X107.662 Y72.306 F1000
G1 X108.266 Y73.094 F1000
G1 X109.233 Y74.854 F1000
G1 X109.877 Y76.864 F1000
G1 X110.199 Y79.122 F1000
G1 X110.240 Y80.344 F1000
G1 X110.240 Y81.486 F1000
G1 X105.137 Y81.486 F1000
G1 X105.137 Y81.486 F1000
G04 P0.5

M03

G04 P0.5
G0 X115.369 Y83.609 F3000
G04 P0.5

M05

G04 P0.5
G1 X115.369 Y65.795 F1000
G1 X110.240 Y65.795 F1000
G1 X110.240 Y70.531 F1000
G1 X109.307 Y69.206 F1000
G1 X107.117 Y67.109 F1000
G1 X105.860 Y66.339 F1000
G1 X104.475 Y65.746 F1000
G1 X101.269 Y65.068 F1000
G1 X99.446 Y64.983 F1000
G1 X98.279 Y65.025 F1000
G1 X96.128 Y65.362 F1000
G1 X94.221 Y66.035 F1000
G1 X92.559 Y67.045 F1000
G1 X91.819 Y67.677 F1000
G1 X91.156 Y68.379 F1000
G1 X90.096 Y69.953 F1000
G1 X89.389 Y71.755 F1000
G1 X89.035 Y73.784 F1000
G1 X88.991 Y74.884 F1000
G1 X89.046 Y76.160 F1000
G1 X89.487 Y78.468 F1000
G1 X90.368 Y80.453 F1000
G1 X91.689 Y82.114 F1000
G1 X92.515 Y82.824 F1000
G1 X93.452 Y83.451 F1000
G1 X95.651 Y84.454 F1000
G1 X98.282 Y85.123 F1000
G1 X101.347 Y85.458 F1000
G1 X103.041 Y85.500 F1000
G1 X110.240 Y85.500 F1000
G1 X110.240 Y86.008 F1000
G1 X110.203 Y86.868 F1000
G1 X109.912 Y88.438 F1000
G1 X109.330 Y89.808 F1000
G1 X108.457 Y90.976 F1000
G1 X107.911 Y91.485 F1000
G1 X107.300 Y91.939 F1000
G1 X105.901 Y92.665 F1000
G1 X104.266 Y93.149 F1000
G1 X102.396 Y93.391 F1000
G1 X101.373 Y93.421 F1000
G1 X100.043 Y93.381 F1000
G1 X97.434 Y93.060 F1000
G1 X96.154 Y92.779 F1000
G1 X94.900 Y92.418 F1000
G1 X92.465 Y91.454 F1000
G1 X91.284 Y90.852 F1000
G1 X91.284 Y95.598 F1000
G1 X92.679 Y96.107 F1000
G1 X95.408 Y96.919 F1000
G1 X96.743 Y97.221 F1000
G1 X98.059 Y97.459 F1000
G1 X100.637 Y97.731 F1000
G1 X101.899 Y97.765 F1000
G1 X103.540 Y97.710 F1000
G1 X106.501 Y97.271 F1000
G1 X109.032 Y96.392 F1000
G1 X111.134 Y95.074 F1000
G1 X112.024 Y94.251 F1000
G1 X112.808 Y93.317 F1000
G1 X114.062 Y91.111 F1000
G1 X114.898 Y88.450 F1000
G1 X115.317 Y85.336 F1000
G1 X115.369 Y83.609 F1000
G1 X115.369 Y83.609 F1000
G04 P0.5

M03

G04 P0.5
G0 X148.400 Y95.821 F3000
G04 P0.5

M05

G04 P0.5
G1 X148.400 Y91.021 F1000
G1 X147.311 Y91.586 F1000
G1 X145.130 Y92.487 F1000
G1 X144.038 Y92.823 F1000
G1 X142.942 Y93.085 F1000
G1 X140.735 Y93.384 F1000
G1 X139.622 Y93.421 F1000
G1 X138.408 Y93.372 F1000
G1 X136.189 Y92.976 F1000
G1 X134.249 Y92.184 F1000
G1 X132.588 Y90.997 F1000
G1 X131.862 Y90.254 F1000
G1 X131.216 Y89.425 F1000
G1 X130.182 Y87.526 F1000
G1 X129.493 Y85.307 F1000
G1 X129.148 Y82.768 F1000
G1 X129.105 Y81.379 F1000
G1 X129.148 Y79.989 F1000
G1 X129.493 Y77.449 F1000
G1 X130.182 Y75.228 F1000
G1 X131.216 Y73.325 F1000
G1 X131.862 Y72.494 F1000
G1 X132.588 Y71.754 F1000
G1 X134.249 Y70.570 F1000
G1 X136.189 Y69.780 F1000
G1 X138.408 Y69.385 F1000
G1 X139.622 Y69.336 F1000
G1 X140.735 Y69.373 F1000
G1 X142.942 Y69.672 F1000
G1 X144.038 Y69.934 F1000
G1 X145.130 Y70.270 F1000
G1 X147.311 Y71.171 F1000
G1 X148.400 Y71.736 F1000
G1 X148.400 Y66.990 F1000
G1 X147.316 Y66.522 F1000
G1 X145.090 Y65.772 F1000
G1 X143.949 Y65.491 F1000
G1 X142.783 Y65.269 F1000
G1 X140.339 Y65.015 F1000
G1 X139.060 Y64.983 F1000
G1 X137.342 Y65.052 F1000
G1 X134.176 Y65.606 F1000
G1 X131.373 Y66.715 F1000
G1 X128.932 Y68.377 F1000
G1 X127.847 Y69.416 F1000
G1 X126.875 Y70.573 F1000
G1 X125.320 Y73.177 F1000
G1 X124.283 Y76.167 F1000
G1 X123.764 Y79.545 F1000
G1 X123.699 Y81.379 F1000
G1 X123.765 Y83.236 F1000
G1 X124.289 Y86.646 F1000
G1 X125.337 Y89.648 F1000
G1 X126.909 Y92.242 F1000
G1 X127.892 Y93.385 F1000
G1 X128.991 Y94.412 F1000
G1 X131.480 Y96.054 F1000
G1 X134.357 Y97.149 F1000
G1 X137.621 Y97.697 F1000
G1 X139.399 Y97.765 F1000
G1 X140.575 Y97.735 F1000
G1 X142.885 Y97.489 F1000
G1 X144.020 Y97.275 F1000
G1 X145.140 Y97.003 F1000
G1 X147.330 Y96.276 F1000
G1 X148.400 Y95.821 F1000
G1 X148.400 Y95.821 F1000
G04 P0.5

M03

G04 P0.5
G0 X0.000 Y60.800 F3000
G04 P0.5

M05

G04 P0.5
G1 X152.400 Y60.800 F1000
G1 X152.400 Y111.600 F1000
G1 X0.000 Y111.600 F1000
G1 X0.000 Y60.800 F1000
G04 P0.5

M03

G04 P0.5
G0 X22.451 Y167.039 F3000
G04 P0.5

M05

G04 P0.5
G1 X42.835 Y167.039 F1000
G1 X42.835 Y163.363 F1000
G1 X26.811 Y163.363 F1000
G1 X26.811 Y153.820 F1000
G1 X42.165 Y153.820 F1000
G1 X42.165 Y150.151 F1000
G1 X26.811 Y150.151 F1000
G1 X26.811 Y138.466 F1000
G1 X43.222 Y138.466 F1000
G1 X43.222 Y134.797 F1000
G1 X22.451 Y134.797 F1000
G1 X22.451 Y167.039 F1000
G1 X22.451 Y167.039 F1000
G04 P0.5

M03

G04 P0.5
G0 X50.220 Y168.400 F3000
G04 P0.5

M05

G04 P0.5
G1 X54.194 Y168.400 F1000
G1 X54.194 Y134.797 F1000
G1 X50.220 Y134.797 F1000
G1 X50.220 Y168.400 F1000
G1 X50.220 Y168.400 F1000
G04 P0.5

M03

G04 P0.5
G0 X62.507 Y158.982 F3000
G04 P0.5

M05

G04 P0.5
G1 X66.480 Y158.982 F1000
G1 X66.480 Y134.797 F1000
G1 X62.507 Y134.797 F1000
G1 X62.507 Y158.982 F1000
G1 X62.507 Y158.982 F1000
G04 P0.5

M03

G04 P0.5
G0 X62.507 Y168.400 F3000
G04 P0.5

M05

G04 P0.5
G1 X66.480 Y168.400 F1000
G1 X66.480 Y163.363 F1000
G1 X62.507 Y163.363 F1000
G1 X62.507 Y168.400 F1000
G1 X62.507 Y168.400 F1000
G04 P0.5

M03

G04 P0.5
G0 X74.794 Y158.982 F3000
G04 P0.5

M05

G04 P0.5
G1 X78.767 Y158.982 F1000
G1 X78.767 Y134.362 F1000
G1 X78.740 Y133.248 F1000
G1 X78.519 Y131.257 F1000
G1 X78.079 Y129.585 F1000
G1 X77.418 Y128.231 F1000
G1 X77.005 Y127.673 F1000
G1 X76.533 Y127.187 F1000
G1 X75.385 Y126.410 F1000
G1 X73.969 Y125.892 F1000
G1 X72.283 Y125.632 F1000
G1 X71.339 Y125.600 F1000
G1 X69.826 Y125.600 F1000
G1 X69.826 Y128.965 F1000
G1 X70.890 Y128.965 F1000
G1 X71.932 Y129.031 F1000
G1 X73.156 Y129.375 F1000
G1 X73.745 Y129.769 F1000
G1 X73.972 Y130.015 F1000
G1 X74.164 Y130.312 F1000
G1 X74.473 Y131.116 F1000
G1 X74.742 Y132.852 F1000
G1 X74.794 Y134.362 F1000
G1 X74.794 Y158.982 F1000
G1 X74.794 Y158.982 F1000
G04 P0.5

M03

G04 P0.5
G0 X74.794 Y168.400 F3000
G04 P0.5

M05

G04 P0.5
G1 X78.767 Y168.400 F1000
G1 X78.767 Y163.363 F1000
G1 X74.794 Y163.363 F1000
G1 X74.794 Y168.400 F1000
G1 X74.794 Y168.400 F1000
G04 P0.5

M03

G04 P0.5
G0 X98.074 Y146.952 F3000
G04 P0.5

M05

G04 P0.5
G1 X95.851 Y146.883 F1000
G1 X93.209 Y146.522 F1000
G1 X91.910 Y146.110 F1000
G1 X91.399 Y145.853 F1000
G1 X90.964 Y145.554 F1000
G1 X90.267 Y144.809 F1000
G1 X89.802 Y143.870 F1000
G1 X89.569 Y142.735 F1000
G1 X89.540 Y142.094 F1000
G1 X89.562 Y141.579 F1000
G1 X89.737 Y140.631 F1000
G1 X90.086 Y139.791 F1000
G1 X90.609 Y139.060 F1000
G1 X90.936 Y138.736 F1000
G1 X91.301 Y138.446 F1000
G1 X92.123 Y137.982 F1000
G1 X93.590 Y137.576 F1000
G1 X94.723 Y137.499 F1000
G1 X95.530 Y137.535 F1000
G1 X97.021 Y137.828 F1000
G1 X98.347 Y138.414 F1000
G1 X99.510 Y139.292 F1000
G1 X100.030 Y139.841 F1000
G1 X100.498 Y140.451 F1000
G1 X101.247 Y141.815 F1000
G1 X101.746 Y143.371 F1000
G1 X101.995 Y145.120 F1000
G1 X102.027 Y146.067 F1000
G1 X102.027 Y146.952 F1000
G1 X98.074 Y146.952 F1000
G1 X98.074 Y146.952 F1000
G04 P0.5

M03

G04 P0.5
G0 X106.000 Y148.596 F3000
G04 P0.5

M05

G04 P0.5
G1 X106.000 Y134.797 F1000
G1 X102.027 Y134.797 F1000
G1 X102.027 Y138.466 F1000
G1 X101.304 Y137.439 F1000
G1 X99.608 Y135.815 F1000
G1 X98.634 Y135.219 F1000
G1 X97.562 Y134.759 F1000
G1 X95.077 Y134.234 F1000
G1 X93.666 Y134.168 F1000
G1 X92.762 Y134.201 F1000
G1 X91.096 Y134.462 F1000
G1 X89.619 Y134.983 F1000
G1 X88.331 Y135.766 F1000
G1 X87.758 Y136.255 F1000
G1 X87.244 Y136.799 F1000
G1 X86.423 Y138.018 F1000
G1 X85.875 Y139.414 F1000
G1 X85.601 Y140.986 F1000
G1 X85.567 Y141.838 F1000
G1 X85.610 Y142.826 F1000
G1 X85.951 Y144.614 F1000
G1 X86.633 Y146.152 F1000
G1 X87.657 Y147.439 F1000
G1 X88.297 Y147.988 F1000
G1 X89.023 Y148.474 F1000
G1 X90.726 Y149.251 F1000
G1 X92.764 Y149.770 F1000
G1 X95.138 Y150.029 F1000
G1 X96.450 Y150.061 F1000
G1 X102.027 Y150.061 F1000
G1 X102.027 Y150.455 F1000
G1 X101.998 Y151.121 F1000
G1 X101.773 Y152.337 F1000
G1 X101.322 Y153.398 F1000
G1 X100.646 Y154.303 F1000
G1 X100.223 Y154.698 F1000
G1 X99.750 Y155.049 F1000
G1 X98.666 Y155.611 F1000
G1 X97.399 Y155.986 F1000
G1 X95.951 Y156.174 F1000
G1 X95.158 Y156.197 F1000
G1 X94.128 Y156.166 F1000
G1 X92.107 Y155.917 F1000
G1 X91.116 Y155.700 F1000
G1 X90.144 Y155.420 F1000
G1 X88.258 Y154.673 F1000
G1 X87.343 Y154.207 F1000
G1 X87.343 Y157.883 F1000
G1 X88.424 Y158.278 F1000
G1 X90.538 Y158.907 F1000
G1 X91.572 Y159.141 F1000
G1 X92.591 Y159.325 F1000
G1 X94.588 Y159.536 F1000
G1 X95.566 Y159.562 F1000
G1 X96.837 Y159.520 F1000
G1 X99.130 Y159.179 F1000
G1 X101.091 Y158.499 F1000
G1 X102.719 Y157.478 F1000
G1 X103.409 Y156.840 F1000
G1 X104.016 Y156.117 F1000
G1 X104.988 Y154.408 F1000
G1 X105.635 Y152.347 F1000
G1 X105.959 Y149.934 F1000
G1 X106.000 Y148.596 F1000
G1 X106.000 Y148.596 F1000
G04 P0.5

M03

G04 P0.5
G0 X134.288 Y149.398 F3000
G04 P0.5

M05

G04 P0.5
G1 X134.288 Y134.797 F1000
G1 X130.315 Y134.797 F1000
G1 X130.315 Y149.266 F1000
G1 X130.294 Y150.098 F1000
G1 X130.126 Y151.598 F1000
G1 X129.791 Y152.882 F1000
G1 X129.289 Y153.948 F1000
G1 X128.974 Y154.401 F1000
G1 X128.618 Y154.801 F1000
G1 X127.782 Y155.441 F1000
G1 X126.778 Y155.867 F1000
G1 X125.607 Y156.081 F1000
G1 X124.960 Y156.107 F1000
G1 X124.176 Y156.075 F1000
G1 X122.736 Y155.819 F1000
G1 X121.467 Y155.306 F1000
G1 X120.367 Y154.536 F1000
G1 X119.881 Y154.055 F1000
G1 X119.445 Y153.520 F1000
G1 X118.748 Y152.310 F1000
G1 X118.284 Y150.913 F1000
G1 X118.051 Y149.328 F1000
G1 X118.022 Y148.465 F1000
G1 X118.022 Y134.797 F1000
G1 X114.028 Y134.797 F1000
G1 X114.028 Y168.400 F1000
G1 X118.022 Y168.400 F1000
G1 X118.022 Y155.223 F1000
G1 X118.769 Y156.245 F1000
G1 X120.448 Y157.876 F1000
G1 X121.380 Y158.484 F1000
G1 X122.385 Y158.956 F1000
G1 X124.617 Y159.495 F1000
G1 X125.844 Y159.562 F1000
G1 X126.854 Y159.522 F1000
G1 X128.684 Y159.200 F1000
G1 X130.259 Y158.555 F1000
G1 X131.581 Y157.589 F1000
G1 X132.146 Y156.985 F1000
G1 X132.648 Y156.302 F1000
G1 X133.451 Y154.710 F1000
G1 X133.987 Y152.813 F1000
G1 X134.255 Y150.612 F1000
G1 X134.288 Y149.398 F1000
G1 X134.288 Y149.398 F1000
G04 P0.5

M03

G04 P0.5
G0 X0.000 Y121.600 F3000
G04 P0.5

M05

G04 P0.5
G1 X152.400 Y121.600 F1000
G1 X152.400 Y172.400 F1000
G1 X0.000 Y172.400 F1000
G1 X0.000 Y121.600 F1000
G04 P0.5

M03

G04 P0.5
G0 X13.357 Y229.200 F3000
G04 P0.5

M05

G04 P0.5
G1 X17.861 Y229.200 F1000
G1 X17.861 Y199.689 F1000
G1 X34.076 Y199.689 F1000
G1 X34.076 Y195.899 F1000
G1 X13.357 Y195.899 F1000
G1 X13.357 Y229.200 F1000
G1 X13.357 Y229.200 F1000
G04 P0.5

M03

G04 P0.5
G0 X47.505 Y218.002 F3000
G04 P0.5

M05

G04 P0.5
G1 X46.702 Y217.962 F1000
G1 X45.226 Y217.640 F1000
G1 X43.921 Y216.996 F1000
G1 X42.789 Y216.030 F1000
G1 X42.288 Y215.426 F1000
G1 X41.838 Y214.752 F1000
G1 X41.118 Y213.225 F1000
G1 X40.638 Y211.461 F1000
G1 X40.398 Y209.458 F1000
G1 X40.368 Y208.367 F1000
G1 X40.398 Y207.277 F1000
G1 X40.636 Y205.274 F1000
G1 X41.112 Y203.509 F1000
G1 X41.827 Y201.983 F1000
G1 X42.273 Y201.309 F1000
G1 X42.774 Y200.705 F1000
G1 X43.906 Y199.739 F1000
G1 X45.213 Y199.095 F1000
G1 X46.697 Y198.773 F1000
G1 X47.505 Y198.733 F1000
G1 X48.304 Y198.773 F1000
G1 X49.774 Y199.096 F1000
G1 X51.073 Y199.742 F1000
G1 X52.201 Y200.711 F1000
G1 X52.700 Y201.316 F1000
G1 X53.150 Y201.993 F1000
G1 X53.870 Y203.522 F1000
G1 X54.350 Y205.285 F1000
G1 X54.590 Y207.281 F1000
G1 X54.620 Y208.367 F1000
G1 X54.590 Y209.448 F1000
G1 X54.350 Y211.438 F1000
G1 X53.870 Y213.197 F1000
G1 X53.150 Y214.726 F1000
G1 X52.700 Y215.404 F1000
G1 X52.201 Y216.013 F1000
G1 X51.073 Y216.987 F1000
G1 X49.774 Y217.637 F1000
G1 X48.304 Y217.962 F1000
G1 X47.505 Y218.002 F1000
G1 X47.505 Y218.002 F1000
G04 P0.5

M03

G04 P0.5
G0 X47.505 Y221.478 F3000
G04 P0.5

M05

G04 P0.5
G1 X48.807 Y221.423 F1000
G1 X51.196 Y220.988 F1000
G1 X53.298 Y220.117 F1000
G1 X55.112 Y218.811 F1000
G1 X55.912 Y217.995 F1000
G1 X56.630 Y217.084 F1000
G1 X57.778 Y215.012 F1000
G1 X58.543 Y212.605 F1000
G1 X58.926 Y209.864 F1000
G1 X58.974 Y208.367 F1000
G1 X58.926 Y206.876 F1000
G1 X58.543 Y204.140 F1000
G1 X57.778 Y201.733 F1000
G1 X56.630 Y199.655 F1000
G1 X55.912 Y198.740 F1000
G1 X55.112 Y197.922 F1000
G1 X53.298 Y196.613 F1000
G1 X51.196 Y195.741 F1000
G1 X48.807 Y195.304 F1000
G1 X47.505 Y195.250 F1000
G1 X46.198 Y195.304 F1000
G1 X43.801 Y195.741 F1000
G1 X41.696 Y196.613 F1000
G1 X39.881 Y197.922 F1000
G1 X39.083 Y198.740 F1000
G1 X38.371 Y199.655 F1000
G1 X37.231 Y201.733 F1000
G1 X36.470 Y204.140 F1000
G1 X36.090 Y206.876 F1000
G1 X36.043 Y208.367 F1000
G1 X36.090 Y209.864 F1000
G1 X36.470 Y212.605 F1000
G1 X37.231 Y215.012 F1000
G1 X38.371 Y217.084 F1000
G1 X39.083 Y217.995 F1000
G1 X39.881 Y218.811 F1000
G1 X41.696 Y220.117 F1000
G1 X43.801 Y220.988 F1000
G1 X46.198 Y221.423 F1000
G1 X47.505 Y221.478 F1000
G1 X47.505 Y221.478 F1000
G04 P0.5

M03

G04 P0.5
G0 X82.209 Y208.681 F3000
G04 P0.5

M05

G04 P0.5
G1 X82.180 Y209.765 F1000
G1 X81.950 Y211.744 F1000
G1 X81.490 Y213.471 F1000
G1 X80.799 Y214.946 F1000
G1 X80.368 Y215.590 F1000
G1 X79.886 Y216.165 F1000
G1 X78.782 Y217.086 F1000
G1 X77.492 Y217.700 F1000
G1 X76.016 Y218.007 F1000
G1 X75.208 Y218.045 F1000
G1 X74.406 Y218.007 F1000
G1 X72.939 Y217.700 F1000
G1 X71.655 Y217.086 F1000
G1 X70.552 Y216.165 F1000
G1 X70.069 Y215.590 F1000
G1 X69.637 Y214.946 F1000
G1 X68.947 Y213.471 F1000
G1 X68.487 Y211.744 F1000
G1 X68.256 Y209.765 F1000
G1 X68.228 Y208.681 F1000
G1 X68.256 Y207.603 F1000
G1 X68.487 Y205.631 F1000
G1 X68.947 Y203.907 F1000
G1 X69.637 Y202.432 F1000
G1 X70.069 Y201.787 F1000
G1 X70.552 Y201.212 F1000
G1 X71.655 Y200.291 F1000
G1 X72.939 Y199.677 F1000
G1 X74.406 Y199.370 F1000
G1 X75.208 Y199.332 F1000
G1 X76.016 Y199.370 F1000
G1 X77.492 Y199.677 F1000
G1 X78.782 Y200.291 F1000
G1 X79.886 Y201.212 F1000
G1 X80.368 Y201.787 F1000
G1 X80.799 Y202.432 F1000
G1 X81.490 Y203.907 F1000
G1 X81.950 Y205.631 F1000
G1 X82.180 Y207.603 F1000
G1 X82.209 Y208.681 F1000
G1 X82.209 Y208.681 F1000
G04 P0.5

M03

G04 P0.5
G0 X86.313 Y198.997 F3000
G04 P0.5

M05

G04 P0.5
G1 X86.268 Y197.454 F1000
G1 X85.914 Y194.675 F1000
G1 X85.206 Y192.304 F1000
G1 X84.143 Y190.341 F1000
G1 X83.479 Y189.512 F1000
G1 X82.725 Y188.782 F1000
G1 X80.935 Y187.616 F1000
G1 X78.767 Y186.838 F1000
G1 X76.222 Y186.449 F1000
G1 X74.808 Y186.400 F1000
G1 X72.706 Y186.480 F1000
G1 X70.726 Y186.721 F1000
G1 X68.834 Y187.130 F1000
G1 X67.000 Y187.713 F1000
G1 X67.000 Y191.703 F1000
G1 X67.900 Y191.246 F1000
G1 X69.684 Y190.525 F1000
G1 X70.569 Y190.261 F1000
G1 X71.454 Y190.055 F1000
G1 X73.249 Y189.819 F1000
G1 X74.158 Y189.790 F1000
G1 X75.136 Y189.823 F1000
G1 X76.902 Y190.086 F1000
G1 X78.413 Y190.612 F1000
G1 X79.670 Y191.402 F1000
G1 X80.203 Y191.895 F1000
G1 X80.673 Y192.455 F1000
G1 X81.425 Y193.778 F1000
G1 X81.927 Y195.369 F1000
G1 X82.177 Y197.230 F1000
G1 X82.209 Y198.262 F1000
G1 X82.209 Y200.296 F1000
G1 X81.529 Y199.259 F1000
G1 X79.902 Y197.607 F1000
G1 X78.954 Y196.991 F1000
G1 X77.913 Y196.513 F1000
G1 X75.537 Y195.967 F1000
G1 X74.201 Y195.899 F1000
G1 X73.082 Y195.954 F1000
G1 X71.009 Y196.391 F1000
G1 X69.159 Y197.265 F1000
G1 X67.531 Y198.577 F1000
G1 X66.800 Y199.396 F1000
G1 X66.141 Y200.308 F1000
G1 X65.087 Y202.345 F1000
G1 X64.384 Y204.666 F1000
G1 X64.032 Y207.272 F1000
G1 X63.988 Y208.681 F1000
G1 X64.032 Y210.094 F1000
G1 X64.384 Y212.705 F1000
G1 X65.087 Y215.028 F1000
G1 X66.141 Y217.063 F1000
G1 X66.800 Y217.974 F1000
G1 X67.531 Y218.795 F1000
G1 X69.159 Y220.109 F1000
G1 X71.009 Y220.985 F1000
G1 X73.082 Y221.423 F1000
G1 X74.201 Y221.478 F1000
G1 X75.537 Y221.410 F1000
G1 X77.913 Y220.864 F1000
G1 X78.954 Y220.386 F1000
G1 X79.902 Y219.770 F1000
G1 X81.529 Y218.122 F1000
G1 X82.209 Y217.089 F1000
G1 X82.209 Y220.878 F1000
G1 X86.313 Y220.878 F1000
G1 X86.313 Y198.997 F1000
G1 X86.313 Y198.997 F1000
G04 P0.5

M03

G04 P0.5
G0 X106.121 Y208.453 F3000
G04 P0.5

M05

G04 P0.5
G1 X103.825 Y208.382 F1000
G1 X101.096 Y208.010 F1000
G1 X99.754 Y207.584 F1000
G1 X99.227 Y207.318 F1000
G1 X98.777 Y207.009 F1000
G1 X98.057 Y206.240 F1000
G1 X97.577 Y205.270 F1000
G1 X97.337 Y204.098 F1000
G1 X97.307 Y203.436 F1000
G1 X97.329 Y202.904 F1000
G1 X97.510 Y201.924 F1000
G1 X97.870 Y201.057 F1000
G1 X98.411 Y200.302 F1000
G1 X98.749 Y199.967 F1000
G1 X99.125 Y199.668 F1000
G1 X99.974 Y199.189 F1000
G1 X101.489 Y198.770 F1000
G1 X102.660 Y198.690 F1000
G1 X103.493 Y198.728 F1000
G1 X105.033 Y199.030 F1000
G1 X106.403 Y199.635 F1000
G1 X107.604 Y200.542 F1000
G1 X108.141 Y201.109 F1000
G1 X108.624 Y201.739 F1000
G1 X109.398 Y203.148 F1000
G1 X109.913 Y204.755 F1000
G1 X110.171 Y206.562 F1000
G1 X110.203 Y207.540 F1000
G1 X110.203 Y208.453 F1000
G1 X106.121 Y208.453 F1000
G1 X106.121 Y208.453 F1000
G04 P0.5

M03

G04 P0.5
G0 X114.307 Y210.152 F3000
G04 P0.5

M05

G04 P0.5
G1 X114.307 Y195.899 F1000
G1 X110.203 Y195.899 F1000
G1 X110.203 Y199.689 F1000
G1 X109.457 Y198.628 F1000
G1 X107.705 Y196.951 F1000
G1 X106.699 Y196.335 F1000
G1 X105.592 Y195.860 F1000
G1 X103.026 Y195.318 F1000
G1 X101.568 Y195.250 F1000
G1 X100.634 Y195.283 F1000
G1 X98.913 Y195.553 F1000
G1 X97.388 Y196.092 F1000
G1 X96.057 Y196.900 F1000
G1 X95.466 Y197.405 F1000
G1 X94.935 Y197.967 F1000
G1 X94.087 Y199.226 F1000
G1 X93.521 Y200.668 F1000
G1 X93.239 Y202.292 F1000
G1 X93.203 Y203.172 F1000
G1 X93.247 Y204.192 F1000
G1 X93.600 Y206.039 F1000
G1 X94.304 Y207.627 F1000
G1 X95.362 Y208.956 F1000
G1 X96.022 Y209.524 F1000
G1 X96.772 Y210.025 F1000
G1 X98.531 Y210.828 F1000
G1 X100.637 Y211.364 F1000
G1 X103.088 Y211.631 F1000
G1 X104.444 Y211.665 F1000
G1 X110.203 Y211.665 F1000
G1 X110.203 Y212.071 F1000
G1 X110.174 Y212.760 F1000
G1 X109.941 Y214.016 F1000
G1 X109.476 Y215.111 F1000
G1 X108.777 Y216.046 F1000
G1 X108.341 Y216.453 F1000
G1 X107.851 Y216.816 F1000
G1 X106.732 Y217.397 F1000
G1 X105.424 Y217.784 F1000
G1 X103.928 Y217.978 F1000
G1 X103.109 Y218.002 F1000
G1 X102.045 Y217.970 F1000
G1 X99.958 Y217.713 F1000
G1 X98.934 Y217.488 F1000
G1 X97.931 Y217.199 F1000
G1 X95.982 Y216.429 F1000
G1 X95.037 Y215.947 F1000
G1 X95.037 Y219.744 F1000
G1 X96.153 Y220.151 F1000
G1 X98.337 Y220.801 F1000
G1 X99.405 Y221.043 F1000
G1 X100.458 Y221.233 F1000
G1 X102.520 Y221.451 F1000
G1 X103.530 Y221.478 F1000
G1 X104.843 Y221.434 F1000
G1 X107.212 Y221.082 F1000
G1 X109.237 Y220.379 F1000
G1 X110.919 Y219.325 F1000
G1 X111.631 Y218.666 F1000
G1 X112.258 Y217.919 F1000
G1 X113.262 Y216.154 F1000
G1 X113.931 Y214.025 F1000
G1 X114.265 Y211.534 F1000
G1 X114.307 Y210.152 F1000
G1 X114.307 Y210.152 F1000
G04 P0.5

M03

G04 P0.5
G0 X143.525 Y210.979 F3000
G04 P0.5

M05

G04 P0.5
G1 X143.525 Y195.899 F1000
G1 X139.421 Y195.899 F1000
G1 X139.421 Y210.844 F1000
G1 X139.399 Y211.703 F1000
G1 X139.226 Y213.252 F1000
G1 X138.880 Y214.578 F1000
G1 X138.361 Y215.680 F1000
G1 X138.036 Y216.147 F1000
G1 X137.669 Y216.560 F1000
G1 X136.804 Y217.221 F1000
G1 X135.768 Y217.662 F1000
G1 X134.559 Y217.882 F1000
G1 X133.890 Y217.909 F1000
G1 X133.080 Y217.876 F1000
G1 X131.593 Y217.611 F1000
G1 X130.282 Y217.081 F1000
G1 X129.146 Y216.287 F1000
G1 X128.644 Y215.790 F1000
G1 X128.194 Y215.237 F1000
G1 X127.474 Y213.988 F1000
G1 X126.994 Y212.544 F1000
G1 X126.754 Y210.907 F1000
G1 X126.724 Y210.016 F1000
G1 X126.724 Y195.899 F1000
G1 X122.599 Y195.899 F1000
G1 X122.599 Y220.878 F1000
G1 X126.724 Y220.878 F1000
G1 X126.724 Y216.996 F1000
G1 X127.495 Y218.052 F1000
G1 X129.229 Y219.736 F1000
G1 X130.193 Y220.365 F1000
G1 X131.230 Y220.852 F1000
G1 X133.536 Y221.408 F1000
G1 X134.803 Y221.478 F1000
G1 X135.846 Y221.436 F1000
G1 X137.736 Y221.104 F1000
G1 X139.363 Y220.438 F1000
G1 X140.728 Y219.440 F1000
G1 X141.312 Y218.816 F1000
G1 X141.831 Y218.111 F1000
G1 X142.660 Y216.466 F1000
G1 X143.214 Y214.507 F1000
G1 X143.490 Y212.234 F1000
G1 X143.525 Y210.979 F1000
G1 X143.525 Y210.979 F1000
G04 P0.5

M03

G04 P0.5
G0 X0.000 Y182.400 F3000
G04 P0.5

M05

G04 P0.5
G1 X152.400 Y182.400 F1000
G1 X152.400 Y233.200 F1000
G1 X0.000 Y233.200 F1000
G1 X0.000 Y182.400 F1000
G04 P0.5

M03

G04 P0.5
G0 X37.656 Y253.740 F3000
G04 P0.5

M05

G04 P0.5
G1 X37.656 Y264.565 F1000
G1 X28.749 Y264.565 F1000
G1 X28.749 Y269.049 F1000
G1 X43.056 Y269.049 F1000
G1 X43.056 Y251.736 F1000
G1 X41.438 Y250.685 F1000
G1 X37.956 Y248.992 F1000
G1 X36.092 Y248.349 F1000
G1 X34.159 Y247.846 F1000
G1 X30.099 Y247.272 F1000
G1 X27.971 Y247.200 F1000
G1 X25.673 Y247.286 F1000
G1 X21.461 Y247.976 F1000
G1 X17.763 Y249.356 F1000
G1 X14.579 Y251.427 F1000
G1 X13.180 Y252.721 F1000
G1 X11.931 Y254.170 F1000
G1 X9.932 Y257.475 F1000
G1 X8.599 Y261.320 F1000
G1 X7.933 Y265.704 F1000
G1 X7.850 Y268.099 F1000
G1 X7.933 Y270.502 F1000
G1 X8.599 Y274.898 F1000
G1 X9.932 Y278.749 F1000
G1 X11.931 Y282.055 F1000
G1 X13.180 Y283.503 F1000
G1 X14.579 Y284.797 F1000
G1 X17.763 Y286.867 F1000
G1 X21.461 Y288.247 F1000
G1 X25.673 Y288.937 F1000
G1 X27.971 Y289.024 F1000
G1 X29.917 Y288.963 F1000
G1 X33.662 Y288.475 F1000
G1 X35.462 Y288.047 F1000
G1 X37.202 Y287.506 F1000
G1 X40.477 Y286.076 F1000
G1 X42.010 Y285.188 F1000
G1 X42.010 Y279.382 F1000
G1 X40.475 Y280.586 F1000
G1 X37.261 Y282.517 F1000
G1 X35.583 Y283.244 F1000
G1 X33.859 Y283.811 F1000
G1 X30.282 Y284.459 F1000
G1 X28.429 Y284.540 F1000
G1 X26.636 Y284.475 F1000
G1 X23.395 Y283.959 F1000
G1 X20.615 Y282.927 F1000
G1 X18.296 Y281.378 F1000
G1 X17.310 Y280.410 F1000
G1 X16.441 Y279.314 F1000
G1 X15.051 Y276.743 F1000
G1 X14.125 Y273.665 F1000
G1 X13.662 Y270.081 F1000
G1 X13.604 Y268.099 F1000
G1 X13.662 Y266.123 F1000
G1 X14.125 Y262.548 F1000
G1 X15.051 Y259.477 F1000
G1 X16.441 Y256.909 F1000
G1 X17.310 Y255.814 F1000
G1 X18.296 Y254.846 F1000
G1 X20.615 Y253.297 F1000
G1 X23.395 Y252.265 F1000
G1 X26.636 Y251.748 F1000
G1 X28.429 Y251.684 F1000
G1 X29.833 Y251.715 F1000
G1 X32.408 Y251.966 F1000
G1 X33.578 Y252.185 F1000
G1 X34.685 Y252.470 F1000
G1 X36.724 Y253.248 F1000
G1 X37.656 Y253.740 F1000
G1 X37.656 Y253.740 F1000
G04 P0.5

M03

G04 P0.5
G0 X66.550 Y263.183 F3000
G04 P0.5

M05

G04 P0.5
G1 X63.770 Y263.097 F1000
G1 X60.467 Y262.646 F1000
G1 X58.843 Y262.131 F1000
G1 X58.204 Y261.809 F1000
G1 X57.659 Y261.435 F1000
G1 X56.788 Y260.505 F1000
G1 X56.207 Y259.330 F1000
G1 X55.916 Y257.911 F1000
G1 X55.880 Y257.109 F1000
G1 X55.907 Y256.466 F1000
G1 X56.125 Y255.280 F1000
G1 X56.562 Y254.230 F1000
G1 X57.216 Y253.316 F1000
G1 X57.625 Y252.911 F1000
G1 X58.081 Y252.548 F1000
G1 X59.109 Y251.968 F1000
G1 X60.943 Y251.461 F1000
G1 X62.360 Y251.364 F1000
G1 X63.368 Y251.410 F1000
G1 X65.232 Y251.776 F1000
G1 X66.891 Y252.508 F1000
G1 X68.345 Y253.607 F1000
G1 X68.995 Y254.293 F1000
G1 X69.580 Y255.055 F1000
G1 X70.516 Y256.761 F1000
G1 X71.140 Y258.707 F1000
G1 X71.452 Y260.893 F1000
G1 X71.491 Y262.077 F1000
G1 X71.491 Y263.183 F1000
G1 X66.550 Y263.183 F1000
G1 X66.550 Y263.183 F1000
G04 P0.5

M03

G04 P0.5
G0 X76.459 Y265.239 F3000
G04 P0.5

M05

G04 P0.5
G1 X76.459 Y247.986 F1000
G1 X71.491 Y247.986 F1000
G1 X71.491 Y252.574 F1000
G1 X70.588 Y251.290 F1000
G1 X68.467 Y249.259 F1000
G1 X67.249 Y248.513 F1000
G1 X65.909 Y247.939 F1000
G1 X62.803 Y247.282 F1000
G1 X61.038 Y247.200 F1000
G1 X59.907 Y247.241 F1000
G1 X57.824 Y247.567 F1000
G1 X55.978 Y248.219 F1000
G1 X54.367 Y249.198 F1000
G1 X53.651 Y249.809 F1000
G1 X53.009 Y250.489 F1000
G1 X51.982 Y252.014 F1000
G1 X51.297 Y253.759 F1000
G1 X50.955 Y255.724 F1000
G1 X50.912 Y256.790 F1000
G1 X50.966 Y258.025 F1000
G1 X51.392 Y260.260 F1000
G1 X52.245 Y262.183 F1000
G1 X53.525 Y263.792 F1000
G1 X54.325 Y264.479 F1000
G1 X55.233 Y265.086 F1000
G1 X57.362 Y266.058 F1000
G1 X59.911 Y266.706 F1000
G1 X62.878 Y267.030 F1000
G1 X64.519 Y267.071 F1000
G1 X71.491 Y267.071 F1000
G1 X71.491 Y267.563 F1000
G1 X71.456 Y268.396 F1000
G1 X71.174 Y269.917 F1000
G1 X70.611 Y271.243 F1000
G1 X69.765 Y272.375 F1000
G1 X69.237 Y272.868 F1000
G1 X68.644 Y273.307 F1000
G1 X67.289 Y274.010 F1000
G1 X65.706 Y274.479 F1000
G1 X63.895 Y274.713 F1000
G1 X62.904 Y274.743 F1000
G1 X61.616 Y274.704 F1000
G1 X59.089 Y274.393 F1000
G1 X57.850 Y274.121 F1000
G1 X56.635 Y273.771 F1000
G1 X54.276 Y272.838 F1000
G1 X53.133 Y272.255 F1000
G1 X53.133 Y276.851 F1000
G1 X54.484 Y277.344 F1000
G1 X57.127 Y278.130 F1000
G1 X58.420 Y278.423 F1000
G1 X59.694 Y278.654 F1000
G1 X62.191 Y278.917 F1000
G1 X63.414 Y278.950 F1000
G1 X65.003 Y278.897 F1000
G1 X67.870 Y278.471 F1000
G1 X70.322 Y277.620 F1000
G1 X72.357 Y276.344 F1000
G1 X73.219 Y275.546 F1000
G1 X73.979 Y274.642 F1000
G1 X75.194 Y272.505 F1000
G1 X76.004 Y269.928 F1000
G1 X76.409 Y266.912 F1000
G1 X76.459 Y265.239 F1000
G1 X76.459 Y265.239 F1000
G04 P0.5

M03

G04 P0.5
G0 X108.398 Y263.079 F3000
G04 P0.5

M05

G04 P0.5
G1 X108.363 Y264.412 F1000
G1 X108.081 Y266.856 F1000
G1 X107.517 Y269.005 F1000
G1 X106.672 Y270.859 F1000
G1 X106.143 Y271.676 F1000
G1 X105.553 Y272.407 F1000
G1 X104.215 Y273.576 F1000
G1 X102.667 Y274.356 F1000
G1 X100.907 Y274.746 F1000
G1 X99.949 Y274.795 F1000
G1 X98.988 Y274.746 F1000
G1 X97.226 Y274.356 F1000
G1 X95.675 Y273.576 F1000
G1 X94.336 Y272.407 F1000
G1 X93.746 Y271.676 F1000
G1 X93.217 Y270.859 F1000
G1 X92.372 Y269.005 F1000
G1 X91.808 Y266.856 F1000
G1 X91.526 Y264.412 F1000
G1 X91.491 Y263.079 F1000
G1 X91.526 Y261.747 F1000
G1 X91.808 Y259.303 F1000
G1 X92.372 Y257.154 F1000
G1 X93.217 Y255.300 F1000
G1 X93.746 Y254.483 F1000
G1 X94.336 Y253.752 F1000
G1 X95.675 Y252.583 F1000
G1 X97.226 Y251.803 F1000
G1 X98.988 Y251.413 F1000
G1 X99.949 Y251.364 F1000
G1 X100.907 Y251.413 F1000
G1 X102.667 Y251.803 F1000
G1 X104.215 Y252.583 F1000
G1 X105.553 Y253.752 F1000
G1 X106.143 Y254.483 F1000
G1 X106.672 Y255.300 F1000
G1 X107.517 Y257.154 F1000
G1 X108.081 Y259.303 F1000
G1 X108.363 Y261.747 F1000
G1 X108.398 Y263.079 F1000
G1 X108.398 Y263.079 F1000
G04 P0.5

M03

G04 P0.5
G0 X91.491 Y273.637 F3000
G04 P0.5

M05

G04 P0.5
G1 X92.328 Y274.898 F1000
G1 X94.306 Y276.898 F1000
G1 X95.448 Y277.637 F1000
G1 X96.702 Y278.211 F1000
G1 X99.557 Y278.868 F1000
G1 X101.158 Y278.950 F1000
G1 X102.504 Y278.882 F1000
G1 X105.001 Y278.335 F1000
G1 X107.238 Y277.242 F1000
G1 X109.217 Y275.603 F1000
G1 X110.109 Y274.579 F1000
G1 X110.917 Y273.443 F1000
G1 X112.210 Y270.912 F1000
G1 X113.071 Y268.037 F1000
G1 X113.502 Y264.818 F1000
G1 X113.556 Y263.079 F1000
G1 X113.502 Y261.340 F1000
G1 X113.071 Y258.120 F1000
G1 X112.210 Y255.243 F1000
G1 X110.917 Y252.710 F1000
G1 X110.109 Y251.572 F1000
G1 X109.217 Y250.547 F1000
G1 X107.238 Y248.908 F1000
G1 X105.001 Y247.815 F1000
G1 X102.504 Y247.268 F1000
G1 X101.158 Y247.200 F1000
G1 X99.557 Y247.282 F1000
G1 X96.702 Y247.939 F1000
G1 X95.448 Y248.513 F1000
G1 X94.306 Y249.256 F1000
G1 X92.328 Y251.261 F1000
G1 X91.491 Y252.522 F1000
G1 X91.491 Y247.986 F1000
G1 X86.497 Y247.986 F1000
G1 X86.497 Y290.000 F1000
G1 X91.491 Y290.000 F1000
G1 X91.491 Y273.637 F1000
G1 X91.491 Y273.637 F1000
G04 P0.5

M03

G04 P0.5
G0 X147.652 Y264.349 F3000
G04 P0.5

M05

G04 P0.5
G1 X147.652 Y261.922 F1000
G1 X124.809 Y261.922 F1000
G1 X124.929 Y260.677 F1000
G1 X125.398 Y258.417 F1000
G1 X126.171 Y256.462 F1000
G1 X127.249 Y254.813 F1000
G1 X127.902 Y254.103 F1000
G1 X128.627 Y253.473 F1000
G1 X130.282 Y252.466 F1000
G1 X132.208 Y251.794 F1000
G1 X134.407 Y251.458 F1000
G1 X135.608 Y251.416 F1000
G1 X137.027 Y251.460 F1000
G1 X139.801 Y251.810 F1000
G1 X141.155 Y252.116 F1000
G1 X142.496 Y252.510 F1000
G1 X145.166 Y253.564 F1000
G1 X146.494 Y254.224 F1000
G1 X146.494 Y249.524 F1000
G1 X145.147 Y248.992 F1000
G1 X142.404 Y248.128 F1000
G1 X141.008 Y247.796 F1000
G1 X139.599 Y247.535 F1000
G1 X136.753 Y247.237 F1000
G1 X135.315 Y247.200 F1000
G1 X133.552 Y247.266 F1000
G1 X130.309 Y247.792 F1000
G1 X127.443 Y248.844 F1000
G1 X124.953 Y250.421 F1000
G1 X123.850 Y251.407 F1000
G1 X122.860 Y252.508 F1000
G1 X121.276 Y254.987 F1000
G1 X120.219 Y257.838 F1000
G1 X119.691 Y261.061 F1000
G1 X119.625 Y262.812 F1000
G1 X119.688 Y264.619 F1000
G1 X120.189 Y267.946 F1000
G1 X121.191 Y270.890 F1000
G1 X122.694 Y273.451 F1000
G1 X123.634 Y274.587 F1000
G1 X124.680 Y275.610 F1000
G1 X127.034 Y277.246 F1000
G1 X129.738 Y278.337 F1000
G1 X132.792 Y278.882 F1000
G1 X134.451 Y278.950 F1000
G1 X135.936 Y278.889 F1000
G1 X138.667 Y278.397 F1000
G1 X141.079 Y277.415 F1000
G1 X143.173 Y275.940 F1000
G1 X144.101 Y275.019 F1000
G1 X144.933 Y273.994 F1000
G1 X146.265 Y271.680 F1000
G1 X147.152 Y269.013 F1000
G1 X147.596 Y265.992 F1000
G1 X147.652 Y264.349 F1000
G1 X147.652 Y264.349 F1000
G04 P0.5

M03

G04 P0.5
G0 X142.684 Y265.809 F3000
G04 P0.5

M05

G04 P0.5
G1 X142.637 Y266.801 F1000
G1 X142.339 Y268.631 F1000
G1 X141.769 Y270.255 F1000
G1 X140.926 Y271.674 F1000
G1 X140.403 Y272.306 F1000
G1 X139.823 Y272.877 F1000
G1 X138.529 Y273.791 F1000
G1 X137.053 Y274.400 F1000
G1 X135.398 Y274.705 F1000
G1 X134.502 Y274.743 F1000
G1 X133.489 Y274.706 F1000
G1 X131.619 Y274.412 F1000
G1 X129.956 Y273.825 F1000
G1 X128.500 Y272.944 F1000
G1 X127.850 Y272.393 F1000
G1 X127.259 Y271.775 F1000
G1 X126.275 Y270.361 F1000
G1 X125.556 Y268.706 F1000
G1 X125.101 Y266.812 F1000
G1 X124.973 Y265.775 F1000
G1 X142.684 Y265.809 F1000
G1 X142.684 Y265.809 F1000
G04 P0.5

M03

G04 P0.5
G0 X0.000 Y243.200 F3000
G04 P0.5

M05

G04 P0.5
G1 X152.400 Y243.200 F1000
G1 X152.400 Y294.000 F1000
G1 X0.000 Y294.000 F1000
G1 X0.000 Y243.200 F1000
G04 P0.5

M03

G04 P0.5
G04 P0.5

M03

G04 P0.5
G0 X0 Y0 F3000