G21 ; units = mm
G90 ; absolute coords
G04 P0.5

M03

G04 P0.5
G0 X8.968 Y43.437 F3000
G04 P0.5

M05

G04 P0.5
G1 X16.412 Y43.437 F1000
G1 X25.826 Y18.320 F1000
G1 X35.295 Y43.437 F1000
G1 X42.739 Y43.437 F1000
G1 X42.739 Y6.525 F1000
G1 X37.866 Y6.525 F1000
G1 X37.866 Y38.935 F1000
G1 X28.349 Y13.621 F1000
G1 X23.334 Y13.621 F1000
G1 X13.817 Y38.935 F1000
G1 X13.817 Y6.525 F1000
G1 X8.968 Y6.525 F1000
G1 X8.968 Y43.437 F1000
G04 P0.5

M03

G04 P0.5
G0 X52.452 Y34.213 F3000
G04 P0.5

M05

G04 P0.5
G1 X57.001 Y34.213 F1000
G1 X57.001 Y6.525 F1000
G1 X52.452 Y6.525 F1000
G1 X52.452 Y34.213 F1000
G04 P0.5

M03

G04 P0.5
G0 X52.452 Y44.995 F3000
G04 P0.5

M05

G04 P0.5
G1 X57.001 Y44.995 F1000
G1 X57.001 Y39.228 F1000
G1 X52.452 Y39.228 F1000
G1 X52.452 Y44.995 F1000
G04 P0.5

M03

G04 P0.5
G0 X86.446 Y33.153 F3000
G04 P0.5

M05

G04 P0.5
G1 X86.446 Y28.897 F1000
G1 X86.446 Y7.585 F1000
G04 P0.5

M03

G04 P0.5
G0 X106.941 Y20.440 F3000
G04 P0.5

M05

G04 P0.5
G1 X111.466 Y20.440 F1000
G1 X106.941 Y20.440 F1000
G04 P0.5

M03

G04 P0.5
G0 X116.014 Y22.323 F3000
G04 P0.5

M05

G04 P0.5
G1 X116.014 Y6.525 F1000
G1 X111.466 Y6.525 F1000
G1 X111.466 Y10.726 F1000
G1 X111.466 Y24.000 F1000
G1 X111.466 Y24.451 F1000
G1 X94.655 Y32.955 F1000
G04 P0.5

M03

G04 P0.5
G0 X148.400 Y23.240 F3000
G04 P0.5

M05

G04 P0.5
G1 X148.400 Y6.525 F1000
G1 X143.851 Y6.525 F1000
G1 X143.851 Y23.090 F1000
G1 X129.778 Y6.525 F1000
G1 X125.206 Y6.525 F1000
G1 X125.206 Y44.995 F1000
G1 X129.778 Y44.995 F1000
G1 X129.778 Y29.909 F1000
G04 P0.5

M03

G04 P0.5
G0 X0.000 Y0.000 F3000
G04 P0.5

M05

G04 P0.5
G1 X152.400 Y0.000 F1000
G1 X152.400 Y50.800 F1000
G1 X0.000 Y50.800 F1000
G1 X0.000 Y0.000 F1000
G04 P0.5

M03

G04 P0.5
G0 X20.424 Y99.373 F3000
G04 P0.5

M05

G04 P0.5
G1 X20.424 Y96.419 F1000
G1 X15.163 Y90.530 F1000
G1 X6.115 Y81.836 F1000
G1 X12.435 Y88.013 F1000
G04 P0.5

M03

G04 P0.5
G0 X40.327 Y87.864 F3000
G04 P0.5

M05

G04 P0.5
G1 X40.327 Y77.731 F1000
G1 X37.570 Y77.731 F1000
G1 X37.570 Y87.773 F1000
G1 X29.039 Y77.731 F1000
G1 X26.267 Y77.731 F1000
G1 X26.267 Y101.051 F1000
G1 X29.039 Y101.051 F1000
G1 X29.039 Y91.906 F1000
G04 P0.5

M03

G04 P0.5
G0 X60.181 Y86.814 F3000
G04 P0.5

M05

G04 P0.5
G1 X60.181 Y85.466 F1000
G1 X47.502 Y85.466 F1000
G1 X59.538 Y78.585 F1000
G04 P0.5

M03

G04 P0.5
G0 X57.423 Y87.624 F3000
G04 P0.5

M05

G04 P0.5
G1 X57.423 Y87.624 F1000
G04 P0.5

M03

G04 P0.5
G0 X67.371 Y80.249 F3000
G04 P0.5

M05

G04 P0.5
G1 X67.371 Y71.349 F1000
G1 X64.600 Y71.349 F1000
G1 X64.600 Y94.515 F1000
G1 X67.371 Y94.515 F1000
G1 X67.371 Y91.969 F1000
G04 P0.5

M03

G04 P0.5
G0 X76.756 Y86.109 F3000
G0 X98.140 Y87.864 F3000
G04 P0.5

M05

G04 P0.5
G1 X98.140 Y77.731 F1000
G1 X95.383 Y77.731 F1000
G1 X95.383 Y87.773 F1000
G1 X86.852 Y77.731 F1000
G1 X84.080 Y77.731 F1000
G1 X84.080 Y101.051 F1000
G1 X86.852 Y101.051 F1000
G1 X86.852 Y91.906 F1000
G04 P0.5

M03

G04 P0.5
G0 X117.994 Y86.814 F3000
G04 P0.5

M05

G04 P0.5
G1 X117.994 Y85.466 F1000
G1 X105.315 Y85.466 F1000
G1 X117.352 Y78.585 F1000
G04 P0.5

M03

G04 P0.5
G0 X115.237 Y87.624 F3000
G04 P0.5

M05

G04 P0.5
G1 X115.237 Y87.624 F1000
G04 P0.5

M03

G04 P0.5
G0 X132.243 Y91.940 F3000
G04 P0.5

M05

G04 P0.5
G1 X125.185 Y77.731 F1000
G1 X122.413 Y77.731 F1000
G1 X122.413 Y94.515 F1000
G1 X125.185 Y94.515 F1000
G1 X125.185 Y91.906 F1000
G1 X132.243 Y91.940 F1000
G04 P0.5

M03

G04 P0.5
G0 X145.643 Y91.969 F3000
G04 P0.5

M05

G04 P0.5
G1 X145.643 Y101.051 F1000
G1 X148.400 Y101.051 F1000
G1 X148.400 Y77.731 F1000
G1 X145.643 Y77.731 F1000
G1 X145.643 Y80.249 F1000
G04 P0.5

M03

G04 P0.5
G0 X136.249 Y86.109 F3000
G0 X0.000 Y60.800 F3000
G04 P0.5

M05

G04 P0.5
G1 X152.400 Y60.800 F1000
G1 X152.400 Y111.600 F1000
G1 X0.000 Y111.600 F1000
G1 X0.000 Y60.800 F1000
G04 P0.5

M03

G04 P0.5
G0 X15.200 Y168.400 F3000
G04 P0.5

M05

G04 P0.5
G1 X22.847 Y168.400 F1000
G1 X41.463 Y133.284 F1000
G1 X41.463 Y168.400 F1000
G1 X46.969 Y168.400 F1000
G1 X46.969 Y126.419 F1000
G1 X39.321 Y126.419 F1000
G1 X20.715 Y161.535 F1000
G1 X20.715 Y126.419 F1000
G1 X15.200 Y126.419 F1000
G1 X15.200 Y168.400 F1000
G04 P0.5

M03

G04 P0.5
G0 X72.364 Y142.245 F3000
G04 P0.5

M05

G04 P0.5
G1 X77.510 Y142.245 F1000
G1 X72.364 Y142.245 F1000
G04 P0.5

M03

G04 P0.5
G0 X82.684 Y144.386 F3000
G04 P0.5

M05

G04 P0.5
G1 X82.684 Y126.419 F1000
G1 X77.510 Y126.419 F1000
G1 X77.510 Y131.196 F1000
G1 X77.510 Y146.294 F1000
G1 X77.510 Y146.807 F1000
G1 X58.391 Y156.479 F1000
G04 P0.5

M03

G04 P0.5
G0 X98.455 Y166.852 F3000
G04 P0.5

M05

G04 P0.5
G1 X98.455 Y157.909 F1000
G1 X109.108 Y157.909 F1000
G1 X109.108 Y153.887 F1000
G1 X98.455 Y153.887 F1000
G1 X98.455 Y136.793 F1000
G1 X109.108 Y130.746 F1000
G1 X109.108 Y126.419 F1000
G1 X103.799 Y126.419 F1000
G1 X93.254 Y153.887 F1000
G1 X89.457 Y153.887 F1000
G1 X89.457 Y157.909 F1000
G1 X93.254 Y157.909 F1000
G1 X93.254 Y166.852 F1000
G1 X98.455 Y166.852 F1000
G04 P0.5

M03

G04 P0.5
G0 X142.851 Y143.460 F3000
G04 P0.5

M05

G04 P0.5
G1 X142.851 Y140.931 F1000
G1 X119.062 Y140.931 F1000
G1 X141.645 Y128.020 F1000
G04 P0.5

M03

G04 P0.5
G0 X137.677 Y144.980 F3000
G04 P0.5

M05

G04 P0.5
G1 X137.677 Y144.980 F1000
G04 P0.5

M03

G04 P0.5
G0 X0.000 Y121.600 F3000
G04 P0.5

M05

G04 P0.5
G1 X152.400 Y121.600 F1000
G1 X152.400 Y172.400 F1000
G1 X0.000 Y172.400 F1000
G1 X0.000 Y121.600 F1000
G04 P0.5

M03

G04 P0.5
G0 X9.602 Y229.017 F3000
G04 P0.5

M05

G04 P0.5
G1 X15.231 Y229.017 F1000
G1 X15.231 Y187.395 F1000
G1 X9.602 Y187.395 F1000
G1 X9.602 Y229.017 F1000
G04 P0.5

M03

G04 P0.5
G0 X46.118 Y217.697 F3000
G04 P0.5

M05

G04 P0.5
G1 X46.118 Y212.844 F1000
G1 X37.732 Y205.262 F1000
G1 X23.933 Y193.835 F1000
G1 X33.156 Y201.391 F1000
G04 P0.5

M03

G04 P0.5
G0 X70.153 Y203.086 F3000
G04 P0.5

M05

G04 P0.5
G1 X75.255 Y203.086 F1000
G1 X70.153 Y203.086 F1000
G04 P0.5

M03

G04 P0.5
G0 X80.384 Y205.209 F3000
G04 P0.5

M05

G04 P0.5
G1 X80.384 Y187.395 F1000
G1 X75.255 Y187.395 F1000
G1 X75.255 Y192.131 F1000
G1 X75.255 Y207.100 F1000
G1 X75.255 Y207.608 F1000
G1 X56.299 Y217.198 F1000
G04 P0.5

M03

G04 P0.5
G0 X105.137 Y203.086 F3000
G04 P0.5

M05

G04 P0.5
G1 X110.240 Y203.086 F1000
G1 X105.137 Y203.086 F1000
G04 P0.5

M03

G04 P0.5
G0 X115.369 Y205.209 F3000
G04 P0.5

M05

G04 P0.5
G1 X115.369 Y187.395 F1000
G1 X110.240 Y187.395 F1000
G1 X110.240 Y192.131 F1000
G1 X110.240 Y207.100 F1000
G1 X110.240 Y207.608 F1000
G1 X91.284 Y217.198 F1000
G04 P0.5

M03

G04 P0.5
G0 X148.400 Y217.421 F3000
G04 P0.5

M05

G04 P0.5
G1 X148.400 Y212.621 F1000
G1 X148.400 Y188.590 F1000
G04 P0.5

M03

G04 P0.5
G0 X0.000 Y182.400 F3000
G04 P0.5

M05

G04 P0.5
G1 X152.400 Y182.400 F1000
G1 X152.400 Y233.200 F1000
G1 X0.000 Y233.200 F1000
G1 X0.000 Y182.400 F1000
G04 P0.5

M03

G04 P0.5
G0 X22.666 Y288.628 F3000
G04 P0.5

M05

G04 P0.5
G1 X27.062 Y288.628 F1000
G1 X27.062 Y258.388 F1000
G1 X15.986 Y247.200 F1000
G1 X15.986 Y250.899 F1000
G1 X17.358 Y250.899 F1000
G1 X22.666 Y288.628 F1000
G04 P0.5

M03

G04 P0.5
G0 X46.724 Y268.377 F3000
G04 P0.5

M05

G04 P0.5
G1 X50.708 Y268.377 F1000
G1 X46.724 Y268.377 F1000
G04 P0.5

M03

G04 P0.5
G0 X54.714 Y270.035 F3000
G04 P0.5

M05

G04 P0.5
G1 X54.714 Y256.124 F1000
G1 X50.708 Y256.124 F1000
G1 X50.708 Y259.823 F1000
G1 X50.708 Y271.512 F1000
G1 X50.708 Y271.909 F1000
G1 X35.905 Y279.398 F1000
G04 P0.5

M03

G04 P0.5
G0 X80.509 Y279.572 F3000
G04 P0.5

M05

G04 P0.5
G1 X80.509 Y275.824 F1000
G1 X80.509 Y257.057 F1000
G04 P0.5

M03

G04 P0.5
G0 X96.919 Y277.698 F3000
G0 X96.919 Y281.090 F3000
G0 X132.256 Y268.293 F3000
G0 X118.623 Y276.806 F3000
G04 P0.5

M05

G04 P0.5
G1 X118.623 Y256.124 F1000
G1 X114.597 Y256.124 F1000
G1 X114.597 Y290.000 F1000
G1 X118.623 Y290.000 F1000
G1 X118.623 Y276.806 F1000
G04 P0.5

M03

G04 P0.5
G0 X0.000 Y243.200 F3000
G04 P0.5

M05

G04 P0.5
G1 X152.400 Y243.200 F1000
G1 X152.400 Y294.000 F1000
G1 X0.000 Y294.000 F1000
G1 X0.000 Y243.200 F1000
G04 P0.5

M03

G04 P0.5
G04 P0.5

M03

G04 P0.5
G0 X0 Y0 F3000 ; return to origin