G21 ; units = mm
G90 ; absolute coords
G04 P0.5

M03

G04 P0.5
G0 X26.293 Y41.853 F3000
G04 P0.5

M05

G04 P0.5
G1 X26.293 Y29.739 F1000
G1 X31.780 Y29.739 F1000
G1 X26.293 Y41.853 F1000
G04 P0.5

M03

G04 P0.5
G0 X21.933 Y45.439 F3000
G04 P0.5

M05

G04 P0.5
G1 X31.780 Y45.439 F1000
G1 X26.293 Y26.153 F1000
G1 X26.293 Y13.197 F1000
G1 X21.933 Y13.197 F1000
G1 X21.933 Y45.439 F1000
G04 P0.5

M03

G04 P0.5
G0 X68.536 Y27.798 F3000
G04 P0.5

M05

G04 P0.5
G1 X68.536 Y13.197 F1000
G1 X64.563 Y13.197 F1000
G1 X64.563 Y27.666 F1000
G1 X52.270 Y13.197 F1000
G1 X48.276 Y13.197 F1000
G1 X48.276 Y46.800 F1000
G1 X52.270 Y46.800 F1000
G1 X52.270 Y33.623 F1000
G04 P0.5

M03

G04 P0.5
G0 X76.457 Y37.382 F3000
G04 P0.5

M05

G04 P0.5
G1 X80.430 Y37.382 F1000
G1 X80.430 Y13.197 F1000
G1 X76.457 Y13.197 F1000
G1 X76.457 Y37.382 F1000
G04 P0.5

M03

G04 P0.5
G0 X76.457 Y46.800 F3000
G04 P0.5

M05

G04 P0.5
G1 X80.430 Y46.800 F1000
G1 X80.430 Y41.763 F1000
G1 X76.457 Y41.763 F1000
G1 X76.457 Y46.800 F1000
G04 P0.5

M03

G04 P0.5
G0 X88.743 Y46.800 F3000
G04 P0.5

M05

G04 P0.5
G1 X92.716 Y46.800 F1000
G1 X92.716 Y13.197 F1000
G1 X88.743 Y13.197 F1000
G1 X88.743 Y46.800 F1000
G04 P0.5

M03

G04 P0.5
G0 X101.030 Y37.382 F3000
G04 P0.5

M05

G04 P0.5
G1 X105.003 Y37.382 F1000
G1 X105.003 Y13.197 F1000
G1 X101.030 Y13.197 F1000
G1 X101.030 Y37.382 F1000
G04 P0.5

M03

G04 P0.5
G0 X101.030 Y46.800 F3000
G04 P0.5

M05

G04 P0.5
G1 X105.003 Y46.800 F1000
G1 X105.003 Y41.763 F1000
G1 X101.030 Y41.763 F1000
G1 X101.030 Y46.800 F1000
G04 P0.5

M03

G04 P0.5
G0 X117.159 Y16.825 F3000
G04 P0.5

M05

G04 P0.5
G1 X117.159 Y4.000 F1000
G1 X113.165 Y4.000 F1000
G1 X113.165 Y37.382 F1000
G1 X117.159 Y37.382 F1000
G1 X117.159 Y33.713 F1000
G04 P0.5

M03

G04 P0.5
G0 X130.681 Y25.269 F3000
G0 X0.000 Y0.000 F3000
G04 P0.5

M05

G04 P0.5
G1 X152.400 Y0.000 F1000
G1 X152.400 Y50.800 F1000
G1 X0.000 Y50.800 F1000
G1 X0.000 Y0.000 F1000
G04 P0.5

M03

G04 P0.5
G0 X39.912 Y107.600 F3000
G04 P0.5

M05

G04 P0.5
G1 X45.590 Y107.600 F1000
G1 X45.590 Y65.619 F1000
G1 X39.912 Y65.619 F1000
G1 X39.912 Y107.600 F1000
G04 P0.5

M03

G04 P0.5
G0 X70.984 Y81.445 F3000
G04 P0.5

M05

G04 P0.5
G1 X76.131 Y81.445 F1000
G1 X70.984 Y81.445 F1000
G04 P0.5

M03

G04 P0.5
G0 X81.304 Y83.586 F3000
G04 P0.5

M05

G04 P0.5
G1 X81.304 Y65.619 F1000
G1 X76.131 Y65.619 F1000
G1 X76.131 Y70.396 F1000
G1 X76.131 Y85.494 F1000
G1 X76.131 Y86.007 F1000
G1 X57.012 Y95.679 F1000
G04 P0.5

M03

G04 P0.5
G0 X118.138 Y84.630 F3000
G04 P0.5

M05

G04 P0.5
G1 X118.138 Y65.619 F1000
G1 X112.965 Y65.619 F1000
G1 X112.965 Y84.459 F1000
G1 X96.958 Y65.619 F1000
G1 X91.758 Y65.619 F1000
G1 X91.758 Y97.109 F1000
G1 X96.958 Y97.109 F1000
G1 X96.958 Y92.215 F1000
G04 P0.5

M03

G04 P0.5
G0 X0.000 Y60.800 F3000
G04 P0.5

M05

G04 P0.5
G1 X152.400 Y60.800 F1000
G1 X152.400 Y111.600 F1000
G1 X0.000 Y111.600 F1000
G1 X0.000 Y60.800 F1000
G04 P0.5

M03

G04 P0.5
G0 X36.392 Y167.028 F3000
G04 P0.5

M05

G04 P0.5
G1 X40.787 Y167.028 F1000
G1 X40.787 Y136.788 F1000
G1 X29.711 Y125.600 F1000
G1 X29.711 Y129.299 F1000
G1 X31.083 Y129.299 F1000
G1 X36.392 Y167.028 F1000
G04 P0.5

M03

G04 P0.5
G0 X60.449 Y146.777 F3000
G04 P0.5

M05

G04 P0.5
G1 X64.434 Y146.777 F1000
G1 X60.449 Y146.777 F1000
G04 P0.5

M03

G04 P0.5
G0 X68.439 Y148.435 F3000
G04 P0.5

M05

G04 P0.5
G1 X68.439 Y134.524 F1000
G1 X64.434 Y134.524 F1000
G1 X64.434 Y138.223 F1000
G1 X64.434 Y149.912 F1000
G1 X64.434 Y150.309 F1000
G1 X49.631 Y157.798 F1000
G04 P0.5

M03

G04 P0.5
G0 X94.234 Y157.972 F3000
G04 P0.5

M05

G04 P0.5
G1 X94.234 Y154.224 F1000
G1 X94.234 Y135.457 F1000
G04 P0.5

M03

G04 P0.5
G0 X101.045 Y168.400 F3000
G04 P0.5

M05

G04 P0.5
G1 X105.072 Y168.400 F1000
G1 X105.072 Y148.393 F1000
G1 X117.026 Y158.905 F1000
G1 X122.139 Y158.905 F1000
G1 X109.210 Y147.502 F1000
G1 X122.689 Y134.524 F1000
G1 X117.464 Y134.524 F1000
G1 X105.072 Y146.429 F1000
G1 X105.072 Y134.524 F1000
G1 X101.045 Y134.524 F1000
G1 X101.045 Y168.400 F1000
G04 P0.5

M03

G04 P0.5
G0 X0.000 Y121.600 F3000
G04 P0.5

M05

G04 P0.5
G1 X152.400 Y121.600 F1000
G1 X152.400 Y172.400 F1000
G1 X0.000 Y172.400 F1000
G1 X0.000 Y121.600 F1000
G04 P0.5

M03

G04 P0.5
G0 X8.940 Y225.735 F3000
G04 P0.5

M05

G04 P0.5
G1 X13.904 Y225.735 F1000
G1 X13.904 Y189.031 F1000
G1 X8.940 Y189.031 F1000
G1 X8.940 Y225.735 F1000
G04 P0.5

M03

G04 P0.5
G0 X41.141 Y215.753 F3000
G04 P0.5

M05

G04 P0.5
G1 X41.141 Y211.474 F1000
G1 X33.746 Y204.787 F1000
G1 X21.577 Y194.710 F1000
G1 X29.711 Y201.373 F1000
G04 P0.5

M03

G04 P0.5
G0 X62.336 Y202.868 F3000
G04 P0.5

M05

G04 P0.5
G1 X66.835 Y202.868 F1000
G1 X62.336 Y202.868 F1000
G04 P0.5

M03

G04 P0.5
G0 X71.358 Y204.740 F3000
G04 P0.5

M05

G04 P0.5
G1 X71.358 Y189.031 F1000
G1 X66.835 Y189.031 F1000
G1 X66.835 Y193.208 F1000
G1 X66.835 Y206.408 F1000
G1 X66.835 Y206.856 F1000
G1 X50.119 Y215.312 F1000
G04 P0.5

M03

G04 P0.5
G0 X80.671 Y216.563 F3000
G04 P0.5

M05

G04 P0.5
G1 X85.194 Y216.563 F1000
G1 X85.194 Y189.031 F1000
G1 X80.671 Y189.031 F1000
G1 X80.671 Y216.563 F1000
G04 P0.5

M03

G04 P0.5
G0 X80.671 Y227.285 F3000
G04 P0.5

M05

G04 P0.5
G1 X85.194 Y227.285 F1000
G1 X85.194 Y221.550 F1000
G1 X80.671 Y221.550 F1000
G1 X80.671 Y227.285 F1000
G04 P0.5

M03

G04 P0.5
G0 X107.174 Y202.868 F3000
G04 P0.5

M05

G04 P0.5
G1 X111.673 Y202.868 F1000
G1 X107.174 Y202.868 F1000
G04 P0.5

M03

G04 P0.5
G0 X116.196 Y204.740 F3000
G04 P0.5

M05

G04 P0.5
G1 X116.196 Y189.031 F1000
G1 X111.673 Y189.031 F1000
G1 X111.673 Y193.208 F1000
G1 X111.673 Y206.408 F1000
G1 X111.673 Y206.856 F1000
G1 X94.957 Y215.312 F1000
G04 P0.5

M03

G04 P0.5
G0 X148.400 Y205.652 F3000
G04 P0.5

M05

G04 P0.5
G1 X148.400 Y189.031 F1000
G1 X143.877 Y189.031 F1000
G1 X143.877 Y205.503 F1000
G1 X129.883 Y189.031 F1000
G1 X125.336 Y189.031 F1000
G1 X125.336 Y227.285 F1000
G1 X129.883 Y227.285 F1000
G1 X129.883 Y212.284 F1000
G04 P0.5

M03

G04 P0.5
G0 X0.000 Y182.400 F3000
G04 P0.5

M05

G04 P0.5
G1 X152.400 Y182.400 F1000
G1 X152.400 Y233.200 F1000
G1 X0.000 Y233.200 F1000
G1 X0.000 Y182.400 F1000
G04 P0.5

M03

G04 P0.5
G0 X30.774 Y281.071 F3000
G04 P0.5

M05

G04 P0.5
G1 X30.774 Y276.752 F1000
G1 X30.774 Y255.434 F1000
G04 P0.5

M03

G04 P0.5
G0 X55.844 Y266.827 F3000
G04 P0.5

M05

G04 P0.5
G1 X55.844 Y253.102 F1000
G1 X52.109 Y253.102 F1000
G1 X52.109 Y266.703 F1000
G1 X40.554 Y253.102 F1000
G1 X36.800 Y253.102 F1000
G1 X36.800 Y284.689 F1000
G1 X40.554 Y284.689 F1000
G1 X40.554 Y272.302 F1000
G04 P0.5

M03

G04 P0.5
G0 X73.623 Y264.527 F3000
G04 P0.5

M05

G04 P0.5
G1 X77.339 Y264.527 F1000
G1 X73.623 Y264.527 F1000
G04 P0.5

M03

G04 P0.5
G0 X81.074 Y266.073 F3000
G04 P0.5

M05

G04 P0.5
G1 X81.074 Y253.102 F1000
G1 X77.339 Y253.102 F1000
G1 X77.339 Y256.551 F1000
G1 X77.339 Y267.450 F1000
G1 X77.339 Y267.821 F1000
G1 X63.536 Y274.803 F1000
G04 P0.5

M03

G04 P0.5
G0 X101.936 Y272.348 F3000
G04 P0.5

M05

G04 P0.5
G1 X92.375 Y253.102 F1000
G1 X88.620 Y253.102 F1000
G1 X88.620 Y275.836 F1000
G1 X92.375 Y275.836 F1000
G1 X92.375 Y272.302 F1000
G1 X101.936 Y272.348 F1000
G04 P0.5

M03

G04 P0.5
G0 X105.854 Y284.689 F3000
G04 P0.5

M05

G04 P0.5
G1 X109.589 Y284.689 F1000
G1 X109.589 Y253.102 F1000
G1 X105.854 Y253.102 F1000
G1 X105.854 Y284.689 F1000
G04 P0.5

M03

G04 P0.5
G0 X117.403 Y275.836 F3000
G04 P0.5

M05

G04 P0.5
G1 X121.138 Y275.836 F1000
G1 X121.138 Y253.102 F1000
G1 X117.403 Y253.102 F1000
G1 X117.403 Y275.836 F1000
G04 P0.5

M03

G04 P0.5
G0 X117.403 Y284.689 F3000
G04 P0.5

M05

G04 P0.5
G1 X121.138 Y284.689 F1000
G1 X121.138 Y279.954 F1000
G1 X117.403 Y279.954 F1000
G1 X117.403 Y284.689 F1000
G04 P0.5

M03

G04 P0.5
G0 X148.400 Y265.404 F3000
G04 P0.5

M05

G04 P0.5
G1 X148.400 Y263.579 F1000
G1 X131.226 Y263.579 F1000
G1 X147.530 Y254.258 F1000
G04 P0.5

M03

G04 P0.5
G0 X144.665 Y266.502 F3000
G04 P0.5

M05

G04 P0.5
G1 X144.665 Y266.502 F1000
G04 P0.5

M03

G04 P0.5
G0 X0.000 Y243.200 F3000
G04 P0.5

M05

G04 P0.5
G1 X152.400 Y243.200 F1000
G1 X152.400 Y294.000 F1000
G1 X0.000 Y294.000 F1000
G1 X0.000 Y243.200 F1000
G04 P0.5

M03

G04 P0.5
G04 P0.5

M03

G04 P0.5
G0 X0 Y0 F3000 ; return to origin